{"type":"FeatureCollection","name":"AC_Municipios_2024","crs":{"type":"name","properties":{"name":"urn:ogc:def:crs:EPSG::4674"}},"features":[{"type":"Feature","properties":{"level":"municipio","municipality_code":"1200013","municipality_name":"Acrelândia","uf":"AC","state_code":"12","area_km2":1811.621},"geometry":{"type":"Polygon","coordinates":[[[-67.0761223,-10.0879777],[-67.1002758,-10.1038349],[-67.1246637,-9.969853],[-67.0902509,-9.9572901],[-67.1851066,-9.710019],[-67.1932839,-9.7049201],[-67.1877996,-9.6924215],[-67.172808,-9.6922453],[-67.1702686,-9.6850396],[-67.157791,-9.6912582],[-67.134984,-9.6759181],[-66.62368,-9.9038814],[-66.635353,-9.9119771],[-66.6265232,-9.9191954],[-66.6363293,-9.9267623],[-66.6255576,-9.9329658],[-66.6370053,-9.9498531],[-66.6510922,-9.9351217],[-66.6546998,-9.9411586],[-66.663071,-9.9369526],[-66.6687009,-9.9597705],[-66.6777131,-9.9577363],[-66.6756318,-9.9676363],[-66.6940344,-9.9663102],[-66.7129252,-9.9787102],[-66.7181609,-9.9734401],[-66.7203241,-9.982913],[-66.7323404,-9.9814602],[-66.7416798,-9.9966068],[-66.7636793,-9.9993064],[-66.7712431,-10.020971],[-66.7897557,-10.0218056],[-66.8075066,-10.0374628],[-66.8021368,-10.0431518],[-66.8071794,-10.0492104],[-66.8360667,-10.0622728],[-66.8379818,-10.0832994],[-66.8744921,-10.0812871],[-66.8731617,-10.1014199],[-66.8797707,-10.0963446],[-66.8847596,-10.1086921],[-66.8875008,-10.0990592],[-66.8888526,-10.1148499],[-66.8986105,-10.1109894],[-66.8958854,-10.1224915],[-66.9186681,-10.1301276],[-66.9112276,-10.1474112],[-66.9242685,-10.1432184],[-66.9458066,-10.1583363],[-66.9535368,-10.189003],[-66.9589763,-10.1918013],[-66.9609343,-10.1826513],[-66.9740087,-10.1920877],[-66.9751138,-10.1850391],[-66.9817952,-10.1901104],[-66.9744969,-10.1960898],[-66.9918964,-10.2039313],[-66.9969282,-10.1992061],[-66.9932697,-10.2103248],[-67.0009918,-10.2178665],[-66.9887502,-10.2212188],[-66.999023,-10.2331128],[-67.0022819,-10.2297395],[-67.0023875,-10.2022532],[-67.0759595,-10.2024185],[-67.0761223,-10.0879777]]]}},{"type":"Feature","properties":{"level":"municipio","municipality_code":"1200054","municipality_name":"Assis Brasil","uf":"AC","state_code":"12","area_km2":4962.946},"geometry":{"type":"Polygon","coordinates":[[[-69.3900426,-10.8262604],[-69.4279725,-10.937602],[-69.4485611,-10.9351686],[-69.4537566,-10.9493286],[-69.4620875,-10.9508297],[-69.4780788,-10.9451837],[-69.4781218,-10.9549587],[-69.4937215,-10.9510193],[-69.501634,-10.935935],[-69.5083073,-10.9438248],[-69.5224372,-10.9358349],[-69.5402954,-10.9376257],[-69.5407728,-10.9511457],[-69.54743,-10.953542],[-69.58298028299998,-10.939908608999925],[-69.59033364399994,-10.948660688999947],[-69.59521097699997,-10.940787559999935],[-69.61160637899997,-10.947289511999934],[-69.60952767599997,-10.960075058999967],[-69.61972154899996,-10.950054782999924],[-69.63422536899998,-10.957683906999932],[-69.6589938,-10.9529785],[-69.6686551,-10.9625637],[-69.6819106,-10.9612892],[-69.6983365,-10.9729333],[-69.7005895,-10.9655182],[-69.7158996,-10.976804],[-69.7231308,-10.9647177],[-69.7398142,-10.9747239],[-69.7392777,-10.9654497],[-69.7599039,-10.9393743],[-69.7742913,-10.9393795],[-69.7696725,-10.9294723],[-69.7938124,-10.93426],[-69.8068924,-10.9258248],[-69.8314617,-10.9335749],[-69.8513351,-10.9237208],[-69.8586682,-10.9344175],[-69.8622492,-10.9259764],[-69.8738509,-10.9306477],[-69.9011172,-10.9200249],[-69.9216199,-10.9331557],[-69.9339039,-10.9211345],[-69.9546993,-10.9276508],[-69.9546701,-10.9355296],[-69.9623797,-10.9352323],[-69.9578575,-10.9396338],[-69.974757,-10.9488288],[-69.983438,-10.9426823],[-69.9848276,-10.9552013],[-69.9952086,-10.9495444],[-69.9972273,-10.9620814],[-70.0063979,-10.9606595],[-70.0273829,-10.9775227],[-70.0378188,-10.9707587],[-70.0367498,-10.9788099],[-70.0637084,-10.9868483],[-70.0656409,-10.9941717],[-70.0923488,-10.9853819],[-70.0945541,-10.9958123],[-70.1081046,-10.9945433],[-70.1071242,-11.0064227],[-70.1558952,-11.0328253],[-70.1586406,-11.0423232],[-70.1767407,-11.0397761],[-70.1993696,-11.0547026],[-70.2421498,-11.0470869],[-70.3082352,-11.0706445],[-70.3420332,-11.0677344],[-70.3539177,-11.0590546],[-70.3759743,-11.0598543],[-70.3857326,-11.0476653],[-70.437776,-11.0390217],[-70.4528315,-10.996725],[-70.5267128,-10.9351447],[-70.6176133,-10.9990417],[-70.6141647,-10.705576],[-70.5997218,-10.6972196],[-70.5783274,-10.7036435],[-70.5706037,-10.6908413],[-70.5545748,-10.6876469],[-70.5225385,-10.7000976],[-70.5346085,-10.7040826],[-70.5336,-10.7120418],[-70.5260039,-10.7194632],[-70.5142666,-10.7172916],[-70.5083336,-10.7278015],[-70.5019284,-10.7143399],[-70.4845176,-10.7247238],[-70.4660893,-10.7154181],[-70.4598178,-10.7013205],[-70.4578651,-10.7133595],[-70.4462672,-10.710197],[-70.4427979,-10.7203151],[-70.4351878,-10.7143329],[-70.4228435,-10.724717],[-70.4200695,-10.7101005],[-70.4008273,-10.7257751],[-70.382711,-10.7202269],[-70.3801607,-10.7316285],[-70.3664876,-10.7304157],[-70.3649748,-10.7133384],[-70.3416933,-10.7176078],[-70.3430987,-10.7048521],[-70.3333033,-10.7077723],[-70.3289862,-10.7199556],[-70.3249348,-10.7129168],[-70.3141309,-10.7140869],[-70.3070716,-10.6998724],[-70.2865069,-10.6962437],[-70.2763194,-10.7087101],[-70.2747187,-10.6930356],[-70.271185,-10.7070959],[-70.2576877,-10.7140412],[-70.2515833,-10.6975663],[-70.2194271,-10.685066],[-70.2068386,-10.7018733],[-70.2016703,-10.6895086],[-70.1787655,-10.6907431],[-70.1760864,-10.6737527],[-70.1660618,-10.6734678],[-70.1624806,-10.6650303],[-70.1516759,-10.6735424],[-70.1313468,-10.6540595],[-70.1224233,-10.6563819],[-70.1222457,-10.6388407],[-70.1078909,-10.6478587],[-70.101831,-10.6404149],[-70.0910247,-10.651644],[-70.0785696,-10.6337392],[-70.0676026,-10.6338977],[-70.0703181,-10.6162432],[-70.0557912,-10.618637],[-70.0510491,-10.6085557],[-70.0407306,-10.6156927],[-70.0447513,-10.6064993],[-70.0060372,-10.5821831],[-69.9944759,-10.5837307],[-69.9977268,-10.5750615],[-69.991547,-10.5710643],[-69.9770597,-10.5864109],[-69.9666329,-10.5745446],[-69.9579094,-10.5802927],[-69.9397188,-10.5664338],[-69.9304382,-10.5489733],[-69.9226035,-10.5617303],[-69.9056482,-10.5440256],[-69.8985212,-10.558865],[-69.8884858,-10.5538832],[-69.8745706,-10.5622003],[-69.8640273,-10.5404216],[-69.832752,-10.5407578],[-69.8325688,-10.5093832],[-69.7985314,-10.5054036],[-69.807377,-10.4860681],[-69.7889089,-10.4762919],[-69.785358,-10.4614831],[-69.7582882,-10.4634528],[-69.7585683,-10.4561387],[-69.7429102,-10.4470221],[-69.7301388,-10.4549867],[-69.7149505,-10.4447542],[-69.7060868,-10.4478985],[-69.7097868,-10.4377067],[-69.6969973,-10.4322268],[-69.6879575,-10.4379258],[-69.6832004,-10.4114614],[-69.6754346,-10.4280999],[-69.6698327,-10.4188523],[-69.6644793,-10.4273229],[-69.6564198,-10.4220734],[-69.6459841,-10.4298347],[-69.6504236,-10.4204622],[-69.6342562,-10.40431],[-69.6266847,-10.4056382],[-69.6306075,-10.3960758],[-69.6110491,-10.3943802],[-69.6172715,-10.3849531],[-69.5927978,-10.37729],[-69.5921473,-10.3701769],[-69.5620507,-10.3885683],[-69.5405557,-10.4193357],[-69.5451234,-10.4474142],[-69.5353884,-10.4603707],[-69.5333103,-10.483741],[-69.5078753,-10.5050009],[-69.5108672,-10.5564879],[-69.5512268,-10.6159658],[-69.6521234,-10.6896613],[-69.6705354,-10.7312739],[-69.7556843,-10.74145],[-69.7778895,-10.7818726],[-69.7281318,-10.8283806],[-69.6834017,-10.8278592],[-69.6668685,-10.8367431],[-69.6648031,-10.8595037],[-69.6573527,-10.8635595],[-69.6377494,-10.8455788],[-69.592029,-10.8643532],[-69.5666628,-10.8577388],[-69.5527434,-10.8737756],[-69.5208601,-10.8481776],[-69.4848153,-10.793835],[-69.4978719,-10.7492289],[-69.4979272,-10.7003817],[-69.4780248,-10.7013132],[-69.4661392,-10.7105691],[-69.4310892,-10.702202],[-69.4214115,-10.6910159],[-69.4235816,-10.7133878],[-69.3927222,-10.7320833],[-69.3900426,-10.8262604]]]}},{"type":"Feature","properties":{"level":"municipio","municipality_code":"1200104","municipality_name":"Brasiléia","uf":"AC","state_code":"12","area_km2":3928.82},"geometry":{"type":"Polygon","coordinates":[[[-68.7381783,-11.0105843],[-68.7505097,-11.01911],[-68.7527746,-11.0079076],[-68.7624306,-11.0183336],[-68.7574202,-11.00003],[-68.7703056,-11.0069282],[-68.7801225,-10.9981554],[-68.7882442,-11.014753],[-68.7895611,-11.0001301],[-68.7988684,-10.9976578],[-68.7924204,-10.9900958],[-68.8116035,-10.9943192],[-68.8037527,-11.001199],[-68.8274125,-11.0066913],[-68.8266722,-10.9961254],[-68.8339276,-10.9925393],[-68.8417784,-11.0017941],[-68.8441387,-10.9915019],[-68.8604144,-11.0048298],[-68.8598913,-11.0163695],[-68.8831676,-11.0083947],[-68.8845489,-11.0162511],[-68.8757325,-11.0150163],[-68.8800186,-11.0213744],[-68.895849,-11.0060778],[-68.9104537,-11.02213],[-68.9207024,-11.0131523],[-68.9252541,-11.0180282],[-68.933349,-11.0048088],[-68.9475433,-11.0122387],[-68.9474923,-11.0041216],[-68.9571348,-11.0015097],[-68.9529452,-10.9897167],[-68.9681534,-10.9874391],[-68.9873151,-10.9979974],[-68.9839328,-11.0082841],[-68.992422,-11.0115778],[-68.9955253,-11.0030763],[-69.0017131,-11.0089634],[-69.0156365,-11.0021443],[-69.0111867,-10.9924919],[-69.024756,-10.9930264],[-69.0263519,-10.9824468],[-69.0342242,-10.9862358],[-69.0386311,-10.9767409],[-69.0492419,-10.9812672],[-69.0514279,-10.9744],[-69.0613547,-10.9857171],[-69.0716544,-10.9668164],[-69.0782366,-10.975993],[-69.0871925,-10.9697551],[-69.1025964,-10.9811013],[-69.1126654,-10.971048],[-69.1210205,-10.981075],[-69.1224716,-10.9664346],[-69.1369528,-10.9744921],[-69.1385755,-10.9679539],[-69.1512651,-10.9709953],[-69.1442109,-10.9634669],[-69.1558329,-10.9646756],[-69.152059,-10.9545664],[-69.1628013,-10.9658342],[-69.1864288,-10.9478039],[-69.2156113,-10.9583531],[-69.2331744,-10.9397983],[-69.2406685,-10.9514906],[-69.2578346,-10.9466768],[-69.2518479,-10.9390767],[-69.2714978,-10.9416154],[-69.2746467,-10.954914],[-69.282983,-10.9435272],[-69.2869205,-10.9498685],[-69.3044997,-10.9483569],[-69.3253995,-10.9356479],[-69.3282855,-10.9497421],[-69.336536,-10.9407516],[-69.3423564,-10.9522701],[-69.3451942,-10.9385658],[-69.355054,-10.936064],[-69.3556011,-10.9454496],[-69.3739796,-10.9405198],[-69.3754441,-10.9561885],[-69.3869722,-10.933894],[-69.3957001,-10.9352318],[-69.3931735,-10.9457604],[-69.4012738,-10.9301754],[-69.4119329,-10.937997],[-69.4144434,-10.9262514],[-69.4235079,-10.9266359],[-69.3900426,-10.8262604],[-69.3927222,-10.7320833],[-69.4235816,-10.7133878],[-69.4214115,-10.6910159],[-69.4310892,-10.702202],[-69.4661392,-10.7105691],[-69.4780248,-10.7013132],[-69.4979272,-10.7003817],[-69.4978719,-10.7492289],[-69.4848153,-10.793835],[-69.5208601,-10.8481776],[-69.5527434,-10.8737756],[-69.5666628,-10.8577388],[-69.592029,-10.8643532],[-69.6377494,-10.8455788],[-69.6573527,-10.8635595],[-69.6648031,-10.8595037],[-69.6668685,-10.8367431],[-69.6834017,-10.8278592],[-69.7281318,-10.8283806],[-69.7778895,-10.7818726],[-69.7556843,-10.74145],[-69.6705354,-10.7312739],[-69.6521234,-10.6896613],[-69.5512268,-10.6159658],[-69.5108672,-10.5564879],[-69.5078753,-10.5050009],[-69.3418082,-10.485329],[-69.3229592,-10.4720451],[-69.2880072,-10.470248],[-69.2473758,-10.4537639],[-69.2464916,-10.4367424],[-69.2211255,-10.4152556],[-69.1957012,-10.4123463],[-69.1827054,-10.3987333],[-69.1516357,-10.3989078],[-69.1493981,-10.3850165],[-69.1315635,-10.385028],[-69.1287784,-10.4021177],[-69.1397131,-10.4347892],[-69.1683501,-10.4765147],[-69.1636316,-10.5086922],[-69.1182973,-10.5249693],[-69.1028592,-10.5537513],[-69.0855585,-10.5594285],[-69.0822013,-10.578638],[-69.0662818,-10.5902638],[-69.0518118,-10.5839279],[-69.0016474,-10.5870908],[-68.9796858,-10.5743144],[-68.9708492,-10.5842082],[-68.9288017,-10.5753604],[-68.9037242,-10.5794887],[-68.9078861,-10.6035362],[-68.9261358,-10.6162751],[-68.9134222,-10.6376811],[-68.9315803,-10.6760825],[-68.9483055,-10.6762784],[-68.9476365,-10.7116699],[-68.9568282,-10.73054],[-68.9779682,-10.7434582],[-68.9764672,-10.7699637],[-68.9065919,-10.7769289],[-68.8809888,-10.767091],[-68.877567,-10.7580673],[-68.8528316,-10.7578214],[-68.8348423,-10.7395415],[-68.7864383,-10.8332058],[-68.7844495,-10.8688089],[-68.7358464,-10.8962498],[-68.6866931,-10.937409],[-68.687801,-10.9682664],[-68.7169406,-10.978462],[-68.7259528,-10.9730061],[-68.7271759,-10.9828224],[-68.7174985,-10.9912692],[-68.7270471,-11.0025593],[-68.7345519,-10.9870406],[-68.7422123,-10.9915641],[-68.7381783,-11.0105843]]]}},{"type":"Feature","properties":{"level":"municipio","municipality_code":"1200138","municipality_name":"Bujari","uf":"AC","state_code":"12","area_km2":3035.547},"geometry":{"type":"Polygon","coordinates":[[[-67.9773049,-9.3526886],[-68.0207611,-9.3581521],[-68.0319034,-9.344168],[-68.0518271,-9.3544198],[-68.0467334,-9.3591421],[-68.0593025,-9.388884],[-68.0561257,-9.4122568],[-68.0393035,-9.437146],[-68.0263332,-9.4431697],[-68.0177032,-9.4689712],[-68.0297844,-9.4939221],[-68.0740508,-9.5245299],[-68.0903387,-9.5578019],[-67.9100358,-9.6692659],[-67.9217324,-9.676127],[-67.923661,-9.6925591],[-67.9121815,-9.696006],[-67.9140163,-9.705684],[-67.9060303,-9.7119211],[-67.8754855,-9.7204755],[-67.8646226,-9.7407957],[-67.8570405,-9.7267283],[-67.854128,-9.7393342],[-67.8459167,-9.7361968],[-67.8465068,-9.7437299],[-67.8278197,-9.7521756],[-67.8053151,-9.7414605],[-67.8094691,-9.7514608],[-67.7958008,-9.7619983],[-67.8227455,-9.774924],[-67.8226649,-9.7978393],[-67.8335015,-9.8162245],[-67.8252903,-9.8515241],[-67.8293641,-9.8698818],[-67.8539881,-9.8578725],[-67.8657614,-9.8414408],[-67.9192826,-9.846561],[-67.9265176,-9.853833],[-67.9694178,-9.85316],[-67.9760658,-9.8455827],[-68.0450519,-9.8916817],[-68.0533382,-9.8875457],[-68.0682043,-9.8948961],[-68.1007184,-9.9307708],[-68.1374825,-9.9356733],[-68.1531165,-9.9610662],[-68.2677564,-9.8234803],[-68.2797921,-9.8215188],[-68.300248,-9.7947317],[-68.3767015,-9.782908],[-68.3934138,-9.7924365],[-68.3943142,-9.8042489],[-68.413725,-9.8104095],[-68.4260807,-9.8264199],[-68.4426935,-9.8289529],[-68.4538355,-9.8444376],[-68.4225,-9.6916666],[-68.4430665,-9.6590451],[-68.4405055,-9.6412336],[-68.4552029,-9.6242944],[-68.4275793,-9.6003393],[-68.4257171,-9.560968],[-68.3968865,-9.5014591],[-68.3866699,-9.5051378],[-68.3833972,-9.4964155],[-68.3695793,-9.4994918],[-68.355472,-9.4920216],[-68.331247,-9.4569379],[-68.3302968,-9.4419778],[-68.3983323,-9.3206242],[-68.3476794,-9.2910619],[-68.3164304,-9.2954092],[-68.2859334,-9.2841473],[-68.2688803,-9.2660618],[-68.2463158,-9.2635587],[-68.2198982,-9.2427531],[-67.9773049,-9.3526886]]]}},{"type":"Feature","properties":{"level":"municipio","municipality_code":"1200179","municipality_name":"Capixaba","uf":"AC","state_code":"12","area_km2":1705.236},"geometry":{"type":"Polygon","coordinates":[[[-67.6959426,-10.3239915],[-67.6867319,-10.3572727],[-67.6377225,-10.3693093],[-67.6584828,-10.3987525],[-67.6821292,-10.3925792],[-67.6868713,-10.4108562],[-67.7114726,-10.4416354],[-67.6757563,-10.4787047],[-67.6202238,-10.4806881],[-67.6087225,-10.505975],[-67.5902379,-10.5107734],[-67.578351,-10.5021954],[-67.5673485,-10.5095144],[-67.5969262,-10.5235566],[-67.609802,-10.5623786],[-67.6353495,-10.5803839],[-67.6438324,-10.6023719],[-67.6592208,-10.6147484],[-67.6756111,-10.6051611],[-67.7078084,-10.7105683],[-67.7263512,-10.7068415],[-67.735897,-10.7132008],[-67.7580348,-10.686337],[-67.7745046,-10.6860916],[-67.8099387,-10.6611555],[-67.8177799,-10.6644817],[-67.8276775,-10.651357],[-67.8536028,-10.6507025],[-67.864445,-10.6406729],[-67.8919353,-10.6410371],[-67.8943349,-10.6481909],[-67.9101627,-10.641888],[-67.9291072,-10.6563834],[-67.9613376,-10.6498039],[-67.976896,-10.6633009],[-68.0011996,-10.6512486],[-68.016347,-10.6024715],[-67.9842642,-10.5937225],[-68.01541,-10.5681685],[-68.0179286,-10.5512588],[-68.0301354,-10.5387889],[-68.0369857,-10.4908307],[-68.0638101,-10.4251324],[-68.0538879,-10.4209705],[-68.0453624,-10.3928933],[-68.0262728,-10.3785931],[-68.0389987,-10.3547874],[-68.0286094,-10.3405838],[-67.9988099,-10.3157671],[-67.9598849,-10.3140218],[-67.946111,-10.2875],[-67.8462025,-10.2876745],[-67.8427637,-10.2808444],[-67.8560857,-10.2847903],[-67.846601,-10.2709253],[-67.8348537,-10.2751608],[-67.8180655,-10.2668345],[-67.832831,-10.2529378],[-67.813231,-10.2246292],[-67.8277676,-10.2109272],[-67.8042575,-10.2038568],[-67.8042319,-10.1973074],[-67.8002149,-10.210931],[-67.7840093,-10.2151877],[-67.7802523,-10.2409937],[-67.7648649,-10.2506433],[-67.7566258,-10.2708499],[-67.7163323,-10.291915],[-67.6959426,-10.3239915]]]}},{"type":"Feature","properties":{"level":"municipio","municipality_code":"1200203","municipality_name":"Cruzeiro do Sul","uf":"AC","state_code":"12","area_km2":8793.341},"geometry":{"type":"Polygon","coordinates":[[[-72.6456152,-7.6745648],[-72.6546669,-7.694767],[-72.7406599,-7.7252509],[-72.7968332,-7.6871182],[-72.860058,-7.6739586],[-72.8546975,-7.6582521],[-72.8269876,-7.6646426],[-72.7834218,-7.6600862],[-72.850938,-7.6019755],[-72.8709956,-7.5610146],[-72.8833284,-7.5594565],[-72.900313,-7.4376812],[-72.5847656,-7.5520042],[-71.945425,-7.6267544],[-72.000853,-7.8083759],[-72.0491531,-7.8390746],[-72.0552364,-7.8518712],[-72.0616107,-7.8476717],[-72.0851926,-7.8603511],[-72.1293203,-7.9179989],[-72.1826849,-7.9466194],[-72.216129,-7.9760666],[-72.2256852,-8.0203625],[-72.2608584,-8.0570554],[-72.2663,-8.2605684],[-72.2903525,-8.2045522],[-72.301803,-8.2056632],[-72.3194295,-8.2292801],[-72.3568432,-8.2411985],[-72.3733261,-8.2381303],[-72.3925584,-8.2533765],[-72.4086326,-8.2544604],[-72.461228,-8.2315139],[-72.5068466,-8.2331266],[-72.5560356,-8.1859787],[-72.634021,-8.1851667],[-72.6739845,-8.2231619],[-72.7258316,-8.2125927],[-72.7376968,-8.2308819],[-72.7608204,-8.2100307],[-72.7614279,-8.2009072],[-72.8005058,-8.2045164],[-72.7929048,-8.1868609],[-72.7956777,-8.1652965],[-72.8029908,-8.160997],[-72.8066433,-8.1688938],[-72.8115266,-8.163056],[-72.8011487,-8.1466352],[-72.8084825,-8.1199437],[-72.839775,-8.1464438],[-72.8568347,-8.1492547],[-72.8606313,-8.161397],[-72.8686578,-8.1587599],[-72.8685827,-8.1675322],[-72.893817,-8.1874867],[-72.9201481,-8.1929224],[-72.9228277,-8.2010263],[-72.9313226,-8.2004721],[-72.9278059,-8.2051889],[-72.9469037,-8.2025648],[-72.943706,-8.2141619],[-72.9473646,-8.2100524],[-72.9517527,-8.2170821],[-72.9609044,-8.2088312],[-72.9673417,-8.217167],[-73.0017973,-8.2220224],[-73.0152806,-8.2553875],[-73.0376153,-8.2823841],[-73.0817551,-8.2968924],[-73.101804,-8.3393225],[-73.2299408,-8.3945617],[-73.3324692,-8.4755659],[-73.338533,-8.4705498],[-73.3440866,-8.4787019],[-73.3532565,-8.4687667],[-73.3711096,-8.4738456],[-73.3778672,-8.4647323],[-73.3825072,-8.4737504],[-73.3923575,-8.4729053],[-73.3905784,-8.4589767],[-73.4097684,-8.431793],[-73.4040196,-8.4196482],[-73.4180337,-8.4088008],[-73.4296835,-8.414383],[-73.4583684,-8.3967459],[-73.4807924,-8.3948804],[-73.4893775,-8.3787953],[-73.4999804,-8.3817268],[-73.5283245,-8.3580844],[-73.5254311,-8.3514029],[-73.5404884,-8.3378781],[-73.5259261,-8.3156253],[-73.5400593,-8.2918783],[-73.5297419,-8.2766878],[-73.595571,-8.2069508],[-73.5878942,-8.1118939],[-73.6027992,-8.1021476],[-73.6084528,-8.0787147],[-73.6299871,-8.0586833],[-73.3995784,-8.0303667],[-73.3984047,-8.0115401],[-73.3800758,-7.9921615],[-73.3447797,-7.9851764],[-73.3224126,-7.9975894],[-73.2971148,-7.9887346],[-73.2679239,-7.9535305],[-73.247644,-7.9387323],[-73.236909,-7.9420983],[-73.2131026,-7.9128735],[-73.170613,-7.8958358],[-73.1366965,-7.9002428],[-73.127135,-7.8899345],[-73.1132015,-7.8925739],[-73.0919551,-7.8826447],[-73.1155988,-7.9340262],[-73.0743989,-7.9467462],[-73.0086944,-7.9336685],[-72.9875318,-7.9422037],[-72.9704272,-7.9371343],[-72.9528577,-7.9482973],[-72.911812,-7.9259739],[-72.8927261,-7.9302048],[-72.8537369,-7.910195],[-72.8360064,-7.9154755],[-72.8061339,-7.9006104],[-72.79748,-7.9069487],[-72.7954358,-7.8992627],[-72.781031,-7.8978482],[-72.7694405,-7.8784425],[-72.7537423,-7.8805279],[-72.7489976,-7.8673952],[-72.7382792,-7.8761248],[-72.7214967,-7.8676464],[-72.7356809,-7.8553617],[-72.7056238,-7.8434881],[-72.6860825,-7.845714],[-72.68093,-7.8245437],[-72.6561776,-7.8355189],[-72.6522576,-7.8201268],[-72.6377605,-7.8217492],[-72.6317575,-7.8042271],[-72.6397283,-7.7971355],[-72.6367452,-7.7833554],[-72.6247916,-7.7813562],[-72.6201965,-7.7714123],[-72.6428489,-7.7739882],[-72.6228761,-7.7603379],[-72.6432977,-7.7417429],[-72.6414953,-7.6819159],[-72.6456152,-7.6745648]]]}},{"type":"Feature","properties":{"level":"municipio","municipality_code":"1200252","municipality_name":"Epitaciolândia","uf":"AC","state_code":"12","area_km2":1652.715},"geometry":{"type":"Polygon","coordinates":[[[-68.6866931,-10.937409],[-68.7358464,-10.8962498],[-68.7844495,-10.8688089],[-68.7864383,-10.8332058],[-68.8351217,-10.7404488],[-68.8240372,-10.7235583],[-68.8054387,-10.715768],[-68.8145582,-10.6910993],[-68.8026385,-10.6819588],[-68.8083248,-10.6712944],[-68.7816529,-10.6626382],[-68.7573038,-10.6742571],[-68.7326543,-10.6453871],[-68.7118833,-10.6468422],[-68.701074,-10.6321064],[-68.6856888,-10.6331714],[-68.6715804,-10.6189043],[-68.6539154,-10.6217303],[-68.6489801,-10.6144595],[-68.6365776,-10.6199851],[-68.6436088,-10.654995],[-68.6054799,-10.6577734],[-68.5521012,-10.7167846],[-68.5326581,-10.7199623],[-68.5320572,-10.7277524],[-68.5446529,-10.7292493],[-68.5321002,-10.7482862],[-68.5424428,-10.7560651],[-68.5414879,-10.7655618],[-68.5544269,-10.7568978],[-68.5617761,-10.7671849],[-68.5440923,-10.7934335],[-68.506874,-10.8088438],[-68.4787108,-10.8356631],[-68.4587659,-10.8156147],[-68.4273009,-10.8254073],[-68.4262004,-10.839166],[-68.4030148,-10.8569055],[-68.4087241,-10.8813126],[-68.4018834,-10.8941038],[-68.4211336,-10.9099509],[-68.4131813,-10.9183723],[-68.4217257,-10.9209657],[-68.4230006,-10.9324497],[-68.4141219,-10.9343623],[-68.4185344,-10.9373303],[-68.405152,-10.9572069],[-68.4035753,-10.9827797],[-68.4108043,-10.9887266],[-68.4001446,-11.0011238],[-68.398584,-11.0367501],[-68.3882087,-11.0405802],[-68.4057161,-11.0538478],[-68.4151257,-11.0397093],[-68.4336266,-11.0318638],[-68.4442565,-11.0459125],[-68.4878379,-11.0513265],[-68.5193597,-11.0880893],[-68.5398699,-11.0967516],[-68.5429714,-11.1113555],[-68.7161196,-11.1455615],[-68.7108681,-11.1309209],[-68.7209385,-11.1033739],[-68.7575744,-11.083407],[-68.7651744,-11.047643],[-68.7508714,-11.0357807],[-68.7545582,-11.0225823],[-68.736864,-11.0119797],[-68.7422123,-10.9915641],[-68.7345519,-10.9870406],[-68.7270471,-11.0025593],[-68.7174985,-10.9912692],[-68.7271759,-10.9828224],[-68.7259528,-10.9730061],[-68.7169406,-10.978462],[-68.687801,-10.9682664],[-68.6866931,-10.937409]]]}},{"type":"Feature","properties":{"level":"municipio","municipality_code":"1200302","municipality_name":"Feijó","uf":"AC","state_code":"12","area_km2":27946.605},"geometry":{"type":"Polygon","coordinates":[[[-70.5803456,-8.1968551],[-70.5551328,-8.1567868],[-70.5781515,-8.1157797],[-70.5787819,-8.0615539],[-70.5680718,-8.043006],[-70.5894208,-8.0040246],[-70.5851293,-7.9957163],[-70.5921433,-7.9898542],[-70.6175787,-7.9931399],[-70.6246114,-7.9806743],[-70.6321565,-7.983806],[-70.6323818,-7.9642346],[-70.6469408,-7.9519117],[-70.6324006,-7.9423644],[-70.6426144,-7.9291561],[-70.6297398,-7.9268715],[-70.6417239,-7.9235561],[-70.6476999,-7.9097628],[-70.6393958,-7.9081156],[-70.636338,-7.9218771],[-70.6196441,-7.9116637],[-70.6202617,-7.8936353],[-70.6004337,-7.8937895],[-70.6076128,-7.8746859],[-70.5837897,-7.8729833],[-70.5798105,-7.8558905],[-70.5703317,-7.8530915],[-70.5774803,-7.8416289],[-70.5457832,-7.82111],[-70.544381,-7.8067906],[-70.5151508,-7.7923768],[-70.0549793,-7.8451491],[-69.4430475,-8.372682],[-69.4499417,-8.3964007],[-69.5089254,-8.4613623],[-69.5129143,-8.5007374],[-69.5531966,-8.5715664],[-69.550813,-8.5852018],[-69.5673968,-8.612526],[-69.5717012,-8.6440374],[-69.5848312,-8.6569024],[-69.6063431,-8.6607318],[-69.6282068,-8.6814263],[-69.6595354,-8.6819052],[-69.7258332,-8.7636214],[-69.7631514,-8.7849536],[-69.8396754,-8.9442345],[-69.8651048,-8.9574983],[-70.0900955,-8.9736114],[-70.3189786,-8.9636297],[-70.3650949,-8.9824266],[-70.4027833,-9.0182364],[-70.4529227,-9.1037944],[-70.498841,-9.1067427],[-70.5276914,-9.1382566],[-70.5720531,-9.2131273],[-70.6272362,-9.2701937],[-70.6291823,-9.3063122],[-70.6395699,-9.3129807],[-70.6314417,-9.3768495],[-70.6934726,-9.3716077],[-70.7346482,-9.4155587],[-70.7704216,-9.4220468],[-70.7907966,-9.4488568],[-70.8558478,-9.4488224],[-70.9025943,-9.5076897],[-70.9510953,-9.5359571],[-70.9568025,-9.5862677],[-71.0454999,-9.6424408],[-71.0792381,-9.7000535],[-71.0887741,-9.7399986],[-71.10176,-9.7505759],[-71.0893152,-9.7788526],[-71.1003676,-9.815937],[-71.0774636,-9.8278734],[-71.0895433,-9.8329143],[-71.1076272,-9.8226826],[-71.1228558,-9.8460014],[-71.1628879,-9.8714135],[-71.2157171,-9.9622385],[-71.2536945,-9.9630704],[-71.3030575,-9.9889497],[-71.322642,-9.9857816],[-71.3412892,-9.9643068],[-71.377413,-10.0],[-72.1804528,-10.0],[-72.1741212,-9.9823126],[-72.1552492,-9.971403],[-72.1543493,-9.9457744],[-72.1683528,-9.9271],[-72.1630201,-9.9087069],[-72.1416358,-9.8865914],[-72.1506711,-9.8659281],[-72.1487606,-9.8452233],[-72.1587485,-9.8354053],[-72.1533062,-9.7970204],[-72.1105896,-9.7629372],[-72.0349176,-9.7431465],[-72.0386067,-9.7666967],[-72.0084309,-9.7539061],[-71.9916227,-9.7166582],[-71.9526613,-9.7139109],[-71.9292439,-9.7222578],[-71.9200517,-9.6855594],[-71.8843101,-9.6672891],[-71.8848142,-9.6529806],[-71.8697087,-9.6367345],[-71.8357184,-9.6222914],[-71.8359971,-9.5944081],[-71.8255221,-9.5910037],[-71.8064245,-9.5643467],[-71.8090455,-9.5318578],[-71.7931806,-9.5202158],[-71.8028493,-9.5037986],[-71.7926891,-9.4967406],[-71.7917771,-9.4828147],[-71.7583568,-9.470465],[-71.7476092,-9.4579085],[-71.7502243,-9.4499011],[-71.7356398,-9.4489301],[-71.7210191,-9.421984],[-71.7276898,-9.4119819],[-71.7220437,-9.3845672],[-71.7328825,-9.3682205],[-71.7252838,-9.3569968],[-71.7312625,-9.3547949],[-71.7169851,-9.3420278],[-71.7166847,-9.3127865],[-71.6991108,-9.3014684],[-71.6933065,-9.2790428],[-71.7025226,-9.2734415],[-71.6960424,-9.268073],[-71.7007845,-9.2664],[-71.691665,-9.2678294],[-71.6778785,-9.2601948],[-71.6810542,-9.2550697],[-71.6729647,-9.2586383],[-71.6713231,-9.2482608],[-71.6562491,-9.2451158],[-71.6595,-9.2383596],[-71.6474471,-9.2360111],[-71.6495912,-9.2273923],[-71.6402524,-9.2174656],[-71.6441148,-9.20517],[-71.6364652,-9.1984237],[-71.6315513,-9.2061444],[-71.6309934,-9.195257],[-71.616779,-9.1900927],[-71.6251677,-9.1785335],[-71.6178077,-9.1535262],[-71.6250592,-9.1547398],[-71.6272491,-9.1427219],[-71.604107,-9.1278285],[-71.6175824,-9.1172354],[-71.6068321,-9.1152544],[-71.6077548,-9.1021926],[-71.6018432,-9.1007095],[-71.6105228,-9.096027],[-71.6027444,-9.0929653],[-71.6124969,-9.0813647],[-71.5930885,-9.0655364],[-71.6032379,-9.0437846],[-71.5979701,-9.0227732],[-71.5923696,-9.0238222],[-71.5957063,-9.0131942],[-71.5872627,-9.0110749],[-71.5809101,-8.9954539],[-71.5873056,-8.9882389],[-71.5757185,-8.9771542],[-71.5705365,-8.9808633],[-71.5717149,-8.9547969],[-71.5564388,-8.9423824],[-71.5494436,-8.9461978],[-71.5479844,-8.933522],[-71.5375989,-8.9378038],[-71.5278142,-8.9091866],[-71.5091461,-8.9074483],[-71.507172,-8.9003254],[-71.4997476,-8.9046076],[-71.4945978,-8.88998],[-71.4848989,-8.8960855],[-71.4688743,-8.8681328],[-71.4478863,-8.8743885],[-71.4425242,-8.8690233],[-71.4328468,-8.8786697],[-71.4301861,-8.8736451],[-71.4211309,-8.886747],[-71.4155734,-8.8780972],[-71.3970769,-8.8774824],[-71.3901461,-8.8899906],[-71.3811768,-8.883249],[-71.3796962,-8.8957993],[-71.3628304,-8.887913],[-71.3657058,-8.8805353],[-71.3585389,-8.8826977],[-71.3560069,-8.8739207],[-71.3484753,-8.8802597],[-71.3385189,-8.8680904],[-71.3348067,-8.8755108],[-71.3230908,-8.8614756],[-71.3220609,-8.8691293],[-71.3159883,-8.853949],[-71.3100231,-8.8642106],[-71.2996805,-8.846507],[-71.2944234,-8.8499842],[-71.2951959,-8.8418425],[-71.2748325,-8.850493],[-71.2652839,-8.839701],[-71.2696612,-8.8518288],[-71.2554348,-8.8452985],[-71.2410582,-8.8545002],[-71.2377751,-8.8350787],[-71.2256301,-8.8390225],[-71.2214244,-8.8198334],[-71.1963618,-8.8048207],[-71.1853326,-8.8134086],[-71.1853111,-8.7996679],[-71.1744106,-8.788217],[-71.1613214,-8.7983108],[-71.147846,-8.7932851],[-71.1444128,-8.781219],[-71.1281908,-8.7840394],[-71.1330188,-8.7779533],[-71.1230195,-8.7667349],[-71.12023,-8.7734787],[-71.1071194,-8.7645506],[-71.1028064,-8.7766597],[-71.0970343,-8.7631509],[-71.0889447,-8.762133],[-71.0789025,-8.779671],[-71.0744822,-8.7655685],[-71.0837949,-8.7549861],[-71.0569728,-8.7567039],[-71.0603202,-8.741625],[-71.042918,-8.7351564],[-71.0424889,-8.728518],[-71.0321033,-8.7335233],[-71.0284555,-8.717786],[-71.014036,-8.7256335],[-71.0197437,-8.7171497],[-71.0068691,-8.7100868],[-71.0156239,-8.6854185],[-71.0034574,-8.6908486],[-70.9883726,-8.6763398],[-70.9918702,-8.6692761],[-70.9774721,-8.66777],[-70.9826005,-8.6498662],[-70.966872,-8.6435657],[-70.9624088,-8.6512238],[-70.9637821,-8.6345284],[-70.9491694,-8.622139],[-70.9412516,-8.6262122],[-70.9465087,-8.6186384],[-70.9237636,-8.5961707],[-70.8922644,-8.6400036],[-70.8735003,-8.6409303],[-70.8579693,-8.6699296],[-70.8364754,-8.6461569],[-70.7839563,-8.6399885],[-70.76778,-8.6107885],[-70.7422822,-8.6091136],[-70.7268709,-8.5696724],[-70.688416,-8.5231946],[-70.702494,-8.4771023],[-70.6529541,-8.4664043],[-70.6760518,-8.4378875],[-70.6801241,-8.3826549],[-70.6249279,-8.3406589],[-70.6334782,-8.3109823],[-70.5858229,-8.2305488],[-70.5644243,-8.2141104],[-70.5803456,-8.1968551]]]}},{"type":"Feature","properties":{"level":"municipio","municipality_code":"1200328","municipality_name":"Jordão","uf":"AC","state_code":"12","area_km2":5346.443},"geometry":{"type":"Polygon","coordinates":[[[-72.1011212,-9.3078599],[-72.0454517,-9.2134435],[-72.0441703,-9.197972],[-72.0677817,-9.1752387],[-72.0691501,-9.1557493],[-72.0525278,-9.1425226],[-72.0318976,-9.0688501],[-72.0426914,-9.0286579],[-72.0294196,-9.0020325],[-72.0283929,-8.9708553],[-72.0362354,-8.9448196],[-72.0537962,-8.9339812],[-72.0440076,-8.9004073],[-72.0792939,-8.86638],[-72.0779107,-8.8471595],[-72.0499786,-8.836555],[-72.0186478,-8.8052236],[-71.988784,-8.7964447],[-71.9825559,-8.7827883],[-71.9681954,-8.7774496],[-71.9268357,-8.7935237],[-71.9190627,-8.7874642],[-71.9090527,-8.8066231],[-71.8978196,-8.8027586],[-71.8917632,-8.811744],[-71.8885016,-8.8063581],[-71.8603062,-8.8203953],[-71.8519377,-8.8142674],[-71.8480861,-8.8258924],[-71.8400234,-8.8209413],[-71.8360376,-8.8282195],[-71.8276724,-8.823007],[-71.8118977,-8.8304247],[-71.8139362,-8.8211799],[-71.7942166,-8.8174268],[-71.7952466,-8.8048101],[-71.7860412,-8.8044072],[-71.7833805,-8.8147126],[-71.7645299,-8.7981942],[-71.7658174,-8.7849937],[-71.7470365,-8.7745762],[-71.7557001,-8.7654731],[-71.7382872,-8.7624034],[-71.7399072,-8.7532842],[-71.7294842,-8.7555322],[-71.7262977,-8.7454266],[-71.7166257,-8.7456122],[-71.7165988,-8.7222294],[-71.7082733,-8.7307556],[-71.6912895,-8.7300451],[-71.6938001,-8.7187935],[-71.6740912,-8.7163331],[-71.6825777,-8.6985377],[-71.6678792,-8.6969893],[-71.6579657,-8.7062477],[-71.6487282,-8.6943803],[-71.6392972,-8.6971234],[-71.636948,-8.6863624],[-71.6185373,-8.6900956],[-71.6272491,-8.676902],[-71.6139024,-8.6646412],[-71.6044181,-8.6783444],[-71.6036886,-8.6620532],[-71.5822738,-8.6530164],[-71.5733045,-8.6595925],[-71.5660518,-8.6480948],[-71.5563,-8.6484297],[-71.5606297,-8.6795495],[-71.5558876,-8.7006866],[-71.5449656,-8.709192],[-71.5425295,-8.7393166],[-71.5732254,-8.7550086],[-71.5979475,-8.8048005],[-71.618038,-8.8208192],[-71.6185933,-8.8584197],[-71.5525899,-8.8507671],[-71.5245093,-8.8738547],[-71.5,-8.8707444],[-71.4817232,-8.889344],[-71.4855855,-8.8964247],[-71.4945978,-8.88998],[-71.4997476,-8.9046076],[-71.507172,-8.9003254],[-71.5091461,-8.9074483],[-71.5287155,-8.9099074],[-71.5361827,-8.9360657],[-71.5479844,-8.933522],[-71.5494436,-8.9461978],[-71.5645627,-8.9471767],[-71.575459,-8.9620931],[-71.5677807,-8.9674107],[-71.5705365,-8.9808633],[-71.5757185,-8.9771542],[-71.5873056,-8.9882389],[-71.5809101,-8.9954539],[-71.5872627,-9.0110749],[-71.5957063,-9.0131942],[-71.5923696,-9.0238222],[-71.5979701,-9.0227732],[-71.6032379,-9.0437846],[-71.5930885,-9.0655364],[-71.6124218,-9.0811634],[-71.6027444,-9.0929653],[-71.6105228,-9.096027],[-71.6018432,-9.1007095],[-71.6077548,-9.1021926],[-71.6068321,-9.1152544],[-71.6176575,-9.1167587],[-71.604107,-9.1278285],[-71.6272491,-9.1427219],[-71.6250592,-9.1547398],[-71.6178077,-9.1535262],[-71.6251677,-9.1785335],[-71.616779,-9.1900927],[-71.6309934,-9.195257],[-71.6315513,-9.2061444],[-71.6364652,-9.1984237],[-71.6441148,-9.20517],[-71.6402524,-9.2174656],[-71.6495912,-9.2273923],[-71.6474471,-9.2360111],[-71.6595,-9.2383596],[-71.6562491,-9.2451158],[-71.6713231,-9.2482608],[-71.6729647,-9.2586383],[-71.6810542,-9.2550697],[-71.6778785,-9.2601948],[-71.691665,-9.2678294],[-71.6948408,-9.264441],[-71.7007845,-9.2664],[-71.6960424,-9.268073],[-71.7025226,-9.2734415],[-71.6933065,-9.2790428],[-71.6991108,-9.3014684],[-71.7166847,-9.3127865],[-71.7169851,-9.3420278],[-71.7312625,-9.3547949],[-71.7252838,-9.3569968],[-71.7328825,-9.3682205],[-71.7220437,-9.3845672],[-71.7276951,-9.4116882],[-71.7225775,-9.4260297],[-71.7298704,-9.4279349],[-71.7356398,-9.4489301],[-71.750058,-9.4496894],[-71.7476092,-9.4579085],[-71.7583568,-9.470465],[-71.7915089,-9.482402],[-71.7926891,-9.4967406],[-71.8028493,-9.5037986],[-71.7931806,-9.5202158],[-71.8090455,-9.5318578],[-71.8064245,-9.5643467],[-71.8255221,-9.5910037],[-71.8359971,-9.5944081],[-71.8357184,-9.6222914],[-71.8697087,-9.6367345],[-71.8848142,-9.6529806],[-71.8843101,-9.6672891],[-71.9200517,-9.6855594],[-71.9292439,-9.7222578],[-71.9526613,-9.7139109],[-71.9916227,-9.7166582],[-72.0084309,-9.7539061],[-72.0386067,-9.7666967],[-72.0349176,-9.7431465],[-72.1105896,-9.7629372],[-72.1533062,-9.7970204],[-72.1699158,-9.777298],[-72.2007422,-9.7803704],[-72.2167098,-9.7666317],[-72.2575449,-9.7519965],[-72.252002,-9.6846376],[-72.24296,-9.6644122],[-72.2604055,-9.6447256],[-72.253467,-9.616786],[-72.2691792,-9.6202323],[-72.2888526,-9.6023068],[-72.2837106,-9.5398567],[-72.3018303,-9.5335775],[-72.3186948,-9.5436486],[-72.3395103,-9.5217052],[-72.3409308,-9.5092701],[-72.304004,-9.5084212],[-72.2939508,-9.4933005],[-72.2727619,-9.4873901],[-72.2768944,-9.4737904],[-72.262628,-9.4734082],[-72.249293,-9.4445117],[-72.2225806,-9.415048],[-72.1831533,-9.3886753],[-72.160919,-9.3938393],[-72.1204226,-9.3187664],[-72.1011212,-9.3078599]]]}},{"type":"Feature","properties":{"level":"municipio","municipality_code":"1200344","municipality_name":"Manoel Urbano","uf":"AC","state_code":"12","area_km2":10578.248},"geometry":{"type":"Polygon","coordinates":[[[-69.4443203,-8.3664854],[-68.9213301,-8.8142641],[-68.9321656,-8.8304768],[-68.9713473,-8.8414677],[-68.9846791,-8.8605475],[-69.0105746,-8.8696694],[-69.0227003,-8.8863031],[-69.07026,-8.8951177],[-69.0811772,-8.9059614],[-69.0846194,-8.9307973],[-69.1111321,-8.9554983],[-69.17648,-8.9419735],[-69.2007165,-8.9556989],[-69.2233042,-8.9954374],[-69.2336415,-9.0398091],[-69.3496064,-9.0465887],[-69.3871357,-9.0933912],[-69.4322178,-9.1177985],[-69.4584571,-9.1453954],[-69.5585448,-9.1794119],[-69.5878073,-9.1787106],[-69.6123873,-9.2090133],[-69.6678754,-9.2360985],[-69.6905168,-9.2295336],[-69.7698958,-9.3386796],[-69.7847265,-9.3299211],[-69.7973606,-9.3342506],[-69.783749,-9.3804827],[-69.8176172,-9.4243888],[-69.8474133,-9.4243184],[-69.8606934,-9.4393846],[-69.8691768,-9.5214199],[-69.9313474,-9.6111911],[-69.9274209,-9.6289253],[-69.9460994,-9.6748248],[-69.9723646,-9.7069161],[-69.9772228,-9.7823906],[-70.0211204,-9.8321487],[-70.0387917,-9.8655716],[-70.032246,-9.8925042],[-70.0436397,-9.9311968],[-70.0377381,-9.9522199],[-70.0426274,-9.9899236],[-70.1362362,-10.194251],[-70.2270232,-10.2922264],[-70.2188015,-10.311948],[-70.2401623,-10.3420585],[-70.2560969,-10.425498],[-70.6108572,-10.4249661],[-70.6065494,-10.0575795],[-70.5738403,-10.020022],[-70.555365,-10.0228685],[-70.5311353,-10.0078881],[-70.5020822,-9.9646001],[-70.4573696,-9.9511539],[-70.4398253,-9.9317239],[-70.4362625,-9.9118596],[-70.4017816,-9.8878744],[-70.3551058,-9.8228472],[-70.3293539,-9.8046875],[-70.3239868,-9.7583809],[-70.2986352,-9.7479283],[-70.2901213,-9.7208399],[-70.2745993,-9.7171255],[-70.2765386,-9.7087236],[-70.2590856,-9.6847101],[-70.2436877,-9.6815623],[-70.2440356,-9.6713171],[-70.224037,-9.6627422],[-70.2284868,-9.6558489],[-70.2079008,-9.6278746],[-70.1900994,-9.6284565],[-70.1849573,-9.6120291],[-70.1907696,-9.6038914],[-70.1760995,-9.585696],[-70.1633326,-9.5852181],[-70.1496742,-9.5566174],[-70.1412192,-9.5629841],[-70.1349903,-9.5440411],[-70.1238031,-9.5393004],[-70.1130847,-9.5466095],[-70.1130847,-9.5381452],[-70.1036058,-9.5431285],[-70.1014541,-9.5350093],[-70.0775052,-9.5421022],[-70.0773416,-9.5335294],[-70.0645329,-9.5254131],[-70.061868,-9.5322809],[-70.0402743,-9.5282383],[-70.0386764,-9.53515],[-70.0297027,-9.5235814],[-70.0371217,-9.5273096],[-70.0401743,-9.5197656],[-70.0354181,-9.5048083],[-70.1551812,-9.4721466],[-70.2042331,-9.4377118],[-70.3302163,-9.3959712],[-70.2964133,-9.3653441],[-70.2999838,-9.3395485],[-70.2719922,-9.3409618],[-70.2673815,-9.3197377],[-70.2490862,-9.3169982],[-70.2372683,-9.3005346],[-70.2175997,-9.2934354],[-70.2114843,-9.2802213],[-70.1854186,-9.2700987],[-70.1580064,-9.266705],[-70.1443432,-9.2865584],[-70.1290654,-9.2826037],[-70.1185511,-9.2903014],[-70.0892667,-9.2785642],[-70.0827919,-9.2858226],[-70.0407617,-9.2894808],[-70.0216643,-9.2744982],[-70.0121371,-9.254247],[-69.9853217,-9.2622722],[-69.9819207,-9.251736],[-69.9658006,-9.2431639],[-69.9703604,-9.2398758],[-69.9561661,-9.2341203],[-69.952631,-9.2425762],[-69.9299824,-9.2409242],[-69.9128753,-9.2504547],[-69.9101354,-9.231989],[-69.8940314,-9.2360555],[-69.9083759,-9.2287909],[-69.9073674,-9.2165169],[-69.8828949,-9.224576],[-69.8800947,-9.2062653],[-69.853927,-9.2026962],[-69.850129,-9.1885043],[-69.856856,-9.1837701],[-69.8437239,-9.1764302],[-69.8474146,-9.1664423],[-69.8353232,-9.1682217],[-69.8310102,-9.1601507],[-69.8482622,-9.1554478],[-69.8508479,-9.1464337],[-69.8411383,-9.143542],[-69.8347975,-9.1546428],[-69.8195411,-9.1492407],[-69.7918566,-9.1104029],[-69.8084214,-9.0999494],[-69.8092856,-9.0834855],[-69.8199071,-9.0763093],[-69.8254364,-9.0342726],[-69.8413421,-9.0233173],[-69.8651048,-8.9574983],[-69.8396754,-8.9442345],[-69.7631514,-8.7849536],[-69.7258332,-8.7636214],[-69.6595354,-8.6819052],[-69.6282068,-8.6814263],[-69.6063431,-8.6607318],[-69.5848312,-8.6569024],[-69.5717012,-8.6440374],[-69.5673968,-8.612526],[-69.550813,-8.5852018],[-69.5531966,-8.5715664],[-69.5129143,-8.5007374],[-69.5089254,-8.4613623],[-69.4499417,-8.3964007],[-69.4443203,-8.3664854]]]}},{"type":"Feature","properties":{"level":"municipio","municipality_code":"1200351","municipality_name":"Marechal Thaumaturgo","uf":"AC","state_code":"12","area_km2":8185.635},"geometry":{"type":"Polygon","coordinates":[[[-73.0479261,-9.2369003],[-73.0232511,-9.2291076],[-73.0248335,-9.2196492],[-73.0106876,-9.2224689],[-72.9979469,-9.1979937],[-72.9999998,-9.1913816],[-73.0161999,-9.1921524],[-73.0260794,-9.178104],[-72.9598962,-9.1465426],[-72.9448146,-9.1222122],[-72.9393844,-9.0721368],[-72.9442535,-9.029165],[-72.9573882,-9.011099],[-72.9398653,-8.9851417],[-72.9697132,-8.9807084],[-72.9812023,-8.941384],[-72.9990547,-8.9155998],[-73.0109515,-8.9174231],[-73.0188632,-8.9098683],[-73.0331102,-8.916739],[-73.0597007,-8.905997],[-73.0704321,-8.8622149],[-73.0804258,-8.8555762],[-73.0767614,-8.8425843],[-73.0950119,-8.8378016],[-73.1132862,-8.819099],[-73.1153563,-8.7847634],[-73.1297869,-8.7726946],[-73.1129192,-8.7570574],[-73.0918192,-8.7516124],[-73.0864269,-8.7596343],[-73.0616084,-8.7636887],[-72.9550575,-8.7448126],[-72.9244042,-8.7605018],[-72.9115761,-8.7500627],[-72.8665712,-8.7515201],[-72.8551535,-8.7451063],[-72.8501749,-8.7300779],[-72.8311447,-8.7366409],[-72.8101888,-8.7231826],[-72.7744229,-8.7267294],[-72.7510183,-8.7157813],[-72.7393184,-8.7038851],[-72.7314972,-8.6727352],[-72.7199029,-8.6889854],[-72.7053539,-8.6878102],[-72.6675058,-8.7185689],[-72.6619519,-8.7578809],[-72.6312672,-8.7748666],[-72.5661853,-8.7648128],[-72.4953124,-8.7766948],[-72.4704487,-8.7616174],[-72.4460373,-8.7550219],[-72.4379797,-8.7629538],[-72.4160345,-8.7501724],[-72.3970447,-8.7538564],[-72.3901538,-8.7655225],[-72.3769221,-8.7668613],[-72.3742185,-8.7783038],[-72.360866,-8.7824132],[-72.3030637,-8.761509],[-72.2572238,-8.7240059],[-72.2139751,-8.7008226],[-72.1439786,-8.7118072],[-72.1248354,-8.8285331],[-72.0440076,-8.9004073],[-72.0537962,-8.9339812],[-72.0362354,-8.9448196],[-72.0283929,-8.9708553],[-72.0294196,-9.0020325],[-72.0426914,-9.0286579],[-72.0318976,-9.0688501],[-72.0525278,-9.1425226],[-72.0691501,-9.1557493],[-72.0677817,-9.1752387],[-72.0441703,-9.197972],[-72.0454517,-9.2134435],[-72.0550643,-9.2148897],[-72.1011212,-9.3078599],[-72.1204226,-9.3187664],[-72.160919,-9.3938393],[-72.1831533,-9.3886753],[-72.2225806,-9.415048],[-72.249293,-9.4445117],[-72.262628,-9.4734082],[-72.2768944,-9.4737904],[-72.2727619,-9.4873901],[-72.2939508,-9.4933005],[-72.304004,-9.5084212],[-72.3403301,-9.5086735],[-72.3546223,-9.495129],[-72.3865023,-9.4930874],[-72.407225,-9.4766691],[-72.4267056,-9.4863274],[-72.4373847,-9.4849782],[-72.4407968,-9.4764907],[-72.4542741,-9.4902892],[-72.4926857,-9.4793032],[-72.5184481,-9.4915955],[-72.5360728,-9.4695522],[-72.5522395,-9.4652598],[-72.5551234,-9.4705231],[-72.5552091,-9.4650504],[-72.5606342,-9.4729121],[-72.5667447,-9.4595776],[-72.5774618,-9.4634609],[-72.5757771,-9.4556658],[-72.6175058,-9.4525267],[-72.6272639,-9.4422832],[-72.643982,-9.4421118],[-72.6549585,-9.4520913],[-72.6833894,-9.4324258],[-72.6955741,-9.4391216],[-72.6999576,-9.4283213],[-72.71281,-9.4296174],[-72.7165137,-9.4122696],[-73.2124686,-9.412046],[-73.1907019,-9.3970076],[-73.188893,-9.3628152],[-73.1763295,-9.3544585],[-73.1552596,-9.3569086],[-73.1314052,-9.318443],[-73.1154343,-9.318995],[-73.1020238,-9.3087039],[-73.1102442,-9.2808014],[-73.0950355,-9.2712353],[-73.0756349,-9.2371621],[-73.0630952,-9.2274301],[-73.0479261,-9.2369003]]]}},{"type":"Feature","properties":{"level":"municipio","municipality_code":"1200336","municipality_name":"Mâncio Lima","uf":"AC","state_code":"12","area_km2":5414.07},"geometry":{"type":"Polygon","coordinates":[[[-72.7834218,-7.6600862],[-72.8546975,-7.6582521],[-72.8635109,-7.6741753],[-72.9138184,-7.6643479],[-72.9483298,-7.6921986],[-72.9790257,-7.6787779],[-73.0406196,-7.6693013],[-73.1755405,-7.7262106],[-73.2515443,-7.7925701],[-73.3081553,-7.7776205],[-73.3054357,-7.758156],[-73.3418569,-7.7378572],[-73.3277922,-7.71378],[-73.3346623,-7.7094789],[-73.3543543,-7.7294066],[-73.3626451,-7.7290359],[-73.3740068,-7.7513806],[-73.4115152,-7.750194],[-73.4518803,-7.7701702],[-73.5312461,-7.7172967],[-73.67485,-7.7401365],[-73.6907435,-7.7663988],[-73.6990038,-7.7666924],[-73.7137089,-7.7602322],[-73.7154697,-7.7498101],[-73.7312217,-7.7490725],[-73.7420245,-7.7333443],[-73.7576052,-7.7351955],[-73.8007163,-7.7141587],[-73.8030529,-7.7254659],[-73.8261933,-7.7131159],[-73.8352113,-7.6984565],[-73.8333897,-7.6824737],[-73.8738978,-7.671014],[-73.8710547,-7.6633228],[-73.8836183,-7.650795],[-73.8722325,-7.6421218],[-73.8777291,-7.6316284],[-73.915277,-7.6233836],[-73.9157919,-7.6127681],[-73.9310886,-7.6044337],[-73.9573579,-7.5666002],[-73.9790764,-7.5710915],[-73.9851858,-7.5322993],[-73.9387863,-7.5340125],[-73.9336669,-7.5037148],[-73.9230486,-7.4958626],[-73.9315195,-7.4805032],[-73.9087718,-7.4726034],[-73.9205502,-7.4547098],[-73.9216209,-7.419589],[-73.9345414,-7.4127837],[-73.9552901,-7.3644352],[-73.9607391,-7.3651252],[-73.9559326,-7.353799],[-73.926918,-7.3633127],[-73.9219568,-7.3540804],[-73.8905337,-7.3860032],[-73.8857866,-7.3761879],[-73.8626583,-7.3852537],[-73.850987,-7.3715123],[-73.8494523,-7.3489907],[-73.8179363,-7.3361449],[-73.7899331,-7.3447538],[-73.7821404,-7.3371098],[-73.7619745,-7.3363662],[-73.7521592,-7.3403221],[-73.754033,-7.3536173],[-73.724498,-7.3420472],[-73.6962419,-7.3107573],[-73.6954983,-7.2979677],[-73.717538,-7.2732808],[-73.7097453,-7.2478503],[-73.7219103,-7.2377078],[-73.7184303,-7.2275654],[-73.7356219,-7.2173337],[-73.7436229,-7.2212598],[-73.7559068,-7.1952939],[-73.7554607,-7.1761095],[-73.7699159,-7.1699229],[-73.7676852,-7.1540103],[-73.7885352,-7.1465745],[-73.7818727,-7.1319408],[-73.7939782,-7.1309592],[-73.798141,-7.1130573],[-72.900313,-7.4376812],[-72.8833284,-7.5594565],[-72.8709956,-7.5610146],[-72.850938,-7.6019755],[-72.7834218,-7.6600862]]]}},{"type":"Feature","properties":{"level":"municipio","municipality_code":"1200385","municipality_name":"Plácido de Castro","uf":"AC","state_code":"12","area_km2":1952.531},"geometry":{"type":"Polygon","coordinates":[[[-67.31809590848893,-10.365363251249654],[-67.3112241,-10.3778586],[-67.3298473,-10.3840547],[-67.3444321,-10.3759229],[-67.3545129,-10.3821525],[-67.3512138,-10.3906055],[-67.3531014,-10.3933459],[-67.3638115,-10.3775875],[-67.3830778,-10.3842281],[-67.4068489,-10.3726274],[-67.423791,-10.3913996],[-67.4138159,-10.4014404],[-67.4132151,-10.4257261],[-67.4296973,-10.4288178],[-67.4364833,-10.4479069],[-67.4658792,-10.4553388],[-67.5224826,-10.4916284],[-67.5456416,-10.4951699],[-67.5673485,-10.5095144],[-67.578351,-10.5021954],[-67.5902379,-10.5107734],[-67.6087225,-10.505975],[-67.6202238,-10.4806881],[-67.6757563,-10.4787047],[-67.7114726,-10.4416354],[-67.6792646,-10.3903103],[-67.6588583,-10.3989003],[-67.6467133,-10.3905425],[-67.6375677,-10.3508196],[-67.6258437,-10.3429214],[-67.6241816,-10.3202915],[-67.6117033,-10.3146294],[-67.6117488,-10.3031316],[-67.5970154,-10.3099073],[-67.5037711,-10.2636571],[-67.4975913,-10.233713],[-67.4418228,-10.1616058],[-67.428498,-10.0961023],[-67.3461028,-10.0615766],[-67.2978874,-10.0620572],[-67.2504767,-10.0273295],[-67.1246637,-9.969853],[-67.1002758,-10.1038349],[-67.0761223,-10.0879777],[-67.0759595,-10.2024185],[-67.0023875,-10.2022532],[-67.0046074,-10.2437131],[-67.0157815,-10.2587312],[-67.023297,-10.2541519],[-67.0351175,-10.2645086],[-67.0418847,-10.2618746],[-67.051546,-10.2677655],[-67.0480592,-10.2756805],[-67.0791594,-10.2893882],[-67.0987958,-10.282157],[-67.1257869,-10.2904042],[-67.1408046,-10.3073175],[-67.1280835,-10.3159342],[-67.1396304,-10.3152903],[-67.1440185,-10.3267348],[-67.1712269,-10.3378385],[-67.1875264,-10.3399899],[-67.1963075,-10.3235436],[-67.2189378,-10.3238629],[-67.2251298,-10.3152453],[-67.266238,-10.3338028],[-67.2785124,-10.3209583],[-67.2946427,-10.3261196],[-67.3159589,-10.3187353],[-67.3280422,-10.3351299],[-67.3155451,-10.3471588],[-67.31809590848893,-10.365363251249654]]]}},{"type":"Feature","properties":{"level":"municipio","municipality_code":"1200807","municipality_name":"Porto Acre","uf":"AC","state_code":"12","area_km2":2603.942},"geometry":{"type":"Polygon","coordinates":[[[-67.97716216619841,-9.352584889903948],[-67.516882,-9.5609067],[-67.3254829,-9.5925278],[-67.3396809,-9.6228532],[-67.3257871,-9.6616982],[-67.3372025,-9.6826393],[-67.3331739,-9.7215197],[-67.3680211,-9.782039],[-67.4071707,-9.8045584],[-67.4195571,-9.8246607],[-67.438177,-9.83575],[-67.4375601,-9.8807707],[-67.448997,-9.9173609],[-67.4694945,-9.91502],[-67.4822084,-9.9266738],[-67.5168795,-9.9063122],[-67.5131116,-9.8853688],[-67.5285413,-9.8563184],[-67.566798,-9.8516981],[-67.5813021,-9.8374576],[-67.5799515,-9.8227119],[-67.5922506,-9.8240342],[-67.5923973,-9.8429925],[-67.6092717,-9.8505144],[-67.6005686,-9.8650135],[-67.6249766,-9.8558224],[-67.6532009,-9.8631724],[-67.684717,-9.8337796],[-67.7099964,-9.8364023],[-67.7070733,-9.8169919],[-67.7181666,-9.8056162],[-67.7028291,-9.7873651],[-67.7435166,-9.7397338],[-67.7939694,-9.7822647],[-67.7958008,-9.7619983],[-67.8094691,-9.7514608],[-67.8053151,-9.7414605],[-67.8278197,-9.7521756],[-67.8465068,-9.7437299],[-67.8459167,-9.7361968],[-67.854128,-9.7393342],[-67.8570405,-9.7267283],[-67.8646226,-9.7407957],[-67.8754855,-9.7204755],[-67.9060303,-9.7119211],[-67.9140163,-9.705684],[-67.9121815,-9.696006],[-67.923661,-9.6925591],[-67.9217324,-9.676127],[-67.9100358,-9.6692659],[-68.0903387,-9.5578019],[-68.0740508,-9.5245299],[-68.0297844,-9.4939221],[-68.0177032,-9.4689712],[-68.0263332,-9.4431697],[-68.0393035,-9.437146],[-68.0561257,-9.4122568],[-68.0595256,-9.3905067],[-68.0467334,-9.3591421],[-68.0514208,-9.3540648],[-68.0319034,-9.344168],[-68.0207611,-9.3581521],[-67.97716216619841,-9.352584889903948]]]}},{"type":"Feature","properties":{"level":"municipio","municipality_code":"1200393","municipality_name":"Porto Walter","uf":"AC","state_code":"12","area_km2":6452.756},"geometry":{"type":"Polygon","coordinates":[[[-72.7315879,-8.6728205],[-72.7393184,-8.7038851],[-72.7510183,-8.7157813],[-72.7744229,-8.7267294],[-72.8101888,-8.7231826],[-72.8311447,-8.7366409],[-72.8501749,-8.7300779],[-72.8551535,-8.7451063],[-72.8665712,-8.7515201],[-72.9115761,-8.7500627],[-72.9244042,-8.7605018],[-72.9550575,-8.7448126],[-73.0616084,-8.7636887],[-73.0864269,-8.7596343],[-73.0918192,-8.7516124],[-73.1129192,-8.7570574],[-73.1298948,-8.7727233],[-73.1540173,-8.7054653],[-73.1766896,-8.6959737],[-73.1816388,-8.6845998],[-73.1944284,-8.6925353],[-73.2206287,-8.6780661],[-73.233059,-8.6888212],[-73.2532559,-8.6916195],[-73.2545884,-8.6802171],[-73.2667331,-8.6808453],[-73.2725961,-8.6691003],[-73.2877676,-8.6671396],[-73.3015494,-8.6491889],[-73.2977423,-8.6370632],[-73.3174102,-8.6316733],[-73.3248865,-8.6193572],[-73.342228,-8.6185196],[-73.3351973,-8.5296832],[-73.3276782,-8.5222403],[-73.3329843,-8.4768463],[-73.2299408,-8.3945617],[-73.101804,-8.3393225],[-73.0817551,-8.2968924],[-73.0376153,-8.2823841],[-73.0152806,-8.2553875],[-73.0017973,-8.2220224],[-72.9673417,-8.217167],[-72.9609044,-8.2088312],[-72.9513537,-8.2170363],[-72.9432554,-8.2135991],[-72.9462381,-8.2021838],[-72.9278059,-8.2051889],[-72.9313226,-8.2004721],[-72.9228277,-8.2010263],[-72.9201481,-8.1929224],[-72.8941925,-8.1877097],[-72.8685827,-8.1675322],[-72.8686578,-8.1587599],[-72.8609946,-8.1616892],[-72.857812,-8.1500449],[-72.8394038,-8.1462069],[-72.8132595,-8.1209713],[-72.8077715,-8.1201757],[-72.8011487,-8.1466352],[-72.8109113,-8.1653833],[-72.805602,-8.1687913],[-72.8015076,-8.1609181],[-72.7952636,-8.1670281],[-72.7931256,-8.1888252],[-72.8005058,-8.2045164],[-72.7614279,-8.2009072],[-72.7608204,-8.2100307],[-72.7376968,-8.2308819],[-72.7258316,-8.2125927],[-72.6739845,-8.2231619],[-72.634021,-8.1851667],[-72.5560356,-8.1859787],[-72.5068466,-8.2331266],[-72.461228,-8.2315139],[-72.4179794,-8.253656],[-72.3957383,-8.2544147],[-72.3733261,-8.2381303],[-72.3568432,-8.2411985],[-72.3194295,-8.2292801],[-72.3011136,-8.205294],[-72.2855159,-8.2077124],[-72.2692404,-8.2415996],[-72.2712821,-8.2547143],[-72.2256299,-8.2808912],[-72.2660158,-8.3908611],[-72.2316006,-8.4102615],[-72.2283301,-8.516804],[-72.2012864,-8.5519009],[-72.2301946,-8.5969337],[-72.2139751,-8.7008226],[-72.2572238,-8.7240059],[-72.3030637,-8.761509],[-72.360866,-8.7824132],[-72.3742185,-8.7783038],[-72.3769221,-8.7668613],[-72.3901538,-8.7655225],[-72.3970447,-8.7538564],[-72.4160345,-8.7501724],[-72.4379797,-8.7629538],[-72.4460373,-8.7550219],[-72.4704487,-8.7616174],[-72.4953124,-8.7766948],[-72.5661853,-8.7648128],[-72.6312672,-8.7748666],[-72.6619519,-8.7578809],[-72.6675058,-8.7185689],[-72.7053539,-8.6878102],[-72.7199029,-8.6889854],[-72.7315879,-8.6728205]]]}},{"type":"Feature","properties":{"level":"municipio","municipality_code":"1200401","municipality_name":"Rio Branco","uf":"AC","state_code":"12","area_km2":8834.831},"geometry":{"type":"Polygon","coordinates":[[[-67.6111473,-10.048776],[-67.6359759,-10.0584674],[-67.6462285,-10.0802649],[-67.6708438,-10.1019071],[-67.7656544,-10.1098052],[-67.8200608,-10.0894679],[-67.8294496,-10.1224195],[-67.814145,-10.1331395],[-67.8219073,-10.1441754],[-67.8132715,-10.148546],[-67.8187045,-10.159867],[-67.8074626,-10.1627422],[-67.8116252,-10.1789255],[-67.8021289,-10.1838786],[-67.8122728,-10.1954761],[-67.8035642,-10.2033646],[-67.8277676,-10.2109272],[-67.813231,-10.2246292],[-67.832831,-10.2529378],[-67.8180655,-10.2668345],[-67.8348537,-10.2751608],[-67.846601,-10.2709253],[-67.8560857,-10.2847903],[-67.8427637,-10.2808444],[-67.8462025,-10.2876745],[-67.946111,-10.2875],[-67.9598849,-10.3140218],[-67.999325,-10.3160255],[-68.0384129,-10.3512968],[-68.0247052,-10.3724761],[-68.0405159,-10.3889135],[-68.0626719,-10.37948],[-68.0700406,-10.3834063],[-68.0919848,-10.3637213],[-68.1236662,-10.3751685],[-68.1506454,-10.3705275],[-68.1862884,-10.3825128],[-68.2073643,-10.3745792],[-68.2291403,-10.3898995],[-68.2730624,-10.3886609],[-68.2814633,-10.40359],[-68.313783,-10.4182094],[-68.3275361,-10.4091488],[-68.3248065,-10.3936512],[-68.3875584,-10.379515],[-68.390237,-10.3733974],[-68.3544866,-10.3578717],[-68.3508115,-10.3322071],[-68.3754551,-10.3115543],[-68.4157597,-10.3071937],[-68.4118307,-10.2681336],[-68.4334106,-10.2653126],[-68.4521026,-10.2473516],[-68.4558912,-10.2113509],[-68.4425048,-10.1919651],[-68.4549057,-10.1830993],[-68.4708158,-10.1927194],[-68.4705524,-10.2167599],[-68.4888313,-10.2274231],[-68.4967203,-10.2545034],[-68.5271687,-10.2569458],[-68.5359264,-10.2758697],[-68.5535522,-10.2796505],[-68.566023,-10.2729386],[-68.5813256,-10.294974],[-68.6169861,-10.3066345],[-68.6417371,-10.3059375],[-68.6609859,-10.3280026],[-68.6816488,-10.3315916],[-68.6832507,-10.3554356],[-68.7064295,-10.3640577],[-68.7129408,-10.3840143],[-69.1493981,-10.3850165],[-69.1516357,-10.3989078],[-69.1827054,-10.3987333],[-69.1957012,-10.4123463],[-69.2211255,-10.4152556],[-69.2464916,-10.4367424],[-69.2473758,-10.4537639],[-69.2880072,-10.470248],[-69.3229592,-10.4720451],[-69.3418082,-10.485329],[-69.3637827,-10.4630806],[-69.3420149,-10.4028505],[-69.3108891,-10.3639175],[-69.1723685,-10.2865348],[-69.120836,-10.2689437],[-69.0372787,-10.1644308],[-68.88509,-10.0627429],[-68.8013562,-9.9620825],[-68.6943907,-9.8868387],[-68.666518,-9.8409788],[-68.6929184,-9.7503694],[-68.7000604,-9.6792667],[-68.6727219,-9.5601234],[-68.6333503,-9.5159178],[-68.6077687,-9.5052309],[-68.6012203,-9.5380189],[-68.5841514,-9.539198],[-68.5140717,-9.5887263],[-68.5102464,-9.5755387],[-68.4874997,-9.5707503],[-68.4717943,-9.5478154],[-68.4538413,-9.5519653],[-68.4349261,-9.5403339],[-68.4180073,-9.5455002],[-68.4275793,-9.6003393],[-68.4554621,-9.6251549],[-68.4405055,-9.6412336],[-68.4430665,-9.6590451],[-68.4225,-9.6916666],[-68.4538355,-9.8444376],[-68.4426935,-9.8289529],[-68.4260807,-9.8264199],[-68.413725,-9.8104095],[-68.3943142,-9.8042489],[-68.3934138,-9.7924365],[-68.3767015,-9.782908],[-68.300248,-9.7947317],[-68.2797921,-9.8215188],[-68.2677564,-9.8234803],[-68.1531165,-9.9610662],[-68.1374825,-9.9356733],[-68.1007184,-9.9307708],[-68.0682043,-9.8948961],[-68.0533382,-9.8875457],[-68.0450519,-9.8916817],[-67.9760658,-9.8455827],[-67.9694178,-9.85316],[-67.9265176,-9.853833],[-67.9192826,-9.846561],[-67.8657614,-9.8414408],[-67.8539881,-9.8578725],[-67.8293641,-9.8698818],[-67.8252903,-9.8515241],[-67.8339615,-9.819947],[-67.8226649,-9.7978393],[-67.8227455,-9.774924],[-67.7958008,-9.7619983],[-67.7939694,-9.7822647],[-67.7435166,-9.7397338],[-67.7028291,-9.7873651],[-67.7181666,-9.8056162],[-67.7070733,-9.8169919],[-67.7099964,-9.8364023],[-67.684717,-9.8337796],[-67.6532009,-9.8631724],[-67.6249766,-9.8558224],[-67.6005686,-9.8650135],[-67.6092717,-9.8505144],[-67.5923973,-9.8429925],[-67.5922506,-9.8240342],[-67.5799515,-9.8227119],[-67.5813021,-9.8374576],[-67.566798,-9.8516981],[-67.5292544,-9.8554689],[-67.5131116,-9.8853688],[-67.5168795,-9.9063122],[-67.4822084,-9.9266738],[-67.4964071,-9.9689131],[-67.4896269,-9.9973276],[-67.5025912,-10.0210362],[-67.5294185,-10.0216028],[-67.5349166,-10.0347549],[-67.5806979,-10.0692295],[-67.6111473,-10.048776]]]}},{"type":"Feature","properties":{"level":"municipio","municipality_code":"1200427","municipality_name":"Rodrigues Alves","uf":"AC","state_code":"12","area_km2":3082.398},"geometry":{"type":"Polygon","coordinates":[[[-72.6430166,-7.7424265],[-72.6228761,-7.7603379],[-72.6428489,-7.7739882],[-72.6201965,-7.7714123],[-72.6247916,-7.7813562],[-72.6367452,-7.7833554],[-72.6397283,-7.7971355],[-72.6317575,-7.8042271],[-72.6386084,-7.8229634],[-72.6522576,-7.8201268],[-72.6561776,-7.8355189],[-72.68093,-7.8245437],[-72.6860825,-7.845714],[-72.7056238,-7.8434881],[-72.7356809,-7.8553617],[-72.7214967,-7.8676464],[-72.7382792,-7.8761248],[-72.7489976,-7.8673952],[-72.7537423,-7.8805279],[-72.7694405,-7.8784425],[-72.781031,-7.8978482],[-72.7954358,-7.8992627],[-72.79748,-7.9069487],[-72.8061339,-7.9006104],[-72.8360064,-7.9154755],[-72.8537369,-7.910195],[-72.8927261,-7.9302048],[-72.911812,-7.9259739],[-72.9528577,-7.9482973],[-72.9704272,-7.9371343],[-72.9875318,-7.9422037],[-73.0086944,-7.9336685],[-73.0743989,-7.9467462],[-73.1155988,-7.9340262],[-73.0919551,-7.8826447],[-73.1132015,-7.8925739],[-73.127135,-7.8899345],[-73.1366965,-7.9002428],[-73.170613,-7.8958358],[-73.2131026,-7.9128735],[-73.236909,-7.9420983],[-73.247644,-7.9387323],[-73.2679239,-7.9535305],[-73.2971148,-7.9887346],[-73.3224126,-7.9975894],[-73.3447797,-7.9851764],[-73.3800758,-7.9921615],[-73.3984047,-8.0115401],[-73.3995784,-8.0303667],[-73.6299871,-8.0586833],[-73.6151548,-8.033844],[-73.6351581,-8.0097103],[-73.6672491,-8.013565],[-73.6786659,-8.0075007],[-73.6811115,-7.98498],[-73.6936144,-7.9641517],[-73.703168,-7.9676971],[-73.7201811,-7.9594047],[-73.7300916,-7.9689939],[-73.7302058,-7.9599103],[-73.747238,-7.9530146],[-73.7627351,-7.905527],[-73.7784454,-7.8909684],[-73.7676562,-7.8590888],[-73.7523657,-7.8527214],[-73.7511237,-7.871738],[-73.7088942,-7.8751216],[-73.6878597,-7.8440941],[-73.6801027,-7.8454028],[-73.6789748,-7.7819711],[-73.6933263,-7.773094],[-73.67485,-7.7401365],[-73.5312461,-7.7172967],[-73.4518803,-7.7701702],[-73.4115152,-7.750194],[-73.3740068,-7.7513806],[-73.3626451,-7.7290359],[-73.3292312,-7.7105273],[-73.3418569,-7.7378572],[-73.3054357,-7.758156],[-73.3081553,-7.7776205],[-73.2515443,-7.7925701],[-73.1755405,-7.7262106],[-73.0406196,-7.6693013],[-72.9790257,-7.6787779],[-72.9483298,-7.6921986],[-72.9138184,-7.6643479],[-72.7968332,-7.6871182],[-72.7406599,-7.7252509],[-72.6546669,-7.694767],[-72.6456152,-7.6745648],[-72.6430166,-7.7424265]]]}},{"type":"Feature","properties":{"level":"municipio","municipality_code":"1200435","municipality_name":"Santa Rosa do Purus","uf":"AC","state_code":"12","area_km2":6222.34},"geometry":{"type":"Polygon","coordinates":[[[-70.3276757,-9.3931808],[-70.2711505,-9.4199172],[-70.2042331,-9.4377118],[-70.1551812,-9.4721466],[-70.0354181,-9.5048083],[-70.0401743,-9.5197656],[-70.0371217,-9.5273096],[-70.0299655,-9.524232],[-70.0386764,-9.53515],[-70.0402743,-9.5282383],[-70.061868,-9.5322809],[-70.0645329,-9.5254131],[-70.0773416,-9.5335294],[-70.0775052,-9.5421022],[-70.1014541,-9.5350093],[-70.1036058,-9.5431285],[-70.1130847,-9.5381452],[-70.1130847,-9.5466095],[-70.1238031,-9.5393004],[-70.1349903,-9.5440411],[-70.1412192,-9.5629841],[-70.1496742,-9.5566174],[-70.1633326,-9.5852181],[-70.1760995,-9.585696],[-70.1907696,-9.6038914],[-70.1849573,-9.6120291],[-70.1900994,-9.6284565],[-70.2079008,-9.6278746],[-70.2284868,-9.6558489],[-70.224037,-9.6627422],[-70.2440356,-9.6713171],[-70.2436877,-9.6815623],[-70.2590856,-9.6847101],[-70.2765386,-9.7087236],[-70.2745993,-9.7171255],[-70.2901213,-9.7208399],[-70.2986352,-9.7479283],[-70.3239868,-9.7583809],[-70.3293539,-9.8046875],[-70.3551058,-9.8228472],[-70.4017816,-9.8878744],[-70.4362625,-9.9118596],[-70.4400457,-9.9320083],[-70.4721092,-9.9593575],[-70.5020822,-9.9646001],[-70.5311353,-10.0078881],[-70.555365,-10.0228685],[-70.5738403,-10.020022],[-70.601741,-10.057537],[-70.6006535,-9.5559542],[-70.5896857,-9.5486402],[-70.5868984,-9.5677879],[-70.575477,-9.5632074],[-70.5638473,-9.5751642],[-70.553229,-9.570673],[-70.5574823,-9.55943],[-70.5703909,-9.5552065],[-70.5679505,-9.5315097],[-70.541586,-9.5382673],[-70.5372078,-9.531129],[-70.5468328,-9.5252755],[-70.5455229,-9.5141622],[-70.5307464,-9.510022],[-70.5281409,-9.496923],[-70.5148635,-9.5012417],[-70.5121509,-9.4815398],[-70.5234653,-9.4717602],[-70.5216093,-9.4571979],[-70.5046199,-9.4644077],[-70.5119011,-9.447918],[-70.4954114,-9.4409224],[-70.4945548,-9.423983],[-70.5093891,-9.4228466],[-70.5249936,-9.4366094],[-70.5254005,-9.4273081],[-70.5381996,-9.4374517],[-70.5462945,-9.4265086],[-70.5489357,-9.4344964],[-70.5617544,-9.4287486],[-70.588302,-9.4464875],[-70.595808,-9.4412551],[-70.5961864,-9.4596078],[-70.6118872,-9.457295],[-70.6157205,-9.4756585],[-70.622345,-9.4694445],[-70.6321674,-9.4792134],[-70.636197,-9.5014923],[-70.6422533,-9.4954958],[-70.6519115,-9.4994719],[-70.6502649,-9.5122769],[-70.6625176,-9.5264125],[-70.66543,-9.5190457],[-70.7024886,-9.5461752],[-70.7143832,-9.5467442],[-70.7298556,-9.5703841],[-70.7383444,-9.5587843],[-70.7501941,-9.5602536],[-70.7593193,-9.5842778],[-70.7568923,-9.6050362],[-70.7674809,-9.6006913],[-70.765406,-9.6071349],[-70.7863595,-9.6142543],[-70.7841323,-9.6226442],[-70.7989172,-9.6421944],[-70.8360817,-9.6429185],[-70.8385303,-9.6564931],[-70.8687111,-9.664741],[-70.898165,-9.714443],[-70.9248768,-9.7419329],[-70.9526113,-9.7420685],[-70.9612535,-9.7533186],[-70.9632713,-9.7479696],[-70.9929574,-9.7946731],[-70.9943351,-9.8174802],[-71.0505463,-9.8156445],[-71.0774636,-9.8278734],[-71.1003676,-9.815937],[-71.0893152,-9.7788526],[-71.10176,-9.7505759],[-71.0887741,-9.7399986],[-71.0792381,-9.7000535],[-71.0454999,-9.6424408],[-70.9568025,-9.5862677],[-70.9510953,-9.5359571],[-70.9025943,-9.5076897],[-70.8558478,-9.4488224],[-70.7907966,-9.4488568],[-70.7704216,-9.4220468],[-70.7346482,-9.4155587],[-70.6934726,-9.3716077],[-70.6314417,-9.3768495],[-70.6395699,-9.3129807],[-70.6291823,-9.3063122],[-70.6272362,-9.2701937],[-70.5720531,-9.2131273],[-70.5276914,-9.1382566],[-70.498841,-9.1067427],[-70.4529227,-9.1037944],[-70.4027833,-9.0182364],[-70.3650949,-8.9824266],[-70.3189786,-8.9636297],[-70.0900955,-8.9736114],[-69.8651048,-8.9574983],[-69.8413421,-9.0233173],[-69.8254364,-9.0342726],[-69.8199071,-9.0763093],[-69.8092856,-9.0834855],[-69.8084214,-9.0999494],[-69.7918566,-9.1104029],[-69.8195411,-9.1492407],[-69.8347975,-9.1546428],[-69.8411383,-9.143542],[-69.8508479,-9.1464337],[-69.8482622,-9.1554478],[-69.8310102,-9.1601507],[-69.8353232,-9.1682217],[-69.8474146,-9.1664423],[-69.8437239,-9.1764302],[-69.856856,-9.1837701],[-69.850129,-9.1885043],[-69.853927,-9.2026962],[-69.8800947,-9.2062653],[-69.8828949,-9.224576],[-69.9073674,-9.2165169],[-69.9083759,-9.2287909],[-69.8940314,-9.2360555],[-69.9101354,-9.231989],[-69.9128753,-9.2504547],[-69.9299824,-9.2409242],[-69.952631,-9.2425762],[-69.9561661,-9.2341203],[-69.9703604,-9.2398758],[-69.9658006,-9.2431639],[-69.9819207,-9.251736],[-69.9853217,-9.2622722],[-70.0121371,-9.254247],[-70.0216643,-9.2744982],[-70.0407617,-9.2894808],[-70.0827919,-9.2858226],[-70.0892667,-9.2785642],[-70.1176767,-9.2902061],[-70.1290654,-9.2826037],[-70.1441769,-9.2866167],[-70.1613055,-9.2664032],[-70.210465,-9.2797078],[-70.245846,-9.3148173],[-70.2673815,-9.3197377],[-70.2719922,-9.3409618],[-70.2999838,-9.3395485],[-70.2964133,-9.3653441],[-70.3276757,-9.3931808]]]}},{"type":"Feature","properties":{"level":"municipio","municipality_code":"1200500","municipality_name":"Sena Madureira","uf":"AC","state_code":"12","area_km2":23732.205},"geometry":{"type":"Polygon","coordinates":[[[-68.6478182,-9.0488746],[-68.2198982,-9.2427531],[-68.2463158,-9.2635587],[-68.2688803,-9.2660618],[-68.2859334,-9.2841473],[-68.3164304,-9.2954092],[-68.3476794,-9.2910619],[-68.400752,-9.323837],[-68.3302968,-9.4419778],[-68.3312771,-9.4571553],[-68.355472,-9.4920216],[-68.3695793,-9.4994918],[-68.3833972,-9.4964155],[-68.3866699,-9.5051378],[-68.3968865,-9.5014591],[-68.4116638,-9.5226644],[-68.4119141,-9.5424873],[-68.4352459,-9.5403516],[-68.4538413,-9.5519653],[-68.4717943,-9.5478154],[-68.4874997,-9.5707503],[-68.5102464,-9.5755387],[-68.5140717,-9.5887263],[-68.5841514,-9.539198],[-68.6012203,-9.5380189],[-68.6077687,-9.5052309],[-68.6333503,-9.5159178],[-68.6727219,-9.5601234],[-68.7000604,-9.6792667],[-68.6929184,-9.7503694],[-68.666518,-9.8409788],[-68.6943907,-9.8868387],[-68.8013562,-9.9620825],[-68.88509,-10.0627429],[-69.0372787,-10.1644308],[-69.120836,-10.2689437],[-69.1723685,-10.2865348],[-69.3108891,-10.3639175],[-69.3420149,-10.4028505],[-69.3637827,-10.4630806],[-69.3418082,-10.485329],[-69.5078753,-10.5050009],[-69.5328644,-10.4848179],[-69.5353884,-10.4603707],[-69.5451234,-10.4474142],[-69.5397471,-10.422227],[-69.5538354,-10.3980327],[-69.5921473,-10.3701769],[-69.5927978,-10.37729],[-69.6172715,-10.3849531],[-69.6110491,-10.3943802],[-69.6306075,-10.3960758],[-69.6266847,-10.4056382],[-69.6342562,-10.40431],[-69.6504236,-10.4204622],[-69.6459841,-10.4298347],[-69.6564198,-10.4220734],[-69.6644793,-10.4273229],[-69.6698327,-10.4188523],[-69.6754346,-10.4280999],[-69.6832004,-10.4114614],[-69.6879575,-10.4379258],[-69.6969973,-10.4322268],[-69.7097868,-10.4377067],[-69.7060868,-10.4478985],[-69.7149505,-10.4447542],[-69.7301388,-10.4549867],[-69.7429102,-10.4470221],[-69.7585683,-10.4561387],[-69.7582882,-10.4634528],[-69.785358,-10.4614831],[-69.7889089,-10.4762919],[-69.807377,-10.4860681],[-69.7985314,-10.5054036],[-69.8325688,-10.5093832],[-69.832752,-10.5407578],[-69.8640273,-10.5404216],[-69.8745706,-10.5622003],[-69.8884858,-10.5538832],[-69.8985212,-10.558865],[-69.9056482,-10.5440256],[-69.9226035,-10.5617303],[-69.9304382,-10.5489733],[-69.9397188,-10.5664338],[-69.9579094,-10.5802927],[-69.9666329,-10.5745446],[-69.9770597,-10.5864109],[-69.991547,-10.5710643],[-69.9977268,-10.5750615],[-69.9944759,-10.5837307],[-70.0060372,-10.5821831],[-70.0447513,-10.6064993],[-70.0407306,-10.6156927],[-70.0510491,-10.6085557],[-70.0557912,-10.618637],[-70.0703181,-10.6162432],[-70.0676026,-10.6338977],[-70.0785696,-10.6337392],[-70.0910247,-10.651644],[-70.101831,-10.6404149],[-70.1078909,-10.6478587],[-70.1222457,-10.6388407],[-70.1224233,-10.6563819],[-70.1313468,-10.6540595],[-70.1516759,-10.6735424],[-70.1624806,-10.6650303],[-70.1660618,-10.6734678],[-70.1760864,-10.6737527],[-70.1787655,-10.6907431],[-70.2016703,-10.6895086],[-70.2068386,-10.7018733],[-70.2194271,-10.685066],[-70.2515833,-10.6975663],[-70.2576877,-10.7140412],[-70.271185,-10.7070959],[-70.2747187,-10.6930356],[-70.2763194,-10.7087101],[-70.2865069,-10.6962437],[-70.3070716,-10.6998724],[-70.3141309,-10.7140869],[-70.3249348,-10.7129168],[-70.3289862,-10.7199556],[-70.3333033,-10.7077723],[-70.3430987,-10.7048521],[-70.3416933,-10.7176078],[-70.3649748,-10.7133384],[-70.3664876,-10.7304157],[-70.3801607,-10.7316285],[-70.382711,-10.7202269],[-70.4008273,-10.7257751],[-70.4200695,-10.7101005],[-70.4228435,-10.724717],[-70.4351878,-10.7143329],[-70.4427979,-10.7203151],[-70.4462672,-10.710197],[-70.4578651,-10.7133595],[-70.4598178,-10.7013205],[-70.4660893,-10.7154181],[-70.4845176,-10.7247238],[-70.5019284,-10.7143399],[-70.5083336,-10.7278015],[-70.5142666,-10.7172916],[-70.5260039,-10.7194632],[-70.5336,-10.7120418],[-70.5346085,-10.7040826],[-70.5225385,-10.7000976],[-70.5545748,-10.6876469],[-70.5706037,-10.6908413],[-70.5783274,-10.7036435],[-70.5997218,-10.6972196],[-70.6141647,-10.705576],[-70.6108572,-10.4249661],[-70.2560969,-10.425498],[-70.2401623,-10.3420585],[-70.2188015,-10.311948],[-70.2270232,-10.2922264],[-70.1362362,-10.194251],[-70.0426274,-9.9899236],[-70.0377381,-9.9522199],[-70.0436397,-9.9311968],[-70.032246,-9.8925042],[-70.0387917,-9.8655716],[-70.0211204,-9.8321487],[-69.9772228,-9.7823906],[-69.9723646,-9.7069161],[-69.9460994,-9.6748248],[-69.9274209,-9.6289253],[-69.9313474,-9.6111911],[-69.8691768,-9.5214199],[-69.8606934,-9.4393846],[-69.8474133,-9.4243184],[-69.8176172,-9.4243888],[-69.783749,-9.3804827],[-69.7973606,-9.3342506],[-69.7847265,-9.3299211],[-69.7698958,-9.3386796],[-69.6905168,-9.2295336],[-69.6678754,-9.2360985],[-69.6123873,-9.2090133],[-69.5878073,-9.1787106],[-69.5585448,-9.1794119],[-69.4584571,-9.1453954],[-69.4322178,-9.1177985],[-69.3871357,-9.0933912],[-69.3496064,-9.0465887],[-69.2336415,-9.0398091],[-69.2233042,-8.9954374],[-69.2007165,-8.9556989],[-69.17648,-8.9419735],[-69.1111321,-8.9554983],[-69.0846194,-8.9307973],[-69.0811772,-8.9059614],[-69.07026,-8.8951177],[-69.0227003,-8.8863031],[-69.0105746,-8.8696694],[-68.9846791,-8.8605475],[-68.9713473,-8.8414677],[-68.9321656,-8.8304768],[-68.9213301,-8.8142641],[-68.6478182,-9.0488746]]]}},{"type":"Feature","properties":{"level":"municipio","municipality_code":"1200450","municipality_name":"Senador Guiomard","uf":"AC","state_code":"12","area_km2":2320.946},"geometry":{"type":"Polygon","coordinates":[[[-67.6867319,-10.3572727],[-67.6959426,-10.3239915],[-67.7163323,-10.291915],[-67.7566258,-10.2708499],[-67.7648649,-10.2506433],[-67.7802523,-10.2409937],[-67.7852412,-10.2134891],[-67.8000961,-10.2110226],[-67.8029731,-10.1980531],[-67.8116271,-10.1982996],[-67.8022322,-10.1824899],[-67.8116252,-10.1789255],[-67.8074626,-10.1627422],[-67.8187045,-10.159867],[-67.8132715,-10.148546],[-67.8219073,-10.1441754],[-67.814145,-10.1331395],[-67.8294496,-10.1224195],[-67.8200608,-10.0894679],[-67.7656544,-10.1098052],[-67.6708438,-10.1019071],[-67.6211451,-10.0484434],[-67.6101468,-10.0480521],[-67.5806979,-10.0692295],[-67.5349166,-10.0347549],[-67.5294185,-10.0216028],[-67.5025912,-10.0210362],[-67.4896269,-9.9973276],[-67.4964071,-9.9689131],[-67.4816771,-9.9253084],[-67.4694945,-9.91502],[-67.450424,-9.9180215],[-67.446524,-9.9116803],[-67.4375601,-9.8807707],[-67.438177,-9.83575],[-67.4195571,-9.8246607],[-67.4071707,-9.8045584],[-67.3680211,-9.782039],[-67.3331739,-9.7215197],[-67.3372025,-9.6826393],[-67.3257871,-9.6616982],[-67.3396809,-9.6228532],[-67.3254829,-9.5925278],[-67.134984,-9.6759181],[-67.1455494,-9.6879691],[-67.1702686,-9.6850396],[-67.172808,-9.6922453],[-67.1877996,-9.6924215],[-67.1933433,-9.7045709],[-67.1851066,-9.710019],[-67.0902509,-9.9572901],[-67.1651985,-9.9845828],[-67.2504767,-10.0273295],[-67.2978874,-10.0620572],[-67.3461028,-10.0615766],[-67.428498,-10.0961023],[-67.4418228,-10.1616058],[-67.4975913,-10.233713],[-67.5042512,-10.2641982],[-67.5970154,-10.3099073],[-67.6117488,-10.3031316],[-67.6117033,-10.3146294],[-67.6241816,-10.3202915],[-67.6258437,-10.3429214],[-67.6375677,-10.3508196],[-67.6378556,-10.3686549],[-67.6867319,-10.3572727]]]}},{"type":"Feature","properties":{"level":"municipio","municipality_code":"1200609","municipality_name":"Tarauacá","uf":"AC","state_code":"12","area_km2":20169.485},"geometry":{"type":"Polygon","coordinates":[[[-70.5551328,-8.1567868],[-70.5803456,-8.1968551],[-70.5644243,-8.2141104],[-70.5858229,-8.2305488],[-70.6334782,-8.3109823],[-70.6249279,-8.3406589],[-70.6801241,-8.3826549],[-70.6760518,-8.4378875],[-70.6529541,-8.4664043],[-70.702494,-8.4771023],[-70.688416,-8.5231946],[-70.7268709,-8.5696724],[-70.7422822,-8.6091136],[-70.76778,-8.6107885],[-70.7839563,-8.6399885],[-70.8364754,-8.6461569],[-70.8579693,-8.6699296],[-70.8735003,-8.6409303],[-70.8922644,-8.6400036],[-70.9237636,-8.5961707],[-70.9465087,-8.6186384],[-70.9412516,-8.6262122],[-70.9491694,-8.622139],[-70.9637821,-8.6345284],[-70.9624088,-8.6512238],[-70.966872,-8.6435657],[-70.9826005,-8.6498662],[-70.9774721,-8.66777],[-70.9918702,-8.6692761],[-70.9883726,-8.6763398],[-71.0034574,-8.6908486],[-71.0156239,-8.6854185],[-71.0068691,-8.7100868],[-71.0197437,-8.7171497],[-71.014036,-8.7256335],[-71.0284555,-8.717786],[-71.0321033,-8.7335233],[-71.0424889,-8.728518],[-71.042918,-8.7351564],[-71.0603202,-8.741625],[-71.0569728,-8.7567039],[-71.0837949,-8.7549861],[-71.0744822,-8.7655685],[-71.0782588,-8.779268],[-71.0820783,-8.7661836],[-71.0936654,-8.7617301],[-71.1028064,-8.7766597],[-71.1071194,-8.7645506],[-71.12023,-8.7734787],[-71.1234916,-8.766947],[-71.1330188,-8.7779533],[-71.1281908,-8.7840394],[-71.1444128,-8.781219],[-71.147846,-8.7932851],[-71.1592186,-8.7978019],[-71.1753991,-8.7886369],[-71.1853111,-8.7996679],[-71.1853326,-8.8134086],[-71.1970914,-8.8049692],[-71.2214244,-8.8198334],[-71.2256301,-8.8390225],[-71.2371958,-8.8343578],[-71.24241,-8.8550727],[-71.2554348,-8.8452985],[-71.2696612,-8.8518288],[-71.2652839,-8.839701],[-71.2748325,-8.850493],[-71.2951959,-8.8418425],[-71.2944234,-8.8499842],[-71.2996805,-8.846507],[-71.3100231,-8.8642106],[-71.3159883,-8.853949],[-71.3220609,-8.8691293],[-71.3230908,-8.8614756],[-71.3348067,-8.8755108],[-71.3385189,-8.8680904],[-71.3484753,-8.8802597],[-71.3560069,-8.8739207],[-71.3666499,-8.891199],[-71.3840521,-8.8964777],[-71.3811768,-8.883249],[-71.3901461,-8.8899906],[-71.3960684,-8.8779488],[-71.4092005,-8.8759348],[-71.4211309,-8.886747],[-71.4425242,-8.8690233],[-71.4478863,-8.8743885],[-71.4688743,-8.8681328],[-71.4699042,-8.8778428],[-71.4815515,-8.8840864],[-71.502557,-8.8695531],[-71.5245093,-8.8738547],[-71.5525899,-8.8507671],[-71.6185933,-8.8584197],[-71.618038,-8.8208192],[-71.5979475,-8.8048005],[-71.5732254,-8.7550086],[-71.5425295,-8.7393166],[-71.5449656,-8.709192],[-71.5558876,-8.7006866],[-71.5606297,-8.6795495],[-71.5563,-8.6484297],[-71.5660518,-8.6480948],[-71.5733045,-8.6595925],[-71.5822738,-8.6530164],[-71.6036886,-8.6620532],[-71.6044181,-8.6783444],[-71.6139024,-8.6646412],[-71.6272491,-8.676902],[-71.6185373,-8.6900956],[-71.636948,-8.6863624],[-71.6392972,-8.6971234],[-71.6487282,-8.6943803],[-71.6579657,-8.7062477],[-71.6678792,-8.6969893],[-71.6825777,-8.6985377],[-71.6740912,-8.7163331],[-71.6938001,-8.7187935],[-71.6912895,-8.7300451],[-71.7082733,-8.7307556],[-71.7165988,-8.7222294],[-71.7166257,-8.7456122],[-71.7262977,-8.7454266],[-71.7294842,-8.7555322],[-71.7399072,-8.7532842],[-71.7382872,-8.7624034],[-71.7557001,-8.7654731],[-71.7470365,-8.7745762],[-71.7658174,-8.7849937],[-71.7645299,-8.7981942],[-71.7833805,-8.8147126],[-71.7860412,-8.8044072],[-71.7952466,-8.8048101],[-71.7942166,-8.8174268],[-71.8139362,-8.8211799],[-71.8118977,-8.8304247],[-71.8276724,-8.823007],[-71.8360376,-8.8282195],[-71.8400234,-8.8209413],[-71.8480861,-8.8258924],[-71.8519377,-8.8142674],[-71.8603062,-8.8203953],[-71.8885016,-8.8063581],[-71.8917632,-8.811744],[-71.8978196,-8.8027586],[-71.9090527,-8.8066231],[-71.9190627,-8.7874642],[-71.9268357,-8.7935237],[-71.9681954,-8.7774496],[-71.9825559,-8.7827883],[-71.988784,-8.7964447],[-72.0186478,-8.8052236],[-72.0542863,-8.8392107],[-72.0722394,-8.840834],[-72.0809238,-8.8543722],[-72.0778957,-8.8681347],[-72.1248354,-8.8285331],[-72.1439786,-8.7118072],[-72.2139751,-8.7008226],[-72.2301946,-8.5969337],[-72.2012864,-8.5519009],[-72.2283301,-8.516804],[-72.2316006,-8.4102615],[-72.2660158,-8.3908611],[-72.2256299,-8.2808912],[-72.2663,-8.2605684],[-72.2616996,-8.0590986],[-72.2256852,-8.0203625],[-72.216129,-7.9760666],[-72.1826849,-7.9466194],[-72.1293203,-7.9179989],[-72.0851926,-7.8603511],[-72.0616107,-7.8476717],[-72.0552364,-7.8518712],[-72.0491531,-7.8390746],[-72.000853,-7.8083759],[-71.945425,-7.6267544],[-70.5151508,-7.7923768],[-70.544381,-7.8067906],[-70.5457832,-7.82111],[-70.5774803,-7.8416289],[-70.5703317,-7.8530915],[-70.5798105,-7.8558905],[-70.5837897,-7.8729833],[-70.6076128,-7.8746859],[-70.6004337,-7.8937895],[-70.6202617,-7.8936353],[-70.6196441,-7.9116637],[-70.6368638,-7.9219302],[-70.6385804,-7.9089976],[-70.6476999,-7.9097628],[-70.6417239,-7.9235561],[-70.6297398,-7.9268715],[-70.6426144,-7.9291561],[-70.6324006,-7.9423644],[-70.6469408,-7.9519117],[-70.6323818,-7.9642346],[-70.6321565,-7.983806],[-70.6246114,-7.9806743],[-70.6175787,-7.9931399],[-70.5921433,-7.9898542],[-70.5851293,-7.9957163],[-70.5894208,-8.0040246],[-70.5680718,-8.043006],[-70.5787819,-8.0615539],[-70.5781515,-8.1157797],[-70.5551328,-8.1567868]]]}},{"type":"Feature","properties":{"level":"municipio","municipality_code":"1200708","municipality_name":"Xapuri","uf":"AC","state_code":"12","area_km2":5350.3},"geometry":{"type":"Polygon","coordinates":[[[-68.4587659,-10.8156147],[-68.4787108,-10.8356631],[-68.5591046,-10.7765337],[-68.5558216,-10.7575197],[-68.5425608,-10.7664471],[-68.539664,-10.7512165],[-68.5325508,-10.7503522],[-68.5451786,-10.7355318],[-68.5432581,-10.7280054],[-68.5315656,-10.7273368],[-68.5326581,-10.7199623],[-68.5521012,-10.7167846],[-68.6054799,-10.6577734],[-68.6436088,-10.654995],[-68.6365776,-10.6199851],[-68.6489801,-10.6144595],[-68.6539154,-10.6217303],[-68.6715804,-10.6189043],[-68.6856888,-10.6331714],[-68.701074,-10.6321064],[-68.7118833,-10.6468422],[-68.7326543,-10.6453871],[-68.7573038,-10.6742571],[-68.7816529,-10.6626382],[-68.8083248,-10.6712944],[-68.8026385,-10.6819588],[-68.8145582,-10.6910993],[-68.8054387,-10.715768],[-68.8240372,-10.7235583],[-68.8528316,-10.7578214],[-68.877567,-10.7580673],[-68.8838144,-10.7687806],[-68.9209702,-10.779789],[-68.9758673,-10.770989],[-68.9783468,-10.744321],[-68.9568282,-10.73054],[-68.9476365,-10.7116699],[-68.9478118,-10.6755385],[-68.9322642,-10.6766154],[-68.9260232,-10.666271],[-68.9134222,-10.6376811],[-68.9261358,-10.6162751],[-68.9080578,-10.6037946],[-68.9014381,-10.5826974],[-68.9288017,-10.5753604],[-68.9708492,-10.5842082],[-68.9796858,-10.5743144],[-69.0016474,-10.5870908],[-69.0518118,-10.5839279],[-69.0662818,-10.5902638],[-69.0822013,-10.578638],[-69.0855585,-10.5594285],[-69.1028592,-10.5537513],[-69.1182973,-10.5249693],[-69.1631785,-10.5093482],[-69.1683501,-10.4765147],[-69.1397131,-10.4347892],[-69.1287784,-10.4021177],[-69.1315635,-10.385028],[-68.7129408,-10.3840143],[-68.7064295,-10.3640577],[-68.6832507,-10.3554356],[-68.6816488,-10.3315916],[-68.6609859,-10.3280026],[-68.6417371,-10.3059375],[-68.6169861,-10.3066345],[-68.5813256,-10.294974],[-68.566023,-10.2729386],[-68.5535522,-10.2796505],[-68.5359264,-10.2758697],[-68.5271687,-10.2569458],[-68.4967203,-10.2545034],[-68.4888313,-10.2274231],[-68.4705524,-10.2167599],[-68.4708158,-10.1927194],[-68.4534287,-10.1830679],[-68.4425048,-10.1919651],[-68.4558912,-10.2113509],[-68.4521026,-10.2473516],[-68.4334106,-10.2653126],[-68.4118307,-10.2681336],[-68.4157597,-10.3071937],[-68.3754551,-10.3115543],[-68.3508115,-10.3322071],[-68.3544866,-10.3578717],[-68.390237,-10.3733974],[-68.3875584,-10.379515],[-68.3248065,-10.3936512],[-68.3275361,-10.4091488],[-68.313783,-10.4182094],[-68.2814633,-10.40359],[-68.2730624,-10.3886609],[-68.2291403,-10.3898995],[-68.2073643,-10.3745792],[-68.1862884,-10.3825128],[-68.1506454,-10.3705275],[-68.1236662,-10.3751685],[-68.0919848,-10.3637213],[-68.0700406,-10.3834063],[-68.0626719,-10.37948],[-68.0406401,-10.3889103],[-68.056398,-10.4128635],[-68.0538879,-10.4209705],[-68.0638101,-10.4251324],[-68.0369857,-10.4908307],[-68.0301354,-10.5387889],[-68.0179286,-10.5512588],[-68.01541,-10.5681685],[-67.9842642,-10.5937225],[-68.016347,-10.6024715],[-68.0023797,-10.6491978],[-68.0331232,-10.6557904],[-68.033547,-10.6669403],[-68.0767775,-10.6846171],[-68.1053806,-10.7152056],[-68.1053028,-10.7412848],[-68.0970148,-10.7493853],[-68.1073064,-10.7648796],[-68.1040261,-10.7767632],[-68.1731895,-10.8396307],[-68.18247,-10.8573804],[-68.1961278,-10.8585922],[-68.2072081,-10.9020372],[-68.2242991,-10.9116152],[-68.2376844,-10.9563705],[-68.2779972,-10.9890797],[-68.3072081,-10.991933],[-68.3310409,-11.0125956],[-68.3414473,-11.0049743],[-68.360532,-11.0063974],[-68.3864572,-11.0197909],[-68.3882087,-11.0405802],[-68.398584,-11.0367501],[-68.4001446,-11.0011238],[-68.4108043,-10.9887266],[-68.4039312,-10.9841861],[-68.4031759,-10.9641356],[-68.4185344,-10.9373303],[-68.4141219,-10.9343623],[-68.4230006,-10.9324497],[-68.4217257,-10.9209657],[-68.4131813,-10.9183723],[-68.4211336,-10.9099509],[-68.4018834,-10.8941038],[-68.4087241,-10.8813126],[-68.4025353,-10.857969],[-68.4262004,-10.839166],[-68.4273009,-10.8254073],[-68.4587659,-10.8156147]]]}}]}