{"type":"FeatureCollection","name":"AL_Municipios_2024","crs":{"type":"name","properties":{"name":"urn:ogc:def:crs:EPSG::4674"}},"features":[{"type":"Feature","properties":{"level":"municipio","municipality_code":"2700201","municipality_name":"Anadia","uf":"AL","state_code":"27","area_km2":186.074},"geometry":{"type":"Polygon","coordinates":[[[-36.2394643,-9.6747693],[-36.2532167,-9.7297194],[-36.2800636,-9.7343862],[-36.3190718,-9.7226728],[-36.3284433,-9.7043732],[-36.3429037,-9.7386084],[-36.3430056,-9.713078],[-36.3708262,-9.6980407],[-36.3794006,-9.656874],[-36.3941648,-9.6483676],[-36.3808292,-9.6353672],[-36.388607,-9.6287729],[-36.3921049,-9.6029049],[-36.3503975,-9.592274],[-36.3442367,-9.5984489],[-36.3513361,-9.6069444],[-36.3164841,-9.6128198],[-36.2936916,-9.6013302],[-36.2548103,-9.6214665],[-36.2394643,-9.6747693]]]}},{"type":"Feature","properties":{"level":"municipio","municipality_code":"2700300","municipality_name":"Arapiraca","uf":"AL","state_code":"27","area_km2":346.188},"geometry":{"type":"Polygon","coordinates":[[[-36.6254081,-9.836932],[-36.6938487,-9.8026598],[-36.7544657,-9.7073736],[-36.7118748,-9.6633278],[-36.6869856,-9.652108],[-36.6860715,-9.6354476],[-36.6558663,-9.6431409],[-36.6391922,-9.6359594],[-36.6236329,-9.6551891],[-36.6094454,-9.6536728],[-36.5945994,-9.6915003],[-36.5702049,-9.708402],[-36.5836616,-9.7144842],[-36.5729768,-9.7495164],[-36.5529761,-9.7709001],[-36.5654222,-9.8033905],[-36.5487696,-9.8085802],[-36.555444,-9.85093],[-36.5415401,-9.8818048],[-36.5632079,-9.8742843],[-36.5887662,-9.8799722],[-36.6014644,-9.8436563],[-36.6255936,-9.8522195],[-36.6254081,-9.836932]]]}},{"type":"Feature","properties":{"level":"municipio","municipality_code":"2700409","municipality_name":"Atalaia","uf":"AL","state_code":"27","area_km2":533.259},"geometry":{"type":"Polygon","coordinates":[[[-35.9329675,-9.4806292],[-36.0056822,-9.5857183],[-36.0170737,-9.576274],[-36.0723545,-9.5986761],[-36.1201236,-9.5961663],[-36.1384127,-9.6130699],[-36.1575501,-9.6187315],[-36.180925,-9.61225],[-36.2185222,-9.5631917],[-36.2268444,-9.5144972],[-36.2080513,-9.4554374],[-36.1557808,-9.472872],[-36.1331392,-9.4541692],[-36.1020848,-9.4539052],[-36.0165478,-9.3973214],[-35.9288487,-9.3745494],[-35.9329675,-9.4806292]]]}},{"type":"Feature","properties":{"level":"municipio","municipality_code":"2700508","municipality_name":"Barra de Santo Antônio","uf":"AL","state_code":"27","area_km2":131.364},"geometry":{"type":"Polygon","coordinates":[[[-35.492097,-9.3835304],[-35.5127654,-9.4394553],[-35.5245918,-9.4426262],[-35.5495021,-9.4038487],[-35.6210045,-9.4098691],[-35.658035,-9.4039151],[-35.67665,-9.3985833],[-35.69055,-9.371],[-35.5614017,-9.3582302],[-35.53605,-9.3469],[-35.5178333,-9.355],[-35.5132205,-9.3461081],[-35.5202373,-9.3237096],[-35.5144,-9.3143],[-35.4724912,-9.3580331],[-35.492097,-9.3835304]]]}},{"type":"Feature","properties":{"level":"municipio","municipality_code":"2700607","municipality_name":"Barra de São Miguel","uf":"AL","state_code":"27","area_km2":74.332},"geometry":{"type":"Polygon","coordinates":[[[-35.8552545,-9.7882838],[-35.9047401,-9.855854],[-35.9178815,-9.838742],[-35.9501307,-9.8452071],[-36.0057152,-9.8114198],[-36.0281635,-9.8089555],[-36.0045641,-9.7670943],[-35.9912443,-9.7818277],[-35.9420202,-9.787477],[-35.9055892,-9.8118867],[-35.8552545,-9.7882838]]]}},{"type":"Feature","properties":{"level":"municipio","municipality_code":"2700706","municipality_name":"Batalha","uf":"AL","state_code":"27","area_km2":331.752},"geometry":{"type":"Polygon","coordinates":[[[-37.0410885,-9.8072137],[-37.0810137,-9.8084254],[-37.0914862,-9.8162296],[-37.1016329,-9.8001743],[-37.1161604,-9.7962066],[-37.1208583,-9.7783097],[-37.2190168,-9.7101607],[-37.2137116,-9.6935394],[-37.190976,-9.6903912],[-37.1444833,-9.60075],[-37.0460389,-9.6201366],[-37.0596556,-9.6826754],[-36.9935806,-9.7213833],[-36.9998963,-9.7298084],[-36.9974658,-9.760975],[-37.0318683,-9.7875321],[-37.0410885,-9.8072137]]]}},{"type":"Feature","properties":{"level":"municipio","municipality_code":"2700904","municipality_name":"Belo Monte","uf":"AL","state_code":"27","area_km2":322.887},"geometry":{"type":"Polygon","coordinates":[[[-37.0810137,-9.8084254],[-37.0401966,-9.8072933],[-37.1054787,-9.8479375],[-37.1071001,-9.8653121],[-37.1183004,-9.8732775],[-37.1180078,-9.8900219],[-37.1254735,-9.8920654],[-37.1337799,-9.9137652],[-37.1635638,-9.8935522],[-37.1806734,-9.8994168],[-37.2411061,-9.8954489],[-37.2619127,-9.8491387],[-37.2852199,-9.8306289],[-37.2965215,-9.830582],[-37.3101855,-9.8037047],[-37.2887377,-9.7722331],[-37.2773589,-9.7735762],[-37.2590923,-9.7573265],[-37.2499522,-9.7376141],[-37.230016,-9.7300861],[-37.2190168,-9.7101607],[-37.1208583,-9.7783097],[-37.1161604,-9.7962066],[-37.1016329,-9.8001743],[-37.0914862,-9.8162296],[-37.0810137,-9.8084254]]]}},{"type":"Feature","properties":{"level":"municipio","municipality_code":"2700805","municipality_name":"Belém","uf":"AL","state_code":"27","area_km2":66.629},"geometry":{"type":"Polygon","coordinates":[[[-36.4689895,-9.6060424],[-36.4952483,-9.6038833],[-36.5378786,-9.532892],[-36.5264371,-9.528419],[-36.5187928,-9.5034374],[-36.4883639,-9.5021992],[-36.4467823,-9.6059167],[-36.4633621,-9.6184536],[-36.4689895,-9.6060424]]]}},{"type":"Feature","properties":{"level":"municipio","municipality_code":"2701001","municipality_name":"Boca da Mata","uf":"AL","state_code":"27","area_km2":192.952},"geometry":{"type":"Polygon","coordinates":[[[-36.1312555,-9.6514054],[-36.104749,-9.6384815],[-36.0991976,-9.6523476],[-36.07858,-9.6675984],[-36.0794009,-9.6802828],[-36.0685832,-9.6891019],[-36.0733889,-9.7008333],[-36.2532167,-9.7297194],[-36.239443,-9.6753303],[-36.2548103,-9.6214665],[-36.2499278,-9.6233306],[-36.2400444,-9.5934722],[-36.1916556,-9.60015],[-36.1769421,-9.6213214],[-36.1557747,-9.6249186],[-36.1312555,-9.6514054]]]}},{"type":"Feature","properties":{"level":"municipio","municipality_code":"2701100","municipality_name":"Branquinha","uf":"AL","state_code":"27","area_km2":168.343},"geometry":{"type":"Polygon","coordinates":[[[-36.058978,-9.2158127],[-35.888572,-9.1383084],[-36.0024389,-9.2657972],[-36.04265,-9.2810139],[-36.0650778,-9.2730972],[-36.0686333,-9.2610111],[-36.0935083,-9.2648833],[-36.2008278,-9.2187583],[-36.1282245,-9.2013999],[-36.1111212,-9.207937],[-36.0879629,-9.2011173],[-36.0657638,-9.2065543],[-36.058978,-9.2158127]]]}},{"type":"Feature","properties":{"level":"municipio","municipality_code":"2701209","municipality_name":"Cacimbinhas","uf":"AL","state_code":"27","area_km2":282.011},"geometry":{"type":"Polygon","coordinates":[[[-37.0206314,-9.4142787],[-37.0397139,-9.4178333],[-37.0242258,-9.3709133],[-36.9941597,-9.3743042],[-36.9796404,-9.3593283],[-36.9554646,-9.3812511],[-36.9368499,-9.3774254],[-36.9014221,-9.3977768],[-36.8265364,-9.3909593],[-36.8334477,-9.4088816],[-36.8283301,-9.4276025],[-36.8455429,-9.4432076],[-36.8436645,-9.4857386],[-36.8301914,-9.5003762],[-36.8416339,-9.5123932],[-36.8315121,-9.5281459],[-36.8554426,-9.5455142],[-36.8675013,-9.5451144],[-36.8782021,-9.5337974],[-36.9066456,-9.5277246],[-36.9796568,-9.4861268],[-37.0191372,-9.4356121],[-37.0206314,-9.4142787]]]}},{"type":"Feature","properties":{"level":"municipio","municipality_code":"2701308","municipality_name":"Cajueiro","uf":"AL","state_code":"27","area_km2":107.168},"geometry":{"type":"Polygon","coordinates":[[[-36.1082907,-9.320885],[-36.1557808,-9.472872],[-36.2111303,-9.453],[-36.1552508,-9.3050679],[-36.1082907,-9.320885]]]}},{"type":"Feature","properties":{"level":"municipio","municipality_code":"2701357","municipality_name":"Campestre","uf":"AL","state_code":"27","area_km2":65.019},"geometry":{"type":"Polygon","coordinates":[[[-35.5517632,-8.9052614],[-35.5793465,-8.9111341],[-35.5856966,-8.891666],[-35.5765759,-8.8652639],[-35.5814079,-8.8564372],[-35.5636788,-8.8316463],[-35.5398187,-8.8210869],[-35.5482525,-8.8444724],[-35.5382795,-8.8815705],[-35.5143946,-8.881523],[-35.4991175,-8.8908907],[-35.5021245,-8.9353646],[-35.4906886,-8.9423625],[-35.5249376,-8.9477819],[-35.5308653,-8.9276396],[-35.5517632,-8.9052614]]]}},{"type":"Feature","properties":{"level":"municipio","municipality_code":"2701407","municipality_name":"Campo Alegre","uf":"AL","state_code":"27","area_km2":312.726},"geometry":{"type":"Polygon","coordinates":[[[-36.3130004,-9.8869313],[-36.4009713,-9.7831767],[-36.3797567,-9.7667885],[-36.3595973,-9.7692867],[-36.353391,-9.7577848],[-36.3615375,-9.7527405],[-36.3475593,-9.7489701],[-36.3284433,-9.7043732],[-36.3188395,-9.722779],[-36.2802323,-9.734363],[-36.2443949,-9.7334124],[-36.1839857,-9.8007172],[-36.2080782,-9.8061506],[-36.1973268,-9.836514],[-36.2100153,-9.8438621],[-36.2196365,-9.8368597],[-36.2397887,-9.8717544],[-36.1817773,-9.8796759],[-36.1782971,-9.8892772],[-36.280899,-9.9346687],[-36.2778826,-9.8922952],[-36.3130004,-9.8869313]]]}},{"type":"Feature","properties":{"level":"municipio","municipality_code":"2701506","municipality_name":"Campo Grande","uf":"AL","state_code":"27","area_km2":170.145},"geometry":{"type":"Polygon","coordinates":[[[-36.7131199,-10.0457271],[-36.7875834,-10.0220285],[-36.786333,-10.0149324],[-36.7993045,-10.0059958],[-36.809501,-10.0098051],[-36.8201944,-10.0022513],[-36.8341062,-10.0128356],[-36.843304,-10.0089463],[-36.8107497,-9.9835284],[-36.794413,-9.9551905],[-36.7901856,-9.9261201],[-36.7606024,-9.9008248],[-36.7527614,-9.8826163],[-36.7344504,-9.887772],[-36.7272274,-9.9036858],[-36.7189274,-9.8994318],[-36.703956,-9.9124725],[-36.692694,-9.9111247],[-36.6877639,-9.9288348],[-36.6731477,-9.9371986],[-36.7069405,-10.0005926],[-36.7131199,-10.0457271]]]}},{"type":"Feature","properties":{"level":"municipio","municipality_code":"2701605","municipality_name":"Canapi","uf":"AL","state_code":"27","area_km2":600.879},"geometry":{"type":"Polygon","coordinates":[[[-37.583012,-9.0601582],[-37.5282417,-8.9613778],[-37.5191111,-8.9683333],[-37.5043893,-8.9653873],[-37.4965078,-8.9715159],[-37.4932054,-8.9933596],[-37.4839796,-8.9889758],[-37.4601951,-9.0011436],[-37.4165025,-9.0065641],[-37.3961404,-9.0201121],[-37.3935121,-9.0392716],[-37.4205256,-9.0773436],[-37.4271769,-9.1031801],[-37.4188345,-9.1355122],[-37.421908,-9.1607006],[-37.4344781,-9.1824152],[-37.5251425,-9.2552569],[-37.5377646,-9.2555483],[-37.5938035,-9.2882671],[-37.6088289,-9.2731124],[-37.609643,-9.2496829],[-37.6183274,-9.2466274],[-37.6080705,-9.2275399],[-37.6218843,-9.193002],[-37.6824583,-9.1790389],[-37.6632222,-9.1593889],[-37.6539722,-9.128525],[-37.583012,-9.0601582]]]}},{"type":"Feature","properties":{"level":"municipio","municipality_code":"2701704","municipality_name":"Capela","uf":"AL","state_code":"27","area_km2":253.168},"geometry":{"type":"Polygon","coordinates":[[[-36.1557808,-9.472872],[-36.1082907,-9.320885],[-36.15438416551727,-9.305359891215804],[-36.2008278,-9.2187583],[-36.0935083,-9.2648833],[-36.0686333,-9.2610111],[-36.0616556,-9.2756694],[-36.0449194,-9.2771306],[-36.0576427,-9.2872729],[-36.0649782,-9.281109],[-36.0405882,-9.3082431],[-36.0292603,-9.3088986],[-36.0539019,-9.3213075],[-36.0421994,-9.3393677],[-35.995321,-9.3238077],[-36.0034025,-9.3327193],[-36.0032003,-9.3574052],[-36.0148118,-9.3609809],[-35.9961444,-9.3836046],[-36.1020848,-9.4539052],[-36.1331392,-9.4541692],[-36.1557808,-9.472872]]]}},{"type":"Feature","properties":{"level":"municipio","municipality_code":"2701803","municipality_name":"Carneiros","uf":"AL","state_code":"27","area_km2":111.695},"geometry":{"type":"Polygon","coordinates":[[[-37.44595515313776,-9.47538979586198],[-37.4374889,-9.4483389],[-37.3337442,-9.4154414],[-37.2671444,-9.449675],[-37.2733172,-9.4646144],[-37.2792639,-9.4564694],[-37.3802929,-9.5028808],[-37.3730977,-9.5247824],[-37.44595515313776,-9.47538979586198]]]}},{"type":"Feature","properties":{"level":"municipio","municipality_code":"2701902","municipality_name":"Chã Preta","uf":"AL","state_code":"27","area_km2":157.831},"geometry":{"type":"Polygon","coordinates":[[[-36.3097916,-9.1723628],[-36.293497,-9.1725843],[-36.2881991,-9.1839589],[-36.2008278,-9.2187583],[-36.2367751,-9.2913085],[-36.2993269,-9.3123923],[-36.3009953,-9.302215],[-36.3258892,-9.2959221],[-36.3250535,-9.2749733],[-36.3370119,-9.2724617],[-36.3405707,-9.2404287],[-36.3559327,-9.2183859],[-36.3488883,-9.2147369],[-36.3539165,-9.2011936],[-36.33185,-9.2037842],[-36.3097916,-9.1723628]]]}},{"type":"Feature","properties":{"level":"municipio","municipality_code":"2702009","municipality_name":"Coité do Nóia","uf":"AL","state_code":"27","area_km2":88.334},"geometry":{"type":"Polygon","coordinates":[[[-36.5884342,-9.5746728],[-36.5705853,-9.5641887],[-36.5361053,-9.6630752],[-36.5826709,-9.6994117],[-36.6084999,-9.6691548],[-36.6088433,-9.6356244],[-36.6166184,-9.6263147],[-36.6239245,-9.6341834],[-36.6311214,-9.6303195],[-36.6117654,-9.6192679],[-36.6251165,-9.6025179],[-36.6236954,-9.5799736],[-36.602212,-9.575844],[-36.6016725,-9.5675041],[-36.5884342,-9.5746728]]]}},{"type":"Feature","properties":{"level":"municipio","municipality_code":"2702108","municipality_name":"Colônia Leopoldina","uf":"AL","state_code":"27","area_km2":201.463},"geometry":{"type":"Polygon","coordinates":[[[-35.7038583,-8.9534028],[-35.7158222,-9.0171056],[-35.8345667,-8.984289],[-35.8229762,-8.8574191],[-35.8078957,-8.8603875],[-35.7962097,-8.8473997],[-35.77598,-8.8584579],[-35.7829807,-8.8975421],[-35.748399,-8.9171517],[-35.6712041,-8.896634],[-35.6519833,-8.8822639],[-35.6463583,-8.90205],[-35.6548639,-8.9184028],[-35.7038583,-8.9534028]]]}},{"type":"Feature","properties":{"level":"municipio","municipality_code":"2702207","municipality_name":"Coqueiro Seco","uf":"AL","state_code":"27","area_km2":39.608},"geometry":{"type":"Polygon","coordinates":[[[-35.8131367,-9.6551371],[-35.8644636,-9.654837],[-35.8676422,-9.626294],[-35.8447301,-9.6410571],[-35.825452,-9.6397553],[-35.8037111,-9.6064222],[-35.79238,-9.6010182],[-35.7692902,-9.6363817],[-35.7802427,-9.6669108],[-35.7954598,-9.6803366],[-35.8131367,-9.6551371]]]}},{"type":"Feature","properties":{"level":"municipio","municipality_code":"2702306","municipality_name":"Coruripe","uf":"AL","state_code":"27","area_km2":897.431},"geometry":{"type":"Polygon","coordinates":[[[-36.3046607,-10.0313797],[-36.2809505,-9.9350507],[-36.1244025,-9.9336666],[-36.0823171,-9.9796873],[-36.0739923,-10.0032884],[-36.0565118,-10.0118239],[-36.0513562,-10.0293704],[-36.0566005,-10.0419357],[-36.041877,-10.0511283],[-36.0307721,-10.0470455],[-36.045717,-10.0750793],[-36.0903369,-10.095928],[-36.1348772,-10.1608162],[-36.1515758,-10.1563593],[-36.1855036,-10.1989225],[-36.2596309,-10.2640539],[-36.3713222,-10.2302583],[-36.3723862,-10.2242673],[-36.3534446,-10.2156762],[-36.3537979,-10.2026626],[-36.3367727,-10.1741604],[-36.3614674,-10.1552407],[-36.3620324,-10.1223473],[-36.3728632,-10.1081341],[-36.3980298,-10.102931],[-36.3996759,-10.0822577],[-36.4153734,-10.0832209],[-36.4186283,-10.0658724],[-36.4357015,-10.0736126],[-36.4498163,-10.0590742],[-36.4530026,-10.0403586],[-36.3046607,-10.0313797]]]}},{"type":"Feature","properties":{"level":"municipio","municipality_code":"2702355","municipality_name":"Craíbas","uf":"AL","state_code":"27","area_km2":277.617},"geometry":{"type":"Polygon","coordinates":[[[-36.7537825,-9.576488],[-36.7157297,-9.5884829],[-36.6951916,-9.5791476],[-36.6984196,-9.5991415],[-36.6802401,-9.6021142],[-36.6869856,-9.652108],[-36.7118748,-9.6633278],[-36.7745964,-9.7295743],[-36.8143221,-9.6992638],[-36.8170067,-9.6868671],[-36.8651478,-9.6652335],[-36.8745779,-9.6468025],[-36.9039007,-9.6275109],[-36.9045865,-9.6165271],[-36.8884705,-9.6073711],[-36.8872291,-9.597837],[-36.8492173,-9.5696175],[-36.8421037,-9.5733086],[-36.8314509,-9.5519346],[-36.8126965,-9.5640666],[-36.785556,-9.5502193],[-36.7639213,-9.5579851],[-36.7537825,-9.576488]]]}},{"type":"Feature","properties":{"level":"municipio","municipality_code":"2702405","municipality_name":"Delmiro Gouveia","uf":"AL","state_code":"27","area_km2":628.547},"geometry":{"type":"Polygon","coordinates":[[[-38.0284234,-9.4675124],[-38.0678462,-9.4585026],[-38.0797087,-9.4403868],[-38.1089424,-9.4356214],[-38.1181198,-9.4422607],[-38.1419281,-9.4377629],[-38.1549496,-9.4434161],[-38.1776999,-9.4253864],[-38.2047642,-9.4186743],[-38.1944756,-9.3849346],[-38.23759,-9.3297945],[-38.2030806,-9.2969016],[-38.179554,-9.2912502],[-38.1579827,-9.2638296],[-38.156374,-9.2500702],[-37.8722833,-9.4066333],[-37.894379,-9.4487244],[-37.8958351,-9.5113533],[-37.8884864,-9.5301433],[-37.9100352,-9.54715],[-37.9893302,-9.5273587],[-38.0032899,-9.5150299],[-37.9979494,-9.4992833],[-38.0091511,-9.4809643],[-38.0284234,-9.4675124]]]}},{"type":"Feature","properties":{"level":"municipio","municipality_code":"2702504","municipality_name":"Dois Riachos","uf":"AL","state_code":"27","area_km2":142.364},"geometry":{"type":"Polygon","coordinates":[[[-37.0226399,-9.369617],[-37.0397139,-9.4178333],[-37.1045763,-9.4605719],[-37.1195279,-9.4575],[-37.1359728,-9.4080557],[-37.1058629,-9.3728343],[-37.0912222,-9.3275009],[-37.0608119,-9.3078588],[-37.0575844,-9.3175402],[-37.0544526,-9.307133],[-37.0455293,-9.3158818],[-37.0242898,-9.315715],[-37.0033646,-9.3526135],[-36.9796404,-9.3593283],[-36.9941597,-9.3743042],[-37.0226399,-9.369617]]]}},{"type":"Feature","properties":{"level":"municipio","municipality_code":"2702553","municipality_name":"Estrela de Alagoas","uf":"AL","state_code":"27","area_km2":260.615},"geometry":{"type":"Polygon","coordinates":[[[-36.7236264,-9.3977818],[-36.7166134,-9.4460315],[-36.7212517,-9.4684111],[-36.708904,-9.484833],[-36.7928389,-9.4866139],[-36.8345216,-9.5088996],[-36.8302485,-9.4998145],[-36.8436645,-9.4857386],[-36.8454738,-9.4422723],[-36.8283301,-9.4276025],[-36.8308045,-9.3976093],[-36.7968053,-9.3564724],[-36.7968326,-9.2804232],[-36.7617725,-9.271457],[-36.6997475,-9.2930058],[-36.7140889,-9.3203237],[-36.7214699,-9.356926],[-36.7123311,-9.3778817],[-36.7236264,-9.3977818]]]}},{"type":"Feature","properties":{"level":"municipio","municipality_code":"2702603","municipality_name":"Feira Grande","uf":"AL","state_code":"27","area_km2":175.906},"geometry":{"type":"Polygon","coordinates":[[[-36.6731523,-9.9371946],[-36.6877639,-9.9288348],[-36.692694,-9.9111247],[-36.703956,-9.9124725],[-36.7189274,-9.8994318],[-36.7272274,-9.9036858],[-36.7344504,-9.887772],[-36.7526842,-9.8826176],[-36.7470228,-9.8774462],[-36.7219376,-9.881873],[-36.7345894,-9.8675464],[-36.6907493,-9.8042435],[-36.6254081,-9.836932],[-36.6255936,-9.8522195],[-36.6014644,-9.8436563],[-36.591307,-9.871587],[-36.6042242,-9.8726495],[-36.603412,-9.9025071],[-36.6146911,-9.9120936],[-36.6135268,-9.9510766],[-36.6384751,-9.9553763],[-36.6283058,-9.9651027],[-36.6333716,-9.9656759],[-36.6289355,-9.9804583],[-36.6458617,-9.9852742],[-36.6869551,-9.9654756],[-36.6731523,-9.9371946]]]}},{"type":"Feature","properties":{"level":"municipio","municipality_code":"2702702","municipality_name":"Feliz Deserto","uf":"AL","state_code":"27","area_km2":110.062},"geometry":{"type":"Polygon","coordinates":[[[-36.3201111,-10.343198],[-36.3930972,-10.3098139],[-36.3762966,-10.2927304],[-36.3957497,-10.2614688],[-36.3933017,-10.2404911],[-36.3713222,-10.2302583],[-36.2596309,-10.2640539],[-36.2938376,-10.3046159],[-36.3013825,-10.3445564],[-36.3201111,-10.343198]]]}},{"type":"Feature","properties":{"level":"municipio","municipality_code":"2702801","municipality_name":"Flexeiras","uf":"AL","state_code":"27","area_km2":333.756},"geometry":{"type":"Polygon","coordinates":[[[-35.6918086,-9.2805156],[-35.6864845,-9.3705663],[-35.7696055,-9.3895934],[-35.769017,-9.3090066],[-35.8045495,-9.266542],[-35.836351,-9.2645425],[-35.8345364,-9.2356573],[-35.888572,-9.1383084],[-35.8656583,-9.1382559],[-35.8433348,-9.152409],[-35.8314065,-9.1474704],[-35.8085567,-9.1597263],[-35.7845078,-9.1549212],[-35.725459,-9.1236015],[-35.6918086,-9.2805156]]]}},{"type":"Feature","properties":{"level":"municipio","municipality_code":"2702900","municipality_name":"Girau do Ponciano","uf":"AL","state_code":"27","area_km2":517.853},"geometry":{"type":"Polygon","coordinates":[[[-36.967775837900334,-9.694949987752048],[-36.9431043,-9.629121],[-36.9039007,-9.6275109],[-36.8745779,-9.6468025],[-36.8651478,-9.6652335],[-36.8170067,-9.6868671],[-36.8143221,-9.6992638],[-36.7894565,-9.7127823],[-36.7434712,-9.7640401],[-36.7703623,-9.7990506],[-36.7574408,-9.8220905],[-36.7661399,-9.8528251],[-36.7489653,-9.8662085],[-36.7470228,-9.8774462],[-36.7606024,-9.9008248],[-36.7819364,-9.9129503],[-36.7981914,-9.958063],[-36.8140807,-9.9585018],[-36.8466155,-9.9313096],[-36.9251718,-9.88942],[-36.9495375,-9.8586374],[-36.9341272,-9.8420199],[-36.9351228,-9.8284673],[-36.917246,-9.8167117],[-36.9068164,-9.7909193],[-36.8991278,-9.7911397],[-36.9012919,-9.7790044],[-36.8845758,-9.7509571],[-36.967775837900334,-9.694949987752048]]]}},{"type":"Feature","properties":{"level":"municipio","municipality_code":"2703007","municipality_name":"Ibateguara","uf":"AL","state_code":"27","area_km2":265.312},"geometry":{"type":"Polygon","coordinates":[[[-35.8305884,-8.8684868],[-35.8345667,-8.984289],[-35.8605134,-9.0534903],[-35.8789989,-9.0545106],[-35.8898023,-9.0678184],[-35.9258451,-9.0320274],[-35.9543535,-9.0318136],[-35.9614618,-8.9963985],[-35.9523683,-8.9884261],[-35.9615989,-8.9595022],[-35.9534754,-8.9466182],[-35.9883607,-8.9040247],[-35.9653025,-8.903144],[-35.9594669,-8.892924],[-35.924276,-8.8846275],[-35.9114175,-8.8612891],[-35.9009884,-8.8624119],[-35.8962006,-8.8542683],[-35.886952,-8.863069],[-35.8619307,-8.858369],[-35.8491388,-8.8718121],[-35.8305884,-8.8684868]]]}},{"type":"Feature","properties":{"level":"municipio","municipality_code":"2703106","municipality_name":"Igaci","uf":"AL","state_code":"27","area_km2":334.341},"geometry":{"type":"Polygon","coordinates":[[[-36.6860715,-9.6354476],[-36.6803132,-9.6020236],[-36.6984196,-9.5991415],[-36.6952301,-9.5791198],[-36.7157297,-9.5884829],[-36.7520381,-9.5774996],[-36.7639213,-9.5579851],[-36.785556,-9.5502193],[-36.8126965,-9.5640666],[-36.8282879,-9.5553828],[-36.8386134,-9.5411826],[-36.8314043,-9.527521],[-36.8413887,-9.5117925],[-36.7928389,-9.4866139],[-36.6875611,-9.4843972],[-36.6391278,-9.500725],[-36.6155611,-9.4821417],[-36.5700861,-9.4860722],[-36.5332201,-9.5309281],[-36.5556374,-9.5393277],[-36.5657179,-9.559526],[-36.5836309,-9.5729048],[-36.601319,-9.5674198],[-36.602212,-9.575844],[-36.6236954,-9.5799736],[-36.6251165,-9.6025179],[-36.6117654,-9.6192679],[-36.6311214,-9.6303195],[-36.6239245,-9.6341834],[-36.6153355,-9.6270285],[-36.606014,-9.6532326],[-36.6236329,-9.6551891],[-36.6391922,-9.6359594],[-36.6558663,-9.6431409],[-36.6860715,-9.6354476]]]}},{"type":"Feature","properties":{"level":"municipio","municipality_code":"2703205","municipality_name":"Igreja Nova","uf":"AL","state_code":"27","area_km2":428.023},"geometry":{"type":"Polygon","coordinates":[[[-36.7204038,-10.2649115],[-36.7307863,-10.1611896],[-36.7446909,-10.1449006],[-36.6765276,-10.1232861],[-36.6691745,-10.0486857],[-36.6488045,-10.0259856],[-36.6447584,-10.0344152],[-36.510928,-10.0422097],[-36.5067317,-10.0660486],[-36.4914575,-10.0717136],[-36.521734,-10.1762315],[-36.6137898,-10.1996797],[-36.660448,-10.2455868],[-36.6437881,-10.245757],[-36.6577102,-10.2679123],[-36.6914611,-10.2715844],[-36.7204038,-10.2649115]]]}},{"type":"Feature","properties":{"level":"municipio","municipality_code":"2703304","municipality_name":"Inhapi","uf":"AL","state_code":"27","area_km2":372.019},"geometry":{"type":"Polygon","coordinates":[[[-37.654158,-9.4087979],[-37.8320892,-9.2192363],[-37.7919642,-9.1938014],[-37.7436464,-9.1967019],[-37.73147,-9.1837551],[-37.6824583,-9.1790389],[-37.6218843,-9.193002],[-37.6080705,-9.2275399],[-37.6183627,-9.2398154],[-37.6066864,-9.2561657],[-37.6088289,-9.2731124],[-37.5860966,-9.2919871],[-37.6166276,-9.355769],[-37.654158,-9.4087979]]]}},{"type":"Feature","properties":{"level":"municipio","municipality_code":"2703403","municipality_name":"Jacaré dos Homens","uf":"AL","state_code":"27","area_km2":149.332},"geometry":{"type":"Polygon","coordinates":[[[-37.2360986,-9.6054274],[-37.2592968,-9.5723198],[-37.1602476,-9.6031519],[-37.15255,-9.613414],[-37.190976,-9.6903912],[-37.2137116,-9.6935394],[-37.2216487,-9.720802],[-37.239344,-9.7363491],[-37.2883987,-9.6865509],[-37.3030574,-9.6360277],[-37.252583,-9.6328415],[-37.2360986,-9.6054274]]]}},{"type":"Feature","properties":{"level":"municipio","municipality_code":"2703502","municipality_name":"Jacuípe","uf":"AL","state_code":"27","area_km2":209.65},"geometry":{"type":"Polygon","coordinates":[[[-35.4218805,-8.9206895],[-35.4538604,-8.9499397],[-35.5005455,-8.9378573],[-35.5037681,-8.9171146],[-35.4957124,-8.8957428],[-35.5143946,-8.881523],[-35.5377116,-8.8828129],[-35.5482525,-8.8444724],[-35.5398168,-8.8210818],[-35.5314453,-8.8282705],[-35.5115202,-8.817535],[-35.4957537,-8.8283023],[-35.4821234,-8.8261522],[-35.4701247,-8.8131267],[-35.4558183,-8.8409589],[-35.4112256,-8.836231],[-35.3999916,-8.8503128],[-35.3507547,-8.8607129],[-35.3418816,-8.8745924],[-35.3595845,-8.8848863],[-35.372073,-8.9123704],[-35.366396,-8.943392],[-35.3783795,-8.9685026],[-35.4218805,-8.9206895]]]}},{"type":"Feature","properties":{"level":"municipio","municipality_code":"2703601","municipality_name":"Japaratinga","uf":"AL","state_code":"27","area_km2":85.699},"geometry":{"type":"Polygon","coordinates":[[[-35.3380149,-9.0629291],[-35.3359086,-9.0318716],[-35.3032903,-9.0284987],[-35.2869876,-9.034183],[-35.2605272,-9.0691366],[-35.2515953,-9.0732058],[-35.2405289,-9.0657298],[-35.2701829,-9.1224937],[-35.2835078,-9.1296945],[-35.289549,-9.15696],[-35.2950753,-9.1555339],[-35.2920949,-9.1459264],[-35.3125041,-9.1469846],[-35.3011917,-9.1362094],[-35.3258582,-9.120968],[-35.3380149,-9.0629291]]]}},{"type":"Feature","properties":{"level":"municipio","municipality_code":"2703700","municipality_name":"Jaramataia","uf":"AL","state_code":"27","area_km2":105.416},"geometry":{"type":"Polygon","coordinates":[[[-36.96777599247471,-9.694950173689334],[-36.9769435,-9.693868],[-36.9935806,-9.7213833],[-37.0596556,-9.6826754],[-37.0460389,-9.6201366],[-37.0013331,-9.6298328],[-36.8873835,-9.5992079],[-36.9045865,-9.6165271],[-36.9022627,-9.6268342],[-36.9431043,-9.629121],[-36.96777599247471,-9.694950173689334]]]}},{"type":"Feature","properties":{"level":"municipio","municipality_code":"2703759","municipality_name":"Jequiá da Praia","uf":"AL","state_code":"27","area_km2":334.619},"geometry":{"type":"Polygon","coordinates":[[[-36.0307721,-10.0470455],[-36.041877,-10.0511283],[-36.0566005,-10.0419357],[-36.0513562,-10.0293704],[-36.0565118,-10.0118239],[-36.0739923,-10.0032884],[-36.0823171,-9.9796873],[-36.1244025,-9.9336666],[-36.2809505,-9.9350507],[-36.1782971,-9.8892772],[-36.1817773,-9.8796759],[-36.2397887,-9.8717544],[-36.2196365,-9.8368597],[-36.2100153,-9.8438621],[-36.1973268,-9.836514],[-36.2072543,-9.8055048],[-36.1839857,-9.8007172],[-36.1562615,-9.8596298],[-36.1449094,-9.8568442],[-36.1282745,-9.828504],[-36.1257625,-9.8376579],[-36.0659149,-9.8828578],[-36.0409793,-9.8583648],[-36.0212441,-9.9203313],[-36.0141858,-9.9076528],[-35.9992602,-9.9156082],[-35.9789714,-9.9140312],[-35.9628934,-9.941022],[-36.0307721,-10.0470455]]]}},{"type":"Feature","properties":{"level":"municipio","municipality_code":"2703809","municipality_name":"Joaquim Gomes","uf":"AL","state_code":"27","area_km2":300.863},"geometry":{"type":"Polygon","coordinates":[[[-35.7052584,-9.0821262],[-35.6888794,-9.1012366],[-35.6291829,-9.0922133],[-35.5800649,-9.1578119],[-35.6386034,-9.1179897],[-35.6499837,-9.1209384],[-35.6530399,-9.106703],[-35.6668258,-9.1087538],[-35.675837,-9.1003081],[-35.7985819,-9.158296],[-35.8183791,-9.1593812],[-35.8245433,-9.1492618],[-35.8433348,-9.152409],[-35.8656583,-9.1382559],[-35.888572,-9.1383084],[-35.8345667,-8.984289],[-35.6812556,-9.0240667],[-35.6862687,-9.0359598],[-35.7136877,-9.0529231],[-35.7052584,-9.0821262]]]}},{"type":"Feature","properties":{"level":"municipio","municipality_code":"2703908","municipality_name":"Jundiá","uf":"AL","state_code":"27","area_km2":88.772},"geometry":{"type":"Polygon","coordinates":[[[-35.5705466,-8.9859662],[-35.5801771,-8.9753496],[-35.5907913,-8.9760756],[-35.5826459,-8.9611393],[-35.5876701,-8.9564263],[-35.5786891,-8.9104707],[-35.5738043,-8.9147003],[-35.5517415,-8.9052511],[-35.5308653,-8.9276396],[-35.5249376,-8.9477819],[-35.4731958,-8.9443616],[-35.4750595,-8.9396514],[-35.4538604,-8.9499397],[-35.5405333,-9.0174167],[-35.56455,-9.01025],[-35.5545497,-9.0069287],[-35.5730805,-8.9948594],[-35.5705466,-8.9859662]]]}},{"type":"Feature","properties":{"level":"municipio","municipality_code":"2704005","municipality_name":"Junqueiro","uf":"AL","state_code":"27","area_km2":246.962},"geometry":{"type":"Polygon","coordinates":[[[-36.3131249,-9.8869123],[-36.3954261,-9.8744303],[-36.448432,-9.9604087],[-36.4688583,-9.9710461],[-36.4786874,-9.9603366],[-36.4702216,-9.9387901],[-36.486778,-9.9273163],[-36.499542,-9.8949663],[-36.4960865,-9.8671261],[-36.5040465,-9.855427],[-36.5163096,-9.8589334],[-36.553276,-9.8391387],[-36.5260374,-9.8032483],[-36.4695464,-9.8044129],[-36.4637771,-9.7834681],[-36.4144339,-9.7774472],[-36.4014179,-9.7826565],[-36.3535423,-9.8341946],[-36.3131249,-9.8869123]]]}},{"type":"Feature","properties":{"level":"municipio","municipality_code":"2704104","municipality_name":"Lagoa da Canoa","uf":"AL","state_code":"27","area_km2":83.621},"geometry":{"type":"Polygon","coordinates":[[[-36.7470228,-9.8774462],[-36.7661399,-9.8528251],[-36.7574408,-9.8220905],[-36.7703623,-9.7990506],[-36.7434712,-9.7640401],[-36.7745964,-9.7295743],[-36.7544657,-9.7073736],[-36.6891075,-9.8069692],[-36.7345894,-9.8675464],[-36.7219376,-9.881873],[-36.7470228,-9.8774462]]]}},{"type":"Feature","properties":{"level":"municipio","municipality_code":"2704203","municipality_name":"Limoeiro de Anadia","uf":"AL","state_code":"27","area_km2":309.171},"geometry":{"type":"Polygon","coordinates":[[[-36.5139669,-9.6919256],[-36.388292,-9.6516296],[-36.3754947,-9.6666034],[-36.3708262,-9.6980407],[-36.3430056,-9.713078],[-36.3436632,-9.7423408],[-36.3615375,-9.7527405],[-36.353391,-9.7577848],[-36.3595973,-9.7692867],[-36.3797567,-9.7667885],[-36.400968,-9.7831476],[-36.4489784,-9.7793129],[-36.4645504,-9.7843096],[-36.4695464,-9.8044129],[-36.5260374,-9.8032483],[-36.5541806,-9.8391024],[-36.5487696,-9.8085802],[-36.5655213,-9.8016772],[-36.5529761,-9.7709001],[-36.5729768,-9.7495164],[-36.5836616,-9.7144842],[-36.5702049,-9.708402],[-36.5826709,-9.6994117],[-36.5361053,-9.6630752],[-36.5268049,-9.6876509],[-36.5139669,-9.6919256]]]}},{"type":"Feature","properties":{"level":"municipio","municipality_code":"2704302","municipality_name":"Maceió","uf":"AL","state_code":"27","area_km2":509.295},"geometry":{"type":"MultiPolygon","coordinates":[[[[-35.7583856,-9.6936419],[-35.7604073,-9.6949638],[-35.7579136,-9.6927491],[-35.7583856,-9.6936419]]],[[[-35.7696055,-9.3895934],[-35.69055,-9.371],[-35.6650471,-9.4301734],[-35.6257967,-9.447966],[-35.6176283,-9.4696774],[-35.5840428,-9.4698338],[-35.5584903,-9.4875297],[-35.5869469,-9.5112335],[-35.5928287,-9.5307687],[-35.6055517,-9.5318303],[-35.6176318,-9.5480344],[-35.6406578,-9.5596045],[-35.6768785,-9.6004327],[-35.6970411,-9.634733],[-35.6961222,-9.6662279],[-35.7094416,-9.6657871],[-35.7236932,-9.6846537],[-35.7297373,-9.6826058],[-35.7231611,-9.6806995],[-35.7273372,-9.6726928],[-35.7487012,-9.6747707],[-35.7945054,-9.7131396],[-35.7824859,-9.6977087],[-35.7909627,-9.6793377],[-35.7692902,-9.6363817],[-35.8143532,-9.5800053],[-35.7967038,-9.5315255],[-35.7696055,-9.3895934]]]]}},{"type":"Feature","properties":{"level":"municipio","municipality_code":"2704401","municipality_name":"Major Isidoro","uf":"AL","state_code":"27","area_km2":437.603},"geometry":{"type":"Polygon","coordinates":[[[-37.0013331,-9.6298328],[-37.1444833,-9.60075],[-37.1081225,-9.5092615],[-37.1149964,-9.4990756],[-37.1037594,-9.4902933],[-37.1049201,-9.4609456],[-37.0397139,-9.4178333],[-37.0206314,-9.4142787],[-37.0191372,-9.4356121],[-36.9796568,-9.4861268],[-36.9066456,-9.5277246],[-36.8782021,-9.5337974],[-36.867577,-9.5450902],[-36.8554426,-9.5455142],[-36.8370863,-9.5318217],[-36.831383,-9.5523062],[-36.8421037,-9.5733086],[-36.8492173,-9.5696175],[-36.8675767,-9.5809766],[-36.8796892,-9.5980064],[-37.0013331,-9.6298328]]]}},{"type":"Feature","properties":{"level":"municipio","municipality_code":"2704906","municipality_name":"Mar Vermelho","uf":"AL","state_code":"27","area_km2":91.741},"geometry":{"type":"Polygon","coordinates":[[[-36.3826167,-9.5039806],[-36.4509754,-9.5052716],[-36.4684155,-9.4855188],[-36.451792,-9.4570566],[-36.4631868,-9.4538534],[-36.390601,-9.4244056],[-36.3394155,-9.4645751],[-36.3554239,-9.4693402],[-36.3399586,-9.5112187],[-36.3826167,-9.5039806]]]}},{"type":"Feature","properties":{"level":"municipio","municipality_code":"2704500","municipality_name":"Maragogi","uf":"AL","state_code":"27","area_km2":333.951},"geometry":{"type":"Polygon","coordinates":[[[-35.1810715,-8.9774385],[-35.2208437,-9.0137702],[-35.240124,-9.0641271],[-35.251842,-9.0732384],[-35.2869876,-9.034183],[-35.3444023,-9.0031274],[-35.3572562,-8.9813409],[-35.3540154,-8.9636245],[-35.3691262,-8.9374631],[-35.372073,-8.9123704],[-35.3595845,-8.8848863],[-35.3418816,-8.8745924],[-35.3507547,-8.8607129],[-35.2775802,-8.875163],[-35.2527821,-8.887233],[-35.2378375,-8.8827229],[-35.1682513,-8.8924711],[-35.1519493,-8.9155415],[-35.1667463,-8.934898],[-35.1810715,-8.9774385]]]}},{"type":"Feature","properties":{"level":"municipio","municipality_code":"2704609","municipality_name":"Maravilha","uf":"AL","state_code":"27","area_km2":334.05},"geometry":{"type":"Polygon","coordinates":[[[-37.2287839,-9.225536],[-37.4145343,-9.2894659],[-37.3991926,-9.3324988],[-37.5882307,-9.286831],[-37.5377646,-9.2555483],[-37.5251425,-9.2552569],[-37.4365252,-9.1837922],[-37.3134886,-9.1970537],[-37.278488,-9.1525001],[-37.2625595,-9.1588817],[-37.2470816,-9.1790184],[-37.2287839,-9.225536]]]}},{"type":"Feature","properties":{"level":"municipio","municipality_code":"2704708","municipality_name":"Marechal Deodoro","uf":"AL","state_code":"27","area_km2":340.987},"geometry":{"type":"Polygon","coordinates":[[[-35.8044499,-9.7224858],[-35.819192,-9.7330439],[-35.822339,-9.7477886],[-35.8552545,-9.7882838],[-35.9055892,-9.8118867],[-35.9420202,-9.787477],[-35.9803226,-9.786374],[-36.0007421,-9.7745285],[-36.0045641,-9.7670943],[-35.9893001,-9.7386444],[-35.9874597,-9.7033641],[-36.033425,-9.701677],[-36.0374837,-9.6813027],[-36.0197942,-9.6597919],[-36.0243221,-9.6464214],[-35.980162,-9.6728562],[-35.98691,-9.6624939],[-35.9785467,-9.6438012],[-35.9676545,-9.6407791],[-35.9573085,-9.6478341],[-35.9442186,-9.6392492],[-35.8882398,-9.6479063],[-35.8681144,-9.6253881],[-35.8644636,-9.654837],[-35.8133132,-9.6550569],[-35.8039796,-9.6758579],[-35.7856558,-9.6888149],[-35.7828805,-9.698846],[-35.7961817,-9.7082074],[-35.7898406,-9.7111735],[-35.795627,-9.7173244],[-35.8057945,-9.7158335],[-35.8044499,-9.7224858]]]}},{"type":"Feature","properties":{"level":"municipio","municipality_code":"2704807","municipality_name":"Maribondo","uf":"AL","state_code":"27","area_km2":180.107},"geometry":{"type":"Polygon","coordinates":[[[-36.3186541,-9.6115957],[-36.3513361,-9.6069444],[-36.3460098,-9.5945723],[-36.3790232,-9.5725592],[-36.383383,-9.5415367],[-36.3753164,-9.5281431],[-36.3862019,-9.5067569],[-36.3291097,-9.5101573],[-36.3065557,-9.5224034],[-36.2555694,-9.5188083],[-36.2209528,-9.4842639],[-36.2268444,-9.5144972],[-36.2185222,-9.5631917],[-36.1916556,-9.60015],[-36.2400444,-9.5934722],[-36.2499278,-9.6233306],[-36.2936916,-9.6013302],[-36.3186541,-9.6115957]]]}},{"type":"Feature","properties":{"level":"municipio","municipality_code":"2705002","municipality_name":"Mata Grande","uf":"AL","state_code":"27","area_km2":909.535},"geometry":{"type":"Polygon","coordinates":[[[-37.573404,-9.0451256],[-37.6539722,-9.128525],[-37.6632222,-9.1593889],[-37.6824583,-9.1790389],[-37.73147,-9.1837551],[-37.7436464,-9.1967019],[-37.7919642,-9.1938014],[-37.8333585,-9.221231],[-37.9467151,-9.0947717],[-37.9049326,-9.0402359],[-37.8897677,-9.0347943],[-37.8809834,-9.0403468],[-37.8795981,-9.0154139],[-37.8530933,-9.0001398],[-37.8390986,-8.9783812],[-37.8253338,-8.9324283],[-37.833637,-8.9264118],[-37.8203593,-8.9087038],[-37.8246288,-8.8859573],[-37.7947029,-8.8749931],[-37.7855219,-8.8597415],[-37.7553619,-8.8463637],[-37.7416683,-8.8760777],[-37.7320055,-8.8796631],[-37.7193877,-8.9081],[-37.7039225,-8.9219266],[-37.6988417,-8.9447222],[-37.6719167,-8.9745],[-37.6998306,-8.9840556],[-37.6977418,-8.9912051],[-37.6870711,-8.9877354],[-37.6821528,-8.9973324],[-37.6580875,-8.9857964],[-37.6549276,-8.9942796],[-37.640464,-8.9944827],[-37.6376667,-9.0037778],[-37.6101667,-8.9878611],[-37.5970513,-8.9690718],[-37.5597791,-8.9719389],[-37.5459722,-8.9609444],[-37.5280278,-8.9604167],[-37.573404,-9.0451256]]]}},{"type":"Feature","properties":{"level":"municipio","municipality_code":"2705101","municipality_name":"Matriz de Camaragibe","uf":"AL","state_code":"27","area_km2":238.112},"geometry":{"type":"Polygon","coordinates":[[[-35.5210013,-9.1350756],[-35.493788,-9.1387875],[-35.4685469,-9.1668596],[-35.4547874,-9.1651218],[-35.4347691,-9.1774723],[-35.4569209,-9.1851254],[-35.4832658,-9.175765],[-35.4757805,-9.1905936],[-35.5549815,-9.191293],[-35.6291829,-9.0922133],[-35.6888794,-9.1012366],[-35.7052213,-9.0826671],[-35.7136877,-9.0529231],[-35.6862687,-9.0359598],[-35.6812556,-9.0240667],[-35.5602007,-9.0488046],[-35.5017483,-9.0853164],[-35.5217918,-9.104892],[-35.5265457,-9.118309],[-35.5210013,-9.1350756]]]}},{"type":"Feature","properties":{"level":"municipio","municipality_code":"2705200","municipality_name":"Messias","uf":"AL","state_code":"27","area_km2":114.156},"geometry":{"type":"Polygon","coordinates":[[[-35.8305322,-9.3150505],[-35.8385139,-9.3093245],[-35.836351,-9.2645425],[-35.8045495,-9.266542],[-35.769017,-9.3090066],[-35.7695027,-9.3876102],[-35.8774201,-9.416687],[-35.8305322,-9.3150505]]]}},{"type":"Feature","properties":{"level":"municipio","municipality_code":"2705309","municipality_name":"Minador do Negrão","uf":"AL","state_code":"27","area_km2":167.462},"geometry":{"type":"Polygon","coordinates":[[[-36.8397124,-9.2882139],[-36.7968326,-9.2804232],[-36.7968053,-9.3564724],[-36.8265364,-9.3909593],[-36.9014221,-9.3977768],[-36.9368499,-9.3774254],[-36.9304372,-9.3700363],[-36.937877,-9.3528213],[-36.9210285,-9.3355177],[-36.9267626,-9.3228919],[-36.9008277,-9.2829084],[-36.8747725,-9.2769608],[-36.8797816,-9.2763747],[-36.8712594,-9.2680846],[-36.8467767,-9.2777067],[-36.8397124,-9.2882139]]]}},{"type":"Feature","properties":{"level":"municipio","municipality_code":"2705408","municipality_name":"Monteirópolis","uf":"AL","state_code":"27","area_km2":86.605},"geometry":{"type":"Polygon","coordinates":[[[-37.3562174,-9.644123],[-37.3048748,-9.5360762],[-37.2442228,-9.5898282],[-37.2453937,-9.6012617],[-37.2360986,-9.6054274],[-37.252583,-9.6328415],[-37.3562174,-9.644123]]]}},{"type":"Feature","properties":{"level":"municipio","municipality_code":"2705507","municipality_name":"Murici","uf":"AL","state_code":"27","area_km2":418.028},"geometry":{"type":"Polygon","coordinates":[[[-35.9288487,-9.3745494],[-36.0143784,-9.400972],[-35.9961444,-9.3836046],[-36.0148118,-9.3609809],[-36.0032003,-9.3574052],[-36.0034025,-9.3327193],[-35.995321,-9.3238077],[-36.0421994,-9.3393677],[-36.0539019,-9.3213075],[-36.0292603,-9.3088986],[-36.0405882,-9.3082431],[-36.0649782,-9.281109],[-36.0576427,-9.2872729],[-36.0024389,-9.2657972],[-35.888572,-9.1383084],[-35.8345364,-9.2356573],[-35.8385139,-9.3093245],[-35.8300896,-9.3226816],[-35.8774201,-9.416687],[-35.9288487,-9.3745494]]]}},{"type":"Feature","properties":{"level":"municipio","municipality_code":"2705606","municipality_name":"Novo Lino","uf":"AL","state_code":"27","area_km2":219.327},"geometry":{"type":"Polygon","coordinates":[[[-35.5602007,-9.0488046],[-35.7158222,-9.0171056],[-35.7147584,-8.9841395],[-35.7038583,-8.9534028],[-35.6548639,-8.9184028],[-35.6463583,-8.90205],[-35.6519833,-8.8822639],[-35.6321278,-8.8812783],[-35.5713987,-8.8419841],[-35.5814079,-8.8564372],[-35.5765759,-8.8652639],[-35.5856966,-8.891666],[-35.5793181,-8.9153651],[-35.5876701,-8.9564263],[-35.582608,-8.9606612],[-35.5907913,-8.9760756],[-35.5741934,-8.9798349],[-35.5730805,-8.9948594],[-35.5545497,-9.0069287],[-35.5664269,-9.0118939],[-35.5602007,-9.0488046]]]}},{"type":"Feature","properties":{"level":"municipio","municipality_code":"2705903","municipality_name":"Olho d'Água Grande","uf":"AL","state_code":"27","area_km2":115.509},"geometry":{"type":"Polygon","coordinates":[[[-36.7875834,-10.0220285],[-36.713951,-10.0454934],[-36.7143825,-10.0538406],[-36.7700428,-10.1240991],[-36.8133607,-10.0918303],[-36.8216638,-10.0745975],[-36.8747069,-10.0535931],[-36.8641106,-10.0445317],[-36.8614656,-10.0274129],[-36.8201944,-10.0022513],[-36.809501,-10.0098051],[-36.7982531,-10.0063504],[-36.786333,-10.0149324],[-36.7875834,-10.0220285]]]}},{"type":"Feature","properties":{"level":"municipio","municipality_code":"2705705","municipality_name":"Olho d'Água das Flores","uf":"AL","state_code":"27","area_km2":188.397},"geometry":{"type":"Polygon","coordinates":[[[-37.2553609,-9.5813246],[-37.3048748,-9.5360762],[-37.3135801,-9.5531499],[-37.3730977,-9.5247824],[-37.3802929,-9.5028808],[-37.2792639,-9.4564694],[-37.2733172,-9.4646144],[-37.2691496,-9.4571163],[-37.2280729,-9.5193287],[-37.1873516,-9.5612936],[-37.1198786,-9.5381422],[-37.1556934,-9.6142458],[-37.1602476,-9.6031519],[-37.2592968,-9.5723198],[-37.2553609,-9.5813246]]]}},{"type":"Feature","properties":{"level":"municipio","municipality_code":"2705804","municipality_name":"Olho d'Água do Casado","uf":"AL","state_code":"27","area_km2":327.678},"geometry":{"type":"Polygon","coordinates":[[[-37.7963534,-9.5049583],[-37.7879191,-9.5228401],[-37.7941972,-9.5438401],[-37.8350843,-9.5511421],[-37.8422269,-9.5794152],[-37.8941417,-9.5395273],[-37.8883272,-9.5207942],[-37.8958351,-9.5113533],[-37.894379,-9.4487244],[-37.8725965,-9.4049087],[-37.8497748,-9.3908344],[-37.8181982,-9.3350343],[-37.7770405,-9.3243157],[-37.7688245,-9.288778],[-37.7252462,-9.3343907],[-37.7200194,-9.3882667],[-37.7658028,-9.4431889],[-37.776895,-9.4882532],[-37.7963534,-9.5049583]]]}},{"type":"Feature","properties":{"level":"municipio","municipality_code":"2706000","municipality_name":"Olivença","uf":"AL","state_code":"27","area_km2":174.188},"geometry":{"type":"Polygon","coordinates":[[[-37.1064452,-9.4926172],[-37.1148796,-9.4980158],[-37.1080111,-9.5085405],[-37.1208106,-9.5389387],[-37.1873516,-9.5612936],[-37.2280729,-9.5193287],[-37.2703481,-9.4573783],[-37.2585909,-9.4472143],[-37.2140086,-9.4453014],[-37.1980929,-9.4322638],[-37.1262671,-9.4372251],[-37.1195279,-9.4575],[-37.1045763,-9.4605719],[-37.1064452,-9.4926172]]]}},{"type":"Feature","properties":{"level":"municipio","municipality_code":"2706109","municipality_name":"Ouro Branco","uf":"AL","state_code":"27","area_km2":196.35},"geometry":{"type":"Polygon","coordinates":[[[-37.3134886,-9.1970537],[-37.4362935,-9.1837378],[-37.421908,-9.1607006],[-37.4188345,-9.1355122],[-37.4271769,-9.1031801],[-37.4205256,-9.0773436],[-37.3947349,-9.0421537],[-37.3938695,-9.0269832],[-37.3586391,-9.0538891],[-37.3308896,-9.090706],[-37.3148041,-9.0949652],[-37.278488,-9.1525001],[-37.3134886,-9.1970537]]]}},{"type":"Feature","properties":{"level":"municipio","municipality_code":"2706208","municipality_name":"Palestina","uf":"AL","state_code":"27","area_km2":38.189},"geometry":{"type":"Polygon","coordinates":[[[-37.3495208,-9.6888418],[-37.3178365,-9.6603231],[-37.3030574,-9.6360277],[-37.2883987,-9.6865509],[-37.2404621,-9.7360187],[-37.3495208,-9.6888418]]]}},{"type":"Feature","properties":{"level":"municipio","municipality_code":"2706307","municipality_name":"Palmeira dos Índios","uf":"AL","state_code":"27","area_km2":450.99},"geometry":{"type":"Polygon","coordinates":[[[-36.6155611,-9.4821417],[-36.6391278,-9.500725],[-36.6875611,-9.4843972],[-36.708904,-9.484833],[-36.7212517,-9.4684111],[-36.7166134,-9.4460315],[-36.7238626,-9.3902994],[-36.7123311,-9.3778817],[-36.7214699,-9.356926],[-36.7124985,-9.3139969],[-36.6997475,-9.2930058],[-36.6704222,-9.3132355],[-36.6446864,-9.3143715],[-36.5932192,-9.3608493],[-36.5836637,-9.3536107],[-36.55019,-9.3540977],[-36.5508353,-9.3438235],[-36.4856106,-9.4071484],[-36.4631868,-9.4538534],[-36.451792,-9.4570566],[-36.4684155,-9.4855188],[-36.4893549,-9.5031298],[-36.5189552,-9.5035285],[-36.5332201,-9.5309281],[-36.5700861,-9.4860722],[-36.6155611,-9.4821417]]]}},{"type":"Feature","properties":{"level":"municipio","municipality_code":"2706422","municipality_name":"Pariconha","uf":"AL","state_code":"27","area_km2":254.719},"geometry":{"type":"Polygon","coordinates":[[[-37.9612234,-9.2387026],[-37.9824498,-9.2833852],[-37.9754891,-9.2984805],[-37.9832568,-9.3300866],[-38.0002374,-9.3361175],[-38.156374,-9.2500702],[-38.1563061,-9.2423638],[-38.1439087,-9.2182047],[-38.0922873,-9.172725],[-38.0639045,-9.1737805],[-38.030292,-9.1649481],[-38.0207836,-9.1552152],[-37.9832472,-9.1779417],[-37.9871495,-9.1876982],[-37.9731554,-9.1954555],[-37.9714528,-9.2159722],[-37.9882183,-9.2333996],[-37.9802338,-9.2406355],[-37.9612234,-9.2387026]]]}},{"type":"Feature","properties":{"level":"municipio","municipality_code":"2706448","municipality_name":"Paripueira","uf":"AL","state_code":"27","area_km2":92.813},"geometry":{"type":"Polygon","coordinates":[[[-35.5495021,-9.4038487],[-35.528029,-9.4365719],[-35.5245918,-9.4426262],[-35.529468,-9.4554545],[-35.5540326,-9.4745981],[-35.5584903,-9.4875297],[-35.5840428,-9.4698338],[-35.6176283,-9.4696774],[-35.6257967,-9.447966],[-35.6655771,-9.429685],[-35.67665,-9.3985833],[-35.6210045,-9.4098691],[-35.5495021,-9.4038487]]]}},{"type":"Feature","properties":{"level":"municipio","municipality_code":"2706505","municipality_name":"Passo de Camaragibe","uf":"AL","state_code":"27","area_km2":251.169},"geometry":{"type":"Polygon","coordinates":[[[-35.4655872,-9.2244805],[-35.3951142,-9.2733693],[-35.3883171,-9.2904183],[-35.4195669,-9.3149137],[-35.4153991,-9.3209413],[-35.4339781,-9.325114],[-35.4409125,-9.3387812],[-35.4597309,-9.3440754],[-35.4724912,-9.3580331],[-35.5136676,-9.3077291],[-35.5880416,-9.2447688],[-35.5991384,-9.2167266],[-35.5899847,-9.1914832],[-35.597833,-9.187351],[-35.5969765,-9.1674874],[-35.6170891,-9.13516],[-35.5800649,-9.1578119],[-35.5549815,-9.191293],[-35.4757805,-9.1905936],[-35.4655872,-9.2244805]]]}},{"type":"Feature","properties":{"level":"municipio","municipality_code":"2706604","municipality_name":"Paulo Jacinto","uf":"AL","state_code":"27","area_km2":118.457},"geometry":{"type":"Polygon","coordinates":[[[-36.3725563,-9.3773221],[-36.3893631,-9.4253786],[-36.4607672,-9.4528714],[-36.4866743,-9.406146],[-36.42903,-9.3649659],[-36.4163068,-9.3654403],[-36.4272601,-9.363743],[-36.403466,-9.3426777],[-36.3848221,-9.3116301],[-36.3907498,-9.292879],[-36.3398921,-9.286712],[-36.3660905,-9.3614312],[-36.3621407,-9.3828755],[-36.3725563,-9.3773221]]]}},{"type":"Feature","properties":{"level":"municipio","municipality_code":"2706703","municipality_name":"Penedo","uf":"AL","state_code":"27","area_km2":688.713},"geometry":{"type":"Polygon","coordinates":[[[-36.6593489,-10.2474003],[-36.6137898,-10.1996797],[-36.5217978,-10.1763049],[-36.4934002,-10.0749785],[-36.4553911,-10.0326708],[-36.4498163,-10.0590742],[-36.4357015,-10.0736126],[-36.4186283,-10.0658724],[-36.4153734,-10.0832209],[-36.3996759,-10.0822577],[-36.3980298,-10.102931],[-36.3728632,-10.1081341],[-36.3620324,-10.1223473],[-36.3614674,-10.1552407],[-36.3367727,-10.1741604],[-36.356828,-10.2204224],[-36.3980535,-10.2453218],[-36.3954839,-10.2620804],[-36.3812679,-10.275649],[-36.3803825,-10.2990209],[-36.3926304,-10.3098514],[-36.3984612,-10.3028814],[-36.4169708,-10.3288826],[-36.4602507,-10.333016],[-36.4947189,-10.353075],[-36.4916365,-10.3646233],[-36.5077131,-10.3684489],[-36.5084381,-10.3787864],[-36.4881642,-10.3824236],[-36.5059125,-10.3930069],[-36.4868688,-10.4231697],[-36.5019299,-10.4311324],[-36.5350737,-10.4302845],[-36.5611279,-10.4176157],[-36.5567435,-10.3770811],[-36.5718256,-10.3161472],[-36.6004501,-10.2900603],[-36.6226392,-10.2552517],[-36.6465548,-10.2573483],[-36.6440987,-10.2454215],[-36.6593489,-10.2474003]]]}},{"type":"Feature","properties":{"level":"municipio","municipality_code":"2706802","municipality_name":"Piaçabuçu","uf":"AL","state_code":"27","area_km2":243.686},"geometry":{"type":"Polygon","coordinates":[[[-36.4053643,-10.4823697],[-36.4276286,-10.4335147],[-36.4515099,-10.4136702],[-36.4630962,-10.4084796],[-36.4868688,-10.4231697],[-36.5061859,-10.3955589],[-36.4881642,-10.3824236],[-36.5049688,-10.3808037],[-36.5084631,-10.3715938],[-36.4916365,-10.3646233],[-36.4961934,-10.3553073],[-36.4907745,-10.3494662],[-36.4602507,-10.333016],[-36.4169708,-10.3288826],[-36.3984612,-10.3028814],[-36.3150562,-10.3467515],[-36.3013825,-10.3445564],[-36.2933272,-10.3542261],[-36.3268849,-10.3920849],[-36.3877112,-10.4986307],[-36.4053643,-10.4823697]]]}},{"type":"Feature","properties":{"level":"municipio","municipality_code":"2706901","municipality_name":"Pilar","uf":"AL","state_code":"27","area_km2":259.646},"geometry":{"type":"Polygon","coordinates":[[[-36.0056822,-9.5857183],[-35.9596596,-9.5278803],[-35.9498574,-9.5333397],[-35.8872426,-9.5888386],[-35.8681144,-9.6253881],[-35.8882398,-9.6479063],[-35.9442186,-9.6392492],[-35.9573085,-9.6478341],[-35.9676545,-9.6407791],[-35.9785467,-9.6438012],[-35.98691,-9.6624939],[-35.980162,-9.6728562],[-36.0243221,-9.6464214],[-36.0197942,-9.6597919],[-36.0374837,-9.6813027],[-36.0336621,-9.7014191],[-36.038995,-9.6924723],[-36.0627005,-9.6887813],[-36.104749,-9.6384815],[-36.115909,-9.6501895],[-36.1312555,-9.6514054],[-36.1557747,-9.6249186],[-36.1769421,-9.6213214],[-36.1817539,-9.6127993],[-36.1573626,-9.6187089],[-36.1384127,-9.6130699],[-36.1214705,-9.5965314],[-36.0723545,-9.5986761],[-36.0170737,-9.576274],[-36.0056822,-9.5857183]]]}},{"type":"Feature","properties":{"level":"municipio","municipality_code":"2707008","municipality_name":"Pindoba","uf":"AL","state_code":"27","area_km2":117.576},"geometry":{"type":"Polygon","coordinates":[[[-36.310551,-9.4269967],[-36.207286,-9.4538444],[-36.2209528,-9.4842639],[-36.2555694,-9.5188083],[-36.3065557,-9.5224034],[-36.3291097,-9.5101573],[-36.3362428,-9.5133442],[-36.3537365,-9.4816885],[-36.3554239,-9.4693402],[-36.3394155,-9.4645751],[-36.3510753,-9.4483145],[-36.3255316,-9.4426319],[-36.3221311,-9.4316902],[-36.310551,-9.4269967]]]}},{"type":"Feature","properties":{"level":"municipio","municipality_code":"2707107","municipality_name":"Piranhas","uf":"AL","state_code":"27","area_km2":403.995},"geometry":{"type":"Polygon","coordinates":[[[-37.6773292,-9.6495414],[-37.7469947,-9.6249209],[-37.7857392,-9.6390995],[-37.8182483,-9.5928939],[-37.8331106,-9.5948864],[-37.8451073,-9.5706699],[-37.8350843,-9.5511421],[-37.7919645,-9.5397984],[-37.7879191,-9.5228401],[-37.7962914,-9.5044992],[-37.776895,-9.4882532],[-37.7658028,-9.4431889],[-37.7200194,-9.3882667],[-37.7252462,-9.3343907],[-37.654158,-9.4087979],[-37.6691315,-9.4619611],[-37.6596004,-9.4856144],[-37.673487,-9.4997497],[-37.6762766,-9.5231031],[-37.6369777,-9.6016772],[-37.6593161,-9.6553173],[-37.659616,-9.6782385],[-37.6773292,-9.6495414]]]}},{"type":"Feature","properties":{"level":"municipio","municipality_code":"2707305","municipality_name":"Porto Calvo","uf":"AL","state_code":"27","area_km2":313.681},"geometry":{"type":"Polygon","coordinates":[[[-35.3380149,-9.0629291],[-35.3258582,-9.120968],[-35.3011917,-9.1362094],[-35.3125041,-9.1469846],[-35.337032,-9.1388013],[-35.3319582,-9.1325303],[-35.3410931,-9.1241314],[-35.35289,-9.1260957],[-35.3470425,-9.1205514],[-35.3579185,-9.1097522],[-35.3485825,-9.1126508],[-35.3655404,-9.1031345],[-35.3600925,-9.0928973],[-35.3677732,-9.0960461],[-35.3660019,-9.0861675],[-35.4212345,-9.0773933],[-35.4387224,-9.0672381],[-35.4682908,-9.0768923],[-35.4827148,-9.0731218],[-35.5017816,-9.0852956],[-35.5602007,-9.0488046],[-35.5664269,-9.0118939],[-35.5405333,-9.0174167],[-35.4328153,-8.9377779],[-35.4218805,-8.9206895],[-35.3783795,-8.9685026],[-35.3644062,-8.9449749],[-35.3540154,-8.9636245],[-35.3572562,-8.9813409],[-35.3444648,-9.0030514],[-35.3032903,-9.0284987],[-35.3359086,-9.0318716],[-35.3380149,-9.0629291]]]}},{"type":"Feature","properties":{"level":"municipio","municipality_code":"2707503","municipality_name":"Porto Real do Colégio","uf":"AL","state_code":"27","area_km2":237.017},"geometry":{"type":"Polygon","coordinates":[[[-36.6691745,-10.0486857],[-36.6765276,-10.1232861],[-36.7446909,-10.1449006],[-36.7307863,-10.1611896],[-36.7204038,-10.2649115],[-36.7488807,-10.2281882],[-36.7914666,-10.2272161],[-36.8014388,-10.2131064],[-36.8263467,-10.2111873],[-36.8464658,-10.1875073],[-36.8503855,-10.1784477],[-36.8382403,-10.1658384],[-36.7714157,-10.1254704],[-36.7606682,-10.1047077],[-36.7356081,-10.0840546],[-36.7143825,-10.0538406],[-36.7069405,-10.0005926],[-36.686929,-9.9654666],[-36.6428875,-9.9922674],[-36.650748,-10.0031988],[-36.6423087,-10.0081294],[-36.6470297,-10.0169653],[-36.6521139,-10.0133192],[-36.6484391,-10.0260101],[-36.6691745,-10.0486857]]]}},{"type":"Feature","properties":{"level":"municipio","municipality_code":"2707404","municipality_name":"Porto de Pedras","uf":"AL","state_code":"27","area_km2":256.526},"geometry":{"type":"Polygon","coordinates":[[[-35.3028491,-9.1879764],[-35.3425182,-9.2311968],[-35.3593469,-9.2292492],[-35.377957,-9.2096964],[-35.427736,-9.1938706],[-35.4757805,-9.1905936],[-35.4832658,-9.175765],[-35.4569209,-9.1851254],[-35.4347691,-9.1774723],[-35.4547874,-9.1651218],[-35.4685469,-9.1668596],[-35.493788,-9.1387875],[-35.5210013,-9.1350756],[-35.5265457,-9.118309],[-35.5205435,-9.1017283],[-35.494439,-9.0769202],[-35.4682908,-9.0768923],[-35.4509583,-9.0678731],[-35.3660019,-9.0861675],[-35.3677732,-9.0960461],[-35.3600925,-9.0928973],[-35.3655404,-9.1031345],[-35.3485825,-9.1126508],[-35.3579185,-9.1097522],[-35.3470425,-9.1205514],[-35.35289,-9.1260957],[-35.3407427,-9.1243129],[-35.3319582,-9.1325303],[-35.337032,-9.1388013],[-35.3207645,-9.1478825],[-35.2900944,-9.1475231],[-35.3028491,-9.1879764]]]}},{"type":"Feature","properties":{"level":"municipio","municipality_code":"2707206","municipality_name":"Poço das Trincheiras","uf":"AL","state_code":"27","area_km2":284.526},"geometry":{"type":"Polygon","coordinates":[[[-37.2852856,-9.3468342],[-37.3646782,-9.3573244],[-37.3880935,-9.3516531],[-37.4036229,-9.3617543],[-37.4479243,-9.3577005],[-37.4841626,-9.3449908],[-37.5188867,-9.310248],[-37.5604288,-9.305145],[-37.5877469,-9.2958684],[-37.5882307,-9.286831],[-37.3991926,-9.3324988],[-37.4145343,-9.2894659],[-37.229226,-9.2268537],[-37.2343415,-9.2401754],[-37.1983152,-9.2154825],[-37.1589467,-9.2391017],[-37.1690203,-9.2652611],[-37.2031195,-9.2919426],[-37.213876,-9.3100659],[-37.2852856,-9.3468342]]]}},{"type":"Feature","properties":{"level":"municipio","municipality_code":"2706406","municipality_name":"Pão de Açúcar","uf":"AL","state_code":"27","area_km2":688.87},"geometry":{"type":"Polygon","coordinates":[[[-37.4099011,-9.7626496],[-37.5755148,-9.7376698],[-37.6540515,-9.6863334],[-37.6594737,-9.6559233],[-37.6369777,-9.6016772],[-37.6721864,-9.5356295],[-37.6628602,-9.523029],[-37.6427585,-9.5203117],[-37.6170555,-9.4965662],[-37.5817563,-9.5140746],[-37.5713612,-9.505292],[-37.5632639,-9.5191936],[-37.5694522,-9.5476568],[-37.5401919,-9.565147],[-37.5348959,-9.5799727],[-37.4793964,-9.6244043],[-37.468559,-9.6499202],[-37.3597714,-9.6338223],[-37.351148,-9.6452532],[-37.3030574,-9.6360277],[-37.3495208,-9.6888418],[-37.2404621,-9.7360187],[-37.3035849,-9.7895167],[-37.3101855,-9.8037047],[-37.2983711,-9.8173786],[-37.2985654,-9.8316392],[-37.3227763,-9.8197357],[-37.3491033,-9.7898084],[-37.3936189,-9.7792353],[-37.4099011,-9.7626496]]]}},{"type":"Feature","properties":{"level":"municipio","municipality_code":"2707602","municipality_name":"Quebrangulo","uf":"AL","state_code":"27","area_km2":319.829},"geometry":{"type":"Polygon","coordinates":[[[-36.3269223,-9.2850769],[-36.3907498,-9.292879],[-36.3848221,-9.3116301],[-36.403466,-9.3426777],[-36.4272601,-9.363743],[-36.4163068,-9.3654403],[-36.42903,-9.3649659],[-36.4854725,-9.4062935],[-36.5508353,-9.3438235],[-36.55019,-9.3540977],[-36.5836637,-9.3536107],[-36.5932192,-9.3608493],[-36.6248554,-9.3318319],[-36.613824,-9.3238053],[-36.605047,-9.3415082],[-36.5674691,-9.3321348],[-36.5718396,-9.2925828],[-36.4913377,-9.2624082],[-36.4871653,-9.2402014],[-36.4625173,-9.2392511],[-36.4370038,-9.2121002],[-36.423303,-9.2156531],[-36.4198032,-9.2295684],[-36.406925,-9.2206722],[-36.3917344,-9.225121],[-36.3758732,-9.2167002],[-36.365704,-9.2226273],[-36.3559327,-9.2183859],[-36.3405707,-9.2404287],[-36.3370119,-9.2724617],[-36.3250535,-9.2749733],[-36.3269223,-9.2850769]]]}},{"type":"Feature","properties":{"level":"municipio","municipality_code":"2707701","municipality_name":"Rio Largo","uf":"AL","state_code":"27","area_km2":293.832},"geometry":{"type":"Polygon","coordinates":[[[-35.7981909,-9.532442],[-35.8273002,-9.5503833],[-35.8463394,-9.5483789],[-35.8872426,-9.5888386],[-35.9588196,-9.5304356],[-35.9330095,-9.4808794],[-35.928894,-9.3755663],[-35.8774201,-9.416687],[-35.7695027,-9.3876102],[-35.7981909,-9.532442]]]}},{"type":"Feature","properties":{"level":"municipio","municipality_code":"2707800","municipality_name":"Roteiro","uf":"AL","state_code":"27","area_km2":128.869},"geometry":{"type":"Polygon","coordinates":[[[-35.9825251,-9.9103709],[-35.9992602,-9.9156082],[-36.0141858,-9.9076528],[-36.0212441,-9.9203313],[-36.0442404,-9.8489955],[-36.0359102,-9.8115744],[-36.0159067,-9.8079267],[-35.9518378,-9.844707],[-35.9210491,-9.8379203],[-35.908141,-9.8494215],[-35.9067177,-9.874244],[-35.9358959,-9.8997414],[-35.9628934,-9.941022],[-35.9825251,-9.9103709]]]}},{"type":"Feature","properties":{"level":"municipio","municipality_code":"2707909","municipality_name":"Santa Luzia do Norte","uf":"AL","state_code":"27","area_km2":28.857},"geometry":{"type":"Polygon","coordinates":[[[-35.8254957,-9.5784465],[-35.7935222,-9.6001361],[-35.8231889,-9.6382917],[-35.8405184,-9.641976],[-35.8654889,-9.631575],[-35.8254957,-9.5784465]]]}},{"type":"Feature","properties":{"level":"municipio","municipality_code":"2708006","municipality_name":"Santana do Ipanema","uf":"AL","state_code":"27","area_km2":436.087},"geometry":{"type":"Polygon","coordinates":[[[-37.2810020765745,-9.343014844625563],[-37.213876,-9.3100659],[-37.2031195,-9.2919426],[-37.1694866,-9.2653497],[-37.1643357,-9.2757055],[-37.1423939,-9.2680793],[-37.1164756,-9.2409306],[-37.0906725,-9.2463621],[-37.0571996,-9.2817884],[-37.0608119,-9.3078588],[-37.0912222,-9.3275009],[-37.1058629,-9.3728343],[-37.1359728,-9.4080557],[-37.1262671,-9.4372251],[-37.1980929,-9.4322638],[-37.2140086,-9.4453014],[-37.2671444,-9.449675],[-37.3337442,-9.4154414],[-37.3395948,-9.4195441],[-37.44576,-9.3569198],[-37.4036229,-9.3617543],[-37.3880935,-9.3516531],[-37.3646782,-9.3573244],[-37.2810020765745,-9.343014844625563]]]}},{"type":"Feature","properties":{"level":"municipio","municipality_code":"2708105","municipality_name":"Santana do Mundaú","uf":"AL","state_code":"27","area_km2":232.169},"geometry":{"type":"Polygon","coordinates":[[[-36.1169949,-9.0549869],[-36.133115,-9.1239995],[-36.1108333,-9.1570833],[-36.1835833,-9.2006944],[-36.2008278,-9.2187583],[-36.288554,-9.1834865],[-36.2857571,-9.1700785],[-36.2624446,-9.1712773],[-36.2572548,-9.1401488],[-36.2683909,-9.1039243],[-36.2364577,-9.1034898],[-36.2224678,-9.0864336],[-36.2219125,-9.0733028],[-36.202797,-9.0668449],[-36.1957276,-9.0447862],[-36.1517282,-9.0426944],[-36.1212109,-9.0278673],[-36.1437417,-9.0621],[-36.1169949,-9.0549869]]]}},{"type":"Feature","properties":{"level":"municipio","municipality_code":"2708907","municipality_name":"Satuba","uf":"AL","state_code":"27","area_km2":41.268},"geometry":{"type":"Polygon","coordinates":[[[-35.7967038,-9.5315255],[-35.8137437,-9.5794726],[-35.8254957,-9.5784465],[-35.8676422,-9.626294],[-35.8872426,-9.5888386],[-35.8696222,-9.571375],[-35.8463394,-9.5483789],[-35.8273002,-9.5503833],[-35.7967038,-9.5315255]]]}},{"type":"Feature","properties":{"level":"municipio","municipality_code":"2708956","municipality_name":"Senador Rui Palmeira","uf":"AL","state_code":"27","area_km2":338.569},"geometry":{"type":"Polygon","coordinates":[[[-37.44595515313776,-9.47538979586198],[-37.6543673,-9.4090364],[-37.6166276,-9.355769],[-37.5877469,-9.2958684],[-37.5188867,-9.310248],[-37.4841626,-9.3449908],[-37.4445691,-9.3576161],[-37.3395924,-9.4195455],[-37.4374889,-9.4483389],[-37.44595515313776,-9.47538979586198]]]}},{"type":"Feature","properties":{"level":"municipio","municipality_code":"2708204","municipality_name":"São Brás","uf":"AL","state_code":"27","area_km2":138.969},"geometry":{"type":"Polygon","coordinates":[[[-36.7700428,-10.1240991],[-36.8503855,-10.1784477],[-36.8699454,-10.1471254],[-36.9121838,-10.1382379],[-36.9474114,-10.074686],[-36.8747069,-10.0535931],[-36.8216638,-10.0745975],[-36.8133607,-10.0918303],[-36.7700428,-10.1240991]]]}},{"type":"Feature","properties":{"level":"municipio","municipality_code":"2708303","municipality_name":"São José da Laje","uf":"AL","state_code":"27","area_km2":256.603},"geometry":{"type":"Polygon","coordinates":[[[-36.0289409,-9.0370547],[-36.024531,-9.0548673],[-36.0469709,-9.065087],[-36.0622994,-9.0583592],[-36.0930866,-9.0732646],[-36.094001,-9.058263],[-36.1149092,-9.0541869],[-36.1435558,-9.062318],[-36.1043282,-8.9989293],[-36.1268105,-8.9812763],[-36.128249,-8.9577172],[-36.0864106,-8.9440674],[-36.063935,-8.9153373],[-36.026411,-8.9079691],[-36.0053839,-8.9130004],[-35.9883607,-8.9040247],[-35.9534754,-8.9466182],[-35.9615989,-8.9595022],[-35.9523683,-8.9884261],[-35.9614618,-8.9963985],[-35.9545487,-9.0310468],[-36.0177098,-9.0466157],[-36.0289409,-9.0370547]]]}},{"type":"Feature","properties":{"level":"municipio","municipality_code":"2708402","municipality_name":"São José da Tapera","uf":"AL","state_code":"27","area_km2":490.88},"geometry":{"type":"Polygon","coordinates":[[[-37.3135801,-9.5531499],[-37.3565719,-9.6376729],[-37.468559,-9.6499202],[-37.4793964,-9.6244043],[-37.5348959,-9.5799727],[-37.5401919,-9.565147],[-37.5694522,-9.5476568],[-37.5632639,-9.5191936],[-37.5713612,-9.505292],[-37.5817563,-9.5140746],[-37.6170555,-9.4965662],[-37.6427585,-9.5203117],[-37.6589724,-9.5197767],[-37.6725315,-9.5355051],[-37.673487,-9.4997497],[-37.6596004,-9.4856144],[-37.6690681,-9.4611635],[-37.6556572,-9.411154],[-37.4462538,-9.4763408],[-37.3731234,-9.5247687],[-37.3135801,-9.5531499]]]}},{"type":"Feature","properties":{"level":"municipio","municipality_code":"2708501","municipality_name":"São Luís do Quitunde","uf":"AL","state_code":"27","area_km2":397.257},"geometry":{"type":"Polygon","coordinates":[[[-35.5673608,-9.265023],[-35.5136676,-9.3077291],[-35.5202373,-9.3237096],[-35.5160196,-9.3538716],[-35.53605,-9.3469],[-35.5614017,-9.3582302],[-35.6864845,-9.3705663],[-35.6933197,-9.2602569],[-35.7248179,-9.1247434],[-35.675837,-9.1003081],[-35.6668258,-9.1087538],[-35.6530399,-9.106703],[-35.6499837,-9.1209384],[-35.6386034,-9.1179897],[-35.6180499,-9.1333701],[-35.5969765,-9.1674874],[-35.597833,-9.187351],[-35.5899847,-9.1914832],[-35.5971771,-9.2268362],[-35.5673608,-9.265023]]]}},{"type":"Feature","properties":{"level":"municipio","municipality_code":"2708600","municipality_name":"São Miguel dos Campos","uf":"AL","state_code":"27","area_km2":335.679},"geometry":{"type":"Polygon","coordinates":[[[-36.0738986,-9.7009364],[-36.0685832,-9.6891019],[-36.0794009,-9.6802828],[-36.0749667,-9.6735191],[-36.0625795,-9.6888865],[-36.038995,-9.6924723],[-36.033425,-9.701677],[-35.9874597,-9.7033641],[-35.9893001,-9.7386444],[-36.026417,-9.8104928],[-36.0396354,-9.8155042],[-36.0409793,-9.8583648],[-36.0659149,-9.8828578],[-36.1257625,-9.8376579],[-36.1282745,-9.828504],[-36.1449094,-9.8568442],[-36.1562615,-9.8596298],[-36.184862,-9.7955942],[-36.2471417,-9.7321248],[-36.0738986,-9.7009364]]]}},{"type":"Feature","properties":{"level":"municipio","municipality_code":"2708709","municipality_name":"São Miguel dos Milagres","uf":"AL","state_code":"27","area_km2":76.852},"geometry":{"type":"Polygon","coordinates":[[[-35.3593469,-9.2292492],[-35.3379381,-9.2326845],[-35.3553075,-9.256888],[-35.3762843,-9.279407],[-35.390844,-9.2843036],[-35.4241654,-9.2459268],[-35.4655872,-9.2244805],[-35.4757805,-9.1905936],[-35.427736,-9.1938706],[-35.377957,-9.2096964],[-35.3593469,-9.2292492]]]}},{"type":"Feature","properties":{"level":"municipio","municipality_code":"2708808","municipality_name":"São Sebastião","uf":"AL","state_code":"27","area_km2":312.746},"geometry":{"type":"Polygon","coordinates":[[[-36.510928,-10.0422097],[-36.6447584,-10.0344152],[-36.6521653,-10.0188449],[-36.6423127,-10.0084865],[-36.6507596,-10.0034094],[-36.6428845,-9.9923521],[-36.6472425,-9.9861956],[-36.6271843,-9.9783662],[-36.6384631,-9.9553429],[-36.6135268,-9.9510766],[-36.6146911,-9.9120936],[-36.603412,-9.9025071],[-36.6042242,-9.8726495],[-36.591307,-9.871587],[-36.5847208,-9.8813163],[-36.5632079,-9.8742843],[-36.5415401,-9.8818048],[-36.555444,-9.85093],[-36.553276,-9.8391387],[-36.5163096,-9.8589334],[-36.5040465,-9.855427],[-36.4952832,-9.8714234],[-36.4972519,-9.9016745],[-36.4866439,-9.9275161],[-36.4701981,-9.9388798],[-36.479557,-9.9617161],[-36.4718731,-9.974925],[-36.4737499,-9.9969803],[-36.4880775,-10.0223252],[-36.4553911,-10.0326708],[-36.4914575,-10.0717136],[-36.5067317,-10.0660486],[-36.510928,-10.0422097]]]}},{"type":"Feature","properties":{"level":"municipio","municipality_code":"2709004","municipality_name":"Tanque d'Arca","uf":"AL","state_code":"27","area_km2":124.616},"geometry":{"type":"Polygon","coordinates":[[[-36.4542527,-9.5873345],[-36.4883639,-9.5021992],[-36.4692246,-9.4855316],[-36.4509754,-9.5052716],[-36.3848202,-9.510957],[-36.3753164,-9.5281431],[-36.383383,-9.5415367],[-36.3790232,-9.5725592],[-36.3503975,-9.592274],[-36.3921049,-9.6029049],[-36.388607,-9.6287729],[-36.3808292,-9.6353672],[-36.3941648,-9.6483676],[-36.4080857,-9.6358438],[-36.4007966,-9.6193846],[-36.4173004,-9.6111137],[-36.4336471,-9.6162208],[-36.4542527,-9.5873345]]]}},{"type":"Feature","properties":{"level":"municipio","municipality_code":"2709103","municipality_name":"Taquarana","uf":"AL","state_code":"27","area_km2":153.833},"geometry":{"type":"Polygon","coordinates":[[[-36.4952483,-9.6038833],[-36.4689895,-9.6060424],[-36.4653334,-9.6183393],[-36.4458334,-9.6055509],[-36.4326045,-9.6165545],[-36.4113084,-9.6135547],[-36.3991878,-9.6225134],[-36.4080366,-9.6359749],[-36.388292,-9.6516296],[-36.5101874,-9.6922867],[-36.5264429,-9.6881095],[-36.5438316,-9.6276868],[-36.574619,-9.5611659],[-36.5657179,-9.559526],[-36.5556374,-9.5393277],[-36.5378786,-9.532892],[-36.4952483,-9.6038833]]]}},{"type":"Feature","properties":{"level":"municipio","municipality_code":"2709152","municipality_name":"Teotônio Vilela","uf":"AL","state_code":"27","area_km2":299.236},"geometry":{"type":"Polygon","coordinates":[[[-36.3954261,-9.8744303],[-36.2778826,-9.8922952],[-36.2879099,-9.985343],[-36.3046607,-10.0313797],[-36.4530026,-10.0403586],[-36.4568942,-10.0303249],[-36.4854507,-10.0264102],[-36.4879826,-10.0171149],[-36.4725786,-9.9865451],[-36.4789149,-9.9604957],[-36.4688583,-9.9710461],[-36.448432,-9.9604087],[-36.3954261,-9.8744303]]]}},{"type":"Feature","properties":{"level":"municipio","municipality_code":"2709202","municipality_name":"Traipu","uf":"AL","state_code":"27","area_km2":679.997},"geometry":{"type":"Polygon","coordinates":[[[-36.9769435,-9.693868],[-36.8845758,-9.7509571],[-36.9012919,-9.7790044],[-36.8991278,-9.7911397],[-36.9068164,-9.7909193],[-36.917246,-9.8167117],[-36.9351228,-9.8284673],[-36.9341272,-9.8420199],[-36.9495375,-9.8586374],[-36.9251718,-9.88942],[-36.8466155,-9.9313096],[-36.8140807,-9.9585018],[-36.7981914,-9.958063],[-36.8107497,-9.9835284],[-36.861592,-10.0275619],[-36.8718129,-10.0523406],[-36.9474114,-10.074686],[-36.9565986,-10.053734],[-36.9539332,-10.0185449],[-36.9667231,-9.9881302],[-36.9963712,-9.9723746],[-37.0330877,-9.9875786],[-37.0624048,-9.9825197],[-37.0859392,-9.9516958],[-37.1337799,-9.9137652],[-37.1254735,-9.8920654],[-37.1180078,-9.8900219],[-37.1183004,-9.8732775],[-37.1071001,-9.8653121],[-37.1054787,-9.8479375],[-37.0365751,-9.8070814],[-37.0318683,-9.7875321],[-36.9974658,-9.760975],[-36.9989426,-9.7270842],[-36.9839728,-9.7151343],[-36.9769435,-9.693868]]]}},{"type":"Feature","properties":{"level":"municipio","municipality_code":"2709301","municipality_name":"União dos Palmares","uf":"AL","state_code":"27","area_km2":420.082},"geometry":{"type":"Polygon","coordinates":[[[-36.0469709,-9.065087],[-36.0240381,-9.0542328],[-36.0289409,-9.0370547],[-36.0177098,-9.0466157],[-35.9545487,-9.0310468],[-35.945357,-9.0363711],[-35.9258451,-9.0320274],[-35.8898023,-9.0678184],[-35.8789989,-9.0545106],[-35.8605134,-9.0534903],[-35.888572,-9.1383084],[-36.058978,-9.2158127],[-36.0657638,-9.2065543],[-36.0879629,-9.2011173],[-36.1111212,-9.207937],[-36.1282245,-9.2013999],[-36.2008278,-9.2187583],[-36.1835833,-9.2006944],[-36.1108333,-9.1570833],[-36.133115,-9.1239995],[-36.1169949,-9.0549869],[-36.0913807,-9.0590379],[-36.0930866,-9.0732646],[-36.0711919,-9.0607302],[-36.0511252,-9.05863],[-36.0469709,-9.065087]]]}},{"type":"Feature","properties":{"level":"municipio","municipality_code":"2709400","municipality_name":"Viçosa","uf":"AL","state_code":"27","area_km2":365.153},"geometry":{"type":"Polygon","coordinates":[[[-36.15438416551727,-9.305359891215804],[-36.2111303,-9.453],[-36.3014823,-9.4255581],[-36.3219547,-9.4315087],[-36.3274389,-9.443632],[-36.3510753,-9.4483145],[-36.3394155,-9.4645751],[-36.3893631,-9.4253786],[-36.3741836,-9.3745411],[-36.3665888,-9.3840357],[-36.3621407,-9.3828755],[-36.3660905,-9.3614312],[-36.3398921,-9.286712],[-36.3265844,-9.2846318],[-36.3258892,-9.2959221],[-36.3009953,-9.302215],[-36.2993269,-9.3123923],[-36.2367751,-9.2913085],[-36.2008278,-9.2187583],[-36.15438416551727,-9.305359891215804]]]}},{"type":"Feature","properties":{"level":"municipio","municipality_code":"2700102","municipality_name":"Água Branca","uf":"AL","state_code":"27","area_km2":473.845},"geometry":{"type":"Polygon","coordinates":[[[-37.8676826,-9.4058538],[-38.0002374,-9.3361175],[-37.9832568,-9.3300866],[-37.9754891,-9.2984805],[-37.9824498,-9.2833852],[-37.9596248,-9.241053],[-37.9881971,-9.2334647],[-37.9714528,-9.2159722],[-37.9731039,-9.1955707],[-37.9871495,-9.1876982],[-37.9832472,-9.1779417],[-38.0020501,-9.170747],[-38.0121072,-9.1560431],[-37.9785629,-9.147662],[-37.9712002,-9.1243418],[-37.9467151,-9.0947717],[-37.7681321,-9.2910732],[-37.7770405,-9.3243157],[-37.8181982,-9.3350343],[-37.8497748,-9.3908344],[-37.8676826,-9.4058538]]]}}]}