{"type":"FeatureCollection","name":"AP_Municipios_2024","crs":{"type":"name","properties":{"name":"urn:ogc:def:crs:EPSG::4674"}},"features":[{"type":"Feature","properties":{"level":"municipio","municipality_code":"1600105","municipality_name":"Amapá","uf":"AP","state_code":"16","area_km2":8454.846},"geometry":{"type":"MultiPolygon","coordinates":[[[[-50.7746615,1.8377554],[-50.7696694,1.8252932],[-50.7830054,1.8109186],[-50.7794753,1.7902711],[-50.7908501,1.7962824],[-50.8087198,1.7816879],[-50.8144368,1.7840056],[-50.8042641,1.7999698],[-50.8078769,1.8078569],[-50.8307037,1.8103687],[-50.8564335,1.8311248],[-50.9016415,1.8230972],[-50.945086,1.8275318],[-50.967288,1.8389956],[-50.9910286,1.8383469],[-51.0355636,1.8687982],[-51.1145065,1.8450223],[-51.1677913,1.8918454],[-51.1963954,1.8825224],[-51.2105046,1.8888591],[-51.2358109,1.8731822],[-51.2730223,1.8966679],[-51.2964721,1.8821952],[-51.3025588,1.8710817],[-51.2977514,1.8644346],[-51.3722016,1.8500843],[-51.3660647,1.8249316],[-51.3824571,1.7944464],[-51.4471096,1.751134],[-51.4458617,1.7721587],[-51.5321742,1.8502881],[-51.562844,1.8551746],[-51.5939017,1.8847638],[-51.6470664,1.8763231],[-51.642866,1.9183292],[-51.660199,1.9490684],[-51.6447017,1.9686827],[-51.6444553,1.992259],[-51.5891241,2.0199476],[-51.6019271,2.0483567],[-51.5709224,2.1142179],[-51.5259492,2.0396039],[-51.5048995,2.0265048],[-51.4757348,2.0303444],[-51.4650358,2.0536028],[-51.4464853,2.0643334],[-51.4106164,2.0438105],[-51.3942575,2.0214061],[-51.374703,2.0183029],[-51.3437613,2.0303126],[-51.3064783,2.0666518],[-51.2925978,2.067541],[-51.244928,2.0965063],[-51.2247301,2.126338],[-51.1984476,2.1215896],[-51.1585681,2.1533151],[-51.1314433,2.1518123],[-51.1173518,2.1651146],[-51.0930677,2.1651146],[-51.0848244,2.1801422],[-51.0596491,2.1794743],[-51.0329142,2.1637232],[-51.0232228,2.1675636],[-50.9861282,2.1466918],[-50.9842345,2.1586583],[-50.9636821,2.1736859],[-50.9623453,2.164725],[-50.9485323,2.1717379],[-50.9380612,2.1591036],[-50.9234127,2.1692333],[-50.9146125,2.1512558],[-50.8793002,2.1607733],[-50.877852,2.1683984],[-50.8629808,2.1642798],[-50.8678822,2.1496973],[-50.8507273,2.156432],[-50.8606693,2.1418773],[-50.849864,2.1392057],[-50.8281419,2.1550127],[-50.8311496,2.1667009],[-50.8125466,2.1703743],[-50.8155542,2.1767192],[-50.8002931,2.1757174],[-50.7873713,2.1693724],[-50.7505422,2.1178873],[-50.740699,2.1227665],[-50.7335922,2.1469575],[-50.7091623,2.134973],[-50.683965,2.1436794],[-50.6818668,2.1334028],[-50.6430821,2.1134295],[-50.6037459,2.0730336],[-50.5826601,1.9896326],[-50.5579809,1.9558429],[-50.5256164,1.9299361],[-50.5073752,1.8845103],[-50.4749649,1.8385951],[-50.4448388,1.8150358],[-50.4004643,1.800265],[-50.3246141,1.815381],[-50.2896941,1.8078737],[-50.1657586,1.8130306],[-50.0322127,1.7597013],[-49.9238851,1.6934496],[-49.9002953,1.6023258],[-49.9029365,1.5799307],[-49.8765416,1.4504271],[-49.8836418,1.3399816],[-49.9042695,1.2955915],[-49.901625,1.2402934],[-49.9878761,1.2218304],[-50.130246,1.2051966],[-50.1466458,1.2306226],[-50.124304,1.280048],[-50.1233533,1.3102255],[-50.1319097,1.3289972],[-50.2141467,1.3349376],[-50.2778448,1.3180669],[-50.2968591,1.2990575],[-50.3058909,1.2726818],[-50.2799839,1.2196918],[-50.3099315,1.1745426],[-50.3643006,1.1673543],[-50.3930004,1.1917707],[-50.4229971,1.1873416],[-50.4162276,1.198033],[-50.4193917,1.2236988],[-50.4342533,1.2371956],[-50.5605847,1.4724751],[-50.557919,1.4820119],[-50.5366099,1.4902302],[-50.542919,1.5057677],[-50.5279733,1.5134809],[-50.5400868,1.5298765],[-50.538998,1.592215],[-50.5536137,1.6270639],[-50.5503627,1.647263],[-50.5673902,1.653006],[-50.5798892,1.6795712],[-50.5681115,1.7132956],[-50.5845342,1.7323075],[-50.6159458,1.7412157],[-50.613975,1.7625909],[-50.6328631,1.7942439],[-50.6406703,1.8295056],[-50.6927478,1.8301102],[-50.7201945,1.8143027],[-50.746894,1.8304074],[-50.7598091,1.8255344],[-50.7746615,1.8377554]]],[[[-50.447148,2.1091687],[-50.4054105,2.1112592],[-50.3834234,2.071204],[-50.3632313,2.0618552],[-50.3624547,2.0220263],[-50.3461028,1.9966003],[-50.3394995,1.998088],[-50.3267404,1.9828288],[-50.3169434,1.9553956],[-50.3293951,1.9290813],[-50.3669897,1.8894511],[-50.4255082,1.8670172],[-50.4524625,1.8841028],[-50.4718801,1.937508],[-50.4905843,1.9647474],[-50.4940788,1.9870802],[-50.5212302,2.0054291],[-50.5072857,2.0901617],[-50.4837812,2.1014094],[-50.4684307,2.1000039],[-50.4574149,2.1126951],[-50.447148,2.1091687]]],[[[-50.5232334,2.1820621],[-50.4657757,2.1844445],[-50.4524872,2.1679785],[-50.4409308,2.1665131],[-50.4219261,2.1423122],[-50.4226335,2.1184624],[-50.4583402,2.1152468],[-50.4712717,2.1022984],[-50.4861758,2.1043525],[-50.4953975,2.0962017],[-50.5093978,2.1013571],[-50.529473,2.1382537],[-50.5530992,2.1513497],[-50.5232334,2.1820621]]]]}},{"type":"Feature","properties":{"level":"municipio","municipality_code":"1600204","municipality_name":"Calçoene","uf":"AP","state_code":"16","area_km2":14117.297},"geometry":{"type":"Polygon","coordinates":[[[-50.8270103,2.5127706],[-50.7942244,2.4985492],[-50.7703726,2.4534216],[-50.7687378,2.408979],[-50.7466234,2.353005],[-50.7448815,2.3200337],[-50.7226278,2.2877466],[-50.7245089,2.2442907],[-50.6866313,2.1910505],[-50.683965,2.1436794],[-50.7091623,2.134973],[-50.7335922,2.1469575],[-50.740699,2.1227665],[-50.7505422,2.1178873],[-50.7873713,2.1693724],[-50.8002931,2.1757174],[-50.8155542,2.1767192],[-50.8125466,2.1703743],[-50.8311496,2.1667009],[-50.8281419,2.1550127],[-50.849864,2.1392057],[-50.8606693,2.1418773],[-50.8507273,2.156432],[-50.8678822,2.1496973],[-50.8629808,2.1642798],[-50.877852,2.1683984],[-50.8793002,2.1607733],[-50.9146125,2.1512558],[-50.9234127,2.1692333],[-50.9380612,2.1591036],[-50.9485323,2.1717379],[-50.9623453,2.164725],[-50.9636821,2.1736859],[-50.9842345,2.1586583],[-50.9861282,2.1466918],[-51.0232228,2.1675636],[-51.0329142,2.1637232],[-51.0596491,2.1794743],[-51.0848244,2.1801422],[-51.0930677,2.1651146],[-51.1173518,2.1651146],[-51.1314433,2.1518123],[-51.1585681,2.1533151],[-51.1984476,2.1215896],[-51.2247301,2.126338],[-51.244928,2.0965063],[-51.2925978,2.067541],[-51.3064783,2.0666518],[-51.3437613,2.0303126],[-51.374703,2.0183029],[-51.3942575,2.0214061],[-51.4106164,2.0438105],[-51.4464853,2.0643334],[-51.4650358,2.0536028],[-51.4757348,2.0303444],[-51.5048995,2.0265048],[-51.5259492,2.0396039],[-51.5736224,2.1126952],[-51.6019271,2.0483567],[-51.5891241,2.0199476],[-51.6444553,1.992259],[-51.6456229,1.9662172],[-51.6590337,1.9532604],[-51.642866,1.9183292],[-51.6470664,1.8763231],[-51.68434,1.8061578],[-51.6966543,1.7514298],[-51.7077876,1.7340232],[-51.7069944,1.6761762],[-51.7333638,1.5976386],[-51.7640337,1.5725847],[-51.7800088,1.5718228],[-51.7992139,1.5344659],[-51.8218661,1.5211747],[-51.8363657,1.4980928],[-51.8517407,1.4922403],[-51.8673893,1.4663138],[-51.8686698,1.4434927],[-51.8855002,1.4240595],[-51.8961697,1.4222545],[-51.8921207,1.4175504],[-51.8992885,1.410549],[-51.9133403,1.4089374],[-51.9119277,1.3999921],[-51.9236915,1.3868095],[-51.9536756,1.3969836],[-51.9581076,1.3844575],[-51.9668073,1.382543],[-51.973893,1.3279796],[-51.9906253,1.31674],[-52.012905,1.3234663],[-52.0072007,1.3684941],[-52.0221745,1.3762165],[-52.0335831,1.4094817],[-52.0425663,1.4141642],[-52.0331644,1.4227974],[-52.0443074,1.4493929],[-52.0239715,1.473621],[-52.0384574,1.4836463],[-52.0165892,1.5057159],[-52.0262697,1.5113551],[-52.0263394,1.5231903],[-52.035602,1.5228422],[-52.0318412,1.5617589],[-52.0397109,1.5755432],[-52.0193053,1.6356917],[-52.0220967,1.6507081],[-52.0301001,1.648292],[-52.0457003,1.675372],[-52.0396413,1.6883202],[-52.0499486,1.6926362],[-52.0533611,1.710666],[-52.0459789,1.7367009],[-52.0539182,1.7647542],[-52.0454914,1.7866118],[-52.0485557,1.8054064],[-52.0564951,1.807425],[-52.0489039,1.8196762],[-52.0551041,1.8294117],[-52.0505754,1.8613712],[-52.0556593,1.8712554],[-52.0601862,1.8678446],[-52.0491825,1.885455],[-52.0438199,1.8826708],[-52.0404668,1.8936379],[-52.0307269,1.8961047],[-52.0306573,1.9115571],[-52.013017,1.9327271],[-52.0209768,1.9748964],[-52.0105999,1.9869375],[-52.0170071,1.9925056],[-52.006073,2.0044771],[-51.9993176,2.0335004],[-52.0080231,2.0417132],[-52.0104606,2.0840987],[-52.0270358,2.1060914],[-52.0326769,2.1486143],[-52.0380478,2.1488168],[-52.0364377,2.1919712],[-52.0433115,2.2104828],[-52.0370531,2.2328164],[-52.066367,2.27108],[-52.0651218,2.2885821],[-52.0380415,2.341908],[-52.0419835,2.4217359],[-52.0192909,2.4271699],[-52.0106775,2.4398946],[-51.9937289,2.4277828],[-52.0030721,2.4207199],[-51.995543,2.4053179],[-51.9846214,2.4158319],[-51.9579009,2.408398],[-51.9501234,2.3783067],[-51.9342851,2.3698409],[-51.9272631,2.3759498],[-51.9151087,2.3558571],[-51.8960134,2.356939],[-51.8873716,2.3401081],[-51.8665096,2.3485073],[-51.851819,2.3659554],[-51.8632566,2.3937275],[-51.8468462,2.3954558],[-51.8214295,2.3720529],[-51.8062652,2.3756888],[-51.7971196,2.3881893],[-51.7820047,2.3781992],[-51.76998,2.3806729],[-51.7528967,2.4030757],[-51.7488705,2.4238269],[-51.7307925,2.4326803],[-51.7212853,2.4507009],[-51.6963596,2.469348],[-51.6837859,2.4974619],[-51.6853902,2.5238784],[-51.6435884,2.5441504],[-51.6392507,2.5680727],[-51.6564563,2.5832903],[-51.6552049,2.5908075],[-51.6315261,2.6306665],[-51.604648,2.6499749],[-51.6029471,2.6680144],[-51.5857567,2.6745577],[-51.5816672,2.6864151],[-51.5601703,2.7012366],[-51.5586503,2.7205405],[-51.5307115,2.7631599],[-51.5299877,2.777872],[-51.5197464,2.7803839],[-51.5245372,2.7888839],[-51.5175401,2.7976987],[-51.5271218,2.82345],[-51.4823744,2.838216],[-51.4763294,2.853108],[-51.4599007,2.8571396],[-51.4711051,2.862274],[-51.4659529,2.8705464],[-51.4538416,2.8684181],[-51.43633,2.883664],[-51.439805,2.9022225],[-51.4246247,2.9135109],[-51.4407561,2.9361239],[-51.4229054,2.9458412],[-51.4010311,2.9801431],[-51.390344,3.0123344],[-51.3968009,3.0105157],[-51.3995326,3.0211796],[-51.3880262,3.0274621],[-51.3684073,3.0189476],[-51.3786721,3.0310167],[-51.3592187,3.0521785],[-51.3249478,3.0631726],[-51.3221332,3.0787129],[-51.309054,3.0692069],[-51.2955608,3.0798289],[-51.2871172,3.0964435],[-51.2900973,3.1226462],[-51.2561407,3.1192541],[-51.2295295,3.1502772],[-51.2287214,3.1572306],[-51.2465949,3.1503009],[-51.2444795,3.1635907],[-51.251705,3.1707814],[-51.2454065,3.1791586],[-51.2542125,3.1893393],[-51.2398873,3.2021523],[-51.243112,3.2118111],[-51.2301332,3.1921465],[-51.2195951,3.203015],[-51.2247439,3.2149151],[-51.192491,3.2259306],[-51.1746354,3.2933816],[-51.1819542,3.3996888],[-51.1915802,3.4052644],[-51.1825484,3.5807016],[-51.1988218,3.6644125],[-51.1508373,3.9138192],[-51.1222803,3.9068641],[-51.0960082,3.9105371],[-51.0806825,3.8848086],[-51.0911695,3.7384705],[-51.0908043,3.6319395],[-51.0817748,3.5595385],[-51.0910111,3.4804817],[-51.1093087,3.4506267],[-51.0865365,3.350172],[-51.0328225,3.213689],[-51.0444104,3.1340039],[-51.0142975,3.0855578],[-51.021168,3.0513765],[-50.9988269,3.0110367],[-50.9837647,2.9370667],[-50.9505117,2.8821705],[-50.9542073,2.8372368],[-50.9449973,2.8177539],[-50.9084916,2.7888666],[-50.9053534,2.7569398],[-50.8846611,2.741416],[-50.8824485,2.6882411],[-50.8594582,2.6635908],[-50.8589863,2.6452428],[-50.847721,2.6403442],[-50.847337,2.5913998],[-50.8235595,2.5276314],[-50.8270103,2.5127706]]]}},{"type":"Feature","properties":{"level":"municipio","municipality_code":"1600212","municipality_name":"Cutias","uf":"AP","state_code":"16","area_km2":2179.114},"geometry":{"type":"Polygon","coordinates":[[[-50.7485588,0.8247113],[-50.7757471,0.8239889],[-50.7994269,0.8430243],[-50.8182483,0.8263477],[-50.8895343,0.7979349],[-50.916255,0.8035902],[-50.9494526,0.8254707],[-50.9512234,0.8589061],[-50.941107,0.876243],[-50.9428896,0.8883632],[-50.9110406,0.900721],[-50.9242318,0.9412401],[-50.8930386,0.9933561],[-50.883095,0.9885918],[-50.8713299,0.957698],[-50.8545735,0.9538956],[-50.8125043,0.9696991],[-50.8146434,1.0020187],[-50.7950348,1.0299416],[-50.75047,1.0419424],[-50.7207601,1.0401601],[-50.69414,1.0582207],[-50.6821372,1.0538244],[-50.6603895,1.0260205],[-50.6381665,1.0267334],[-50.6299666,1.0386155],[-50.6426824,1.0793705],[-50.6336506,1.0889948],[-50.6071494,1.095411],[-50.5848075,1.0746178],[-50.5556918,1.0922029],[-50.540005,1.0708156],[-50.5383412,1.0476458],[-50.5270515,1.0421801],[-50.473336,1.0806775],[-50.4609766,1.156958],[-50.4329305,1.1846418],[-50.3930004,1.1917707],[-50.3643006,1.1673543],[-50.3082677,1.1757308],[-50.2809346,1.2147017],[-50.3063663,1.2762461],[-50.28141,1.3156907],[-50.2141467,1.3349376],[-50.1319097,1.3289972],[-50.1233533,1.3102255],[-50.124304,1.280048],[-50.1437937,1.2432166],[-50.1449821,1.2204047],[-50.1347619,1.2066224],[-50.1202634,1.2040085],[-50.0672095,1.2167556],[-50.070621,1.1970684],[-50.0919451,1.1574042],[-50.1114101,1.1396653],[-50.1383355,1.1313329],[-50.1487898,1.1026373],[-50.1798925,1.0963614],[-50.1930597,1.0588919],[-50.1861695,1.0504527],[-50.3072798,0.9443472],[-50.3294909,0.9437923],[-50.3417469,0.9255964],[-50.3660113,0.9414405],[-50.3691063,0.9315379],[-50.3850763,0.9238635],[-50.3866856,0.9342611],[-50.4010462,0.935499],[-50.4196798,0.9610419],[-50.4373869,0.9484466],[-50.4421405,0.927296],[-50.4510534,0.9316925],[-50.4655519,0.9175524],[-50.4786836,0.926108],[-50.5016194,0.9261668],[-50.5038182,0.9104229],[-50.5348354,0.8728742],[-50.5583656,0.87026],[-50.5710339,0.8860876],[-50.5792814,0.8871332],[-50.5774988,0.8738248],[-50.5929836,0.8627502],[-50.5993811,0.8657882],[-50.5943106,0.8719394],[-50.6007201,0.8872877],[-50.6129487,0.8922784],[-50.6164426,0.8607539],[-50.6285335,0.8719415],[-50.6364034,0.8667352],[-50.6431921,0.8807778],[-50.6439048,0.8739468],[-50.6478367,0.8789296],[-50.6584788,0.8735239],[-50.6667714,0.8474987],[-50.7043823,0.821066],[-50.740377,0.8175712],[-50.7485588,0.8247113]]]}},{"type":"Feature","properties":{"level":"municipio","municipality_code":"1600238","municipality_name":"Ferreira Gomes","uf":"AP","state_code":"16","area_km2":4973.855},"geometry":{"type":"Polygon","coordinates":[[[-51.3386626,0.7360794],[-51.3536901,0.7801118],[-51.3709008,0.7713596],[-51.3687457,0.7473198],[-51.3945566,0.7359278],[-51.453864,0.7697881],[-51.4802464,0.8074567],[-51.4899913,0.8454814],[-51.4853327,0.8549525],[-51.5113261,0.8785709],[-51.5207809,0.8725699],[-51.5387038,0.8780365],[-51.5825079,0.850888],[-51.6008092,0.8475609],[-51.6069805,0.8323368],[-51.6165614,0.8350187],[-51.6267935,0.8717004],[-51.6044992,0.886922],[-51.5959725,0.9238112],[-51.637253,0.9537111],[-51.6626846,0.9592957],[-51.67647,1.0120527],[-51.688354,1.009201],[-51.6988356,0.9766439],[-51.7161625,0.9944672],[-51.7564491,0.9715345],[-51.7538346,0.987932],[-51.7777214,0.9971288],[-51.7969734,0.995893],[-51.8007763,0.975218],[-51.8121849,0.9735545],[-51.8158689,1.00326],[-51.8348833,1.0170432],[-51.8399934,1.0386685],[-51.8584135,1.0263112],[-51.863999,1.0386685],[-51.8847959,1.0400944],[-51.8847959,1.0554221],[-51.8924016,1.0443719],[-51.90179,1.0457977],[-51.9155754,1.0708686],[-51.9261521,1.0643336],[-51.9190217,1.0491247],[-51.9357781,1.0406885],[-51.9509896,1.0586303],[-51.984027,1.0539963],[-51.9771343,1.0701557],[-51.9835516,1.0778789],[-51.9789169,1.1295646],[-51.9932965,1.1368124],[-51.9946037,1.1459612],[-51.9795111,1.1574863],[-51.9937718,1.1608132],[-51.9881864,1.176972],[-52.0044674,1.1792295],[-52.0088645,1.1882593],[-52.0026848,1.2117844],[-51.9835516,1.2263984],[-51.9987631,1.2311509],[-51.9967428,1.2575271],[-52.0035167,1.2679824],[-51.9829574,1.2987541],[-51.981769,1.3120607],[-51.9906253,1.31674],[-51.3890449,1.3228085],[-51.405587,1.2841881],[-51.4000728,1.2757288],[-51.4296401,1.2653686],[-51.4342749,1.2533687],[-51.4531228,1.2433885],[-51.4439009,1.2357133],[-51.4349285,1.1892693],[-51.4452081,1.182081],[-51.4453864,1.1436443],[-51.4560225,1.1075834],[-51.4704615,1.1048506],[-51.4828269,1.0875157],[-51.4666621,1.0675739],[-51.4066983,1.0505643],[-51.4095498,0.9975508],[-51.3974898,0.978723],[-51.3826792,0.9730112],[-51.3869108,0.9592605],[-51.3805634,0.9507984],[-51.3540101,0.9484714],[-51.3563375,0.9662416],[-51.3463932,0.9794634],[-51.3124347,0.9827424],[-51.3077799,0.9919448],[-51.2951909,0.9755498],[-51.2459986,0.9762902],[-51.2396512,0.9528082],[-51.1815938,1.0353457],[-51.1511715,1.0314223],[-51.1274987,1.0093929],[-51.087849,1.0246359],[-51.0549066,1.0170313],[-51.0524348,1.0079059],[-51.034894,1.0048641],[-51.0369381,0.9905579],[-51.0184942,0.9868982],[-51.0263851,0.9765369],[-51.0006274,0.9317945],[-50.9879115,0.9542521],[-50.991239,0.9721944],[-50.9823261,0.9819378],[-50.9609349,0.9825319],[-50.9450104,0.9939388],[-50.8930386,0.9933561],[-50.9242318,0.9412401],[-50.9110406,0.900721],[-50.9428896,0.8883632],[-50.951668,0.8290315],[-50.916255,0.8035902],[-50.8868372,0.7980493],[-50.8865713,0.7732873],[-50.9000228,0.7866289],[-50.908022,0.7811485],[-50.9160952,0.7697432],[-50.9044412,0.7439932],[-50.9131759,0.7280937],[-50.9739544,0.6962076],[-50.9909043,0.668038],[-50.9956149,0.6449355],[-50.9880333,0.6047151],[-50.9968318,0.5964042],[-51.0004878,0.5731736],[-50.9875761,0.5476292],[-50.9251928,0.514634],[-50.9404505,0.4965436],[-50.97533,0.5030201],[-51.0018906,0.4964842],[-51.0143322,0.4572234],[-51.0331089,0.4546566],[-51.0291634,0.4284651],[-51.0482827,0.4233493],[-51.0447024,0.4371243],[-51.0756524,0.4549876],[-51.0831719,0.471015],[-51.1025673,0.4766938],[-51.1321087,0.5169917],[-51.1265226,0.5336315],[-51.1432239,0.5425607],[-51.1553397,0.5688148],[-51.2009691,0.595653],[-51.2506414,0.6111953],[-51.2798698,0.6331195],[-51.356943,0.6567144],[-51.3707572,0.6946458],[-51.3591754,0.7213281],[-51.3386626,0.7360794]]]}},{"type":"Feature","properties":{"level":"municipio","municipality_code":"1600253","municipality_name":"Itaubal","uf":"AP","state_code":"16","area_km2":1622.867},"geometry":{"type":"Polygon","coordinates":[[[-50.6448219,0.2087487],[-50.7170898,0.326268],[-50.7052628,0.3293599],[-50.7099008,0.3356211],[-50.7041806,0.3421142],[-50.6863658,0.3383029],[-50.6792126,0.3567237],[-50.6854739,0.3581151],[-50.6788261,0.370251],[-50.6840825,0.3804544],[-50.7143264,0.3836237],[-50.6831549,0.406504],[-50.6826911,0.4140793],[-50.6915034,0.4108327],[-50.6846236,0.4161663],[-50.6894163,0.4213453],[-50.6931267,0.4153933],[-50.7075045,0.418949],[-50.6970185,0.4372577],[-50.7104002,0.4373202],[-50.7088369,0.449701],[-50.718154,0.4444485],[-50.7172779,0.4575878],[-50.7291097,0.4584269],[-50.7311221,0.4744857],[-50.7456206,0.4725249],[-50.7565801,0.5002919],[-50.7508853,0.508302],[-50.7610738,0.5084089],[-50.7685574,0.5436891],[-50.7796087,0.5450736],[-50.8010768,0.5220645],[-50.8214648,0.5510125],[-50.8474495,0.5567239],[-50.8450016,0.5664519],[-50.8666555,0.5781256],[-50.887095,0.5750459],[-50.8949027,0.5631744],[-50.9067242,0.5679098],[-50.920294,0.637611],[-50.9452028,0.6715969],[-50.9240968,0.6736408],[-50.9106917,0.6861894],[-50.8909871,0.6747211],[-50.8501926,0.7554292],[-50.8274467,0.7517217],[-50.8089315,0.7215033],[-50.7771419,0.6953012],[-50.7664463,0.6755752],[-50.7721506,0.6707031],[-50.752245,0.6585823],[-50.7470161,0.6430747],[-50.7279487,0.6371542],[-50.7243122,0.6451397],[-50.7124401,0.6419312],[-50.6998116,0.6073337],[-50.672673,0.6297362],[-50.6536111,0.5924762],[-50.6444129,0.599927],[-50.6493685,0.6075205],[-50.6417338,0.622535],[-50.62514,0.6330313],[-50.6268205,0.6797888],[-50.6251448,0.689735],[-50.6162675,0.6923374],[-50.6222927,0.7069536],[-50.6143793,0.7520985],[-50.5810804,0.7430081],[-50.580704,0.734153],[-50.5680318,0.7447192],[-50.5698857,0.7703507],[-50.5483163,0.7679622],[-50.5364799,0.758337],[-50.5324512,0.7640765],[-50.5311321,0.7548969],[-50.5198305,0.7629536],[-50.5162653,0.7558951],[-50.4986889,0.7555386],[-50.504928,0.7449034],[-50.4846064,0.7380588],[-50.4846777,0.7310003],[-50.4566553,0.7299308],[-50.4530901,0.7077571],[-50.4372607,0.6905029],[-50.4471775,0.667265],[-50.4098614,0.6233435],[-50.4365469,0.600107],[-50.4494838,0.5767817],[-50.4762092,0.4814998],[-50.5039997,0.4350876],[-50.5238924,0.3723908],[-50.556148,0.3067173],[-50.5963071,0.2503658],[-50.6448219,0.2087487]]]}},{"type":"Feature","properties":{"level":"municipio","municipality_code":"1600279","municipality_name":"Laranjal do Jari","uf":"AP","state_code":"16","area_km2":30542.284},"geometry":{"type":"Polygon","coordinates":[[[-51.943651,-0.7704191],[-51.9462179,-0.7988904],[-51.9400382,-0.7948027],[-51.9391826,-0.810488],[-51.9579593,-0.8423813],[-51.9495454,-0.8575911],[-51.9406087,-0.8585892],[-51.9375686,-0.8722023],[-51.9627032,-0.8632309],[-51.9763104,-0.8672116],[-52.0003754,-0.8867584],[-52.0237868,-0.8893726],[-52.0320461,-0.9013145],[-52.0497941,-0.9041896],[-52.0626161,-0.9226632],[-52.0834567,-0.9088998],[-52.1389061,-0.9127819],[-52.1640928,-0.887038],[-52.1909743,-0.8349921],[-52.2187586,-0.8300784],[-52.2353486,-0.8132702],[-52.2825215,-0.7982322],[-52.3704954,-0.7976091],[-52.3837077,-0.8103301],[-52.3971224,-0.8066462],[-52.5110746,-0.8566591],[-52.5412518,-0.8562468],[-52.5418462,-0.8365449],[-52.5169699,-0.8090464],[-52.5216321,-0.7852102],[-52.4971522,-0.7229462],[-52.5158491,-0.6635707],[-52.511987,-0.6266086],[-52.5231792,-0.5890749],[-52.5399845,-0.5731115],[-52.5858329,-0.5785902],[-52.61299,-0.5948934],[-52.640009,-0.5849061],[-52.6677643,-0.5441367],[-52.6672913,-0.525112],[-52.6954363,-0.4964017],[-52.6910184,-0.47716],[-52.7026822,-0.4592322],[-52.6791518,-0.4236748],[-52.6985708,-0.3871672],[-52.6818497,-0.3399645],[-52.688819,-0.3041364],[-52.7402138,-0.2766075],[-52.7544268,-0.2621886],[-52.7604398,-0.2375744],[-52.8360989,-0.1861492],[-52.8515431,-0.1501608],[-52.8768214,-0.1427567],[-52.9040129,-0.1549377],[-52.9327437,-0.1423073],[-52.9710222,-0.0431101],[-52.9772926,0.0237963],[-53.0149667,0.0596921],[-53.0111292,0.0950459],[-53.029266,0.1047191],[-53.0521271,0.1573389],[-53.0942925,0.195307],[-53.1064079,0.231743],[-53.0948812,0.2622122],[-53.1119333,0.2865299],[-53.13435,0.3001789],[-53.1387952,0.3304632],[-53.1750478,0.3771071],[-53.1599343,0.4029679],[-53.1677453,0.4457283],[-53.1551284,0.4801797],[-53.1697689,0.4937348],[-53.159633,0.5138093],[-53.1627141,0.5224871],[-53.1483827,0.5416584],[-53.1548478,0.5633555],[-53.150245,0.5910228],[-53.1204904,0.6339789],[-53.106298,0.683982],[-53.1241293,0.6973549],[-53.1438742,0.6962608],[-53.1574069,0.7290729],[-53.1846077,0.7475027],[-53.1902726,0.7683835],[-53.20699,0.7733485],[-53.2144094,0.7857295],[-53.2748272,0.824931],[-53.3022955,0.8589965],[-53.4114942,0.9293442],[-53.4108033,0.9820425],[-53.4285447,0.9992947],[-53.4299356,1.0198122],[-53.4223294,1.0337374],[-53.4558237,1.0773718],[-53.4595451,1.1275347],[-53.4443579,1.1513192],[-53.4121286,1.1476411],[-53.3998789,1.158409],[-53.3960801,1.1792925],[-53.4174372,1.202776],[-53.4265208,1.242721],[-53.438769,1.232134],[-53.4737382,1.2393324],[-53.5252098,1.2117165],[-53.5389929,1.2124261],[-53.5463212,1.2285074],[-53.5233275,1.2613389],[-53.530519,1.2736239],[-53.5566906,1.2848053],[-53.5626334,1.3065819],[-53.5333853,1.3224288],[-53.5385477,1.3408611],[-53.5594646,1.3503307],[-53.5706899,1.337302],[-53.5952181,1.3581541],[-53.6509666,1.3362233],[-53.6630774,1.3494954],[-53.6435234,1.3638863],[-53.6404371,1.3923574],[-53.6468327,1.4076247],[-53.657769,1.4039972],[-53.6705504,1.3719895],[-53.6804706,1.3725208],[-53.6874958,1.3857977],[-53.7014598,1.3779189],[-53.7114611,1.3839631],[-53.7134356,1.3964326],[-53.6958034,1.4181421],[-53.7171883,1.4317626],[-53.724054,1.4282292],[-53.7154132,1.405376],[-53.7313543,1.3957781],[-53.7323267,1.3862888],[-53.7551049,1.3945743],[-53.7624718,1.4083928],[-53.7680524,1.3959159],[-53.7746111,1.3969023],[-53.8039934,1.4235249],[-53.8227739,1.4138325],[-53.8074907,1.4020131],[-53.8070503,1.3918028],[-53.8503395,1.3918412],[-53.8443046,1.4063071],[-53.8856299,1.4024623],[-53.876742,1.4354522],[-53.8932471,1.4433807],[-53.8959981,1.4551258],[-53.9175286,1.4569028],[-53.9224993,1.4422604],[-53.9383041,1.4354628],[-53.9287635,1.4691791],[-53.9540837,1.4679697],[-53.9559059,1.4798929],[-53.9670765,1.4843951],[-53.9761347,1.4722767],[-53.9861632,1.4790387],[-53.9974678,1.4757713],[-54.0034705,1.4894055],[-53.9995265,1.5047707],[-54.0090493,1.5196647],[-54.027579,1.5168384],[-54.0245774,1.4998571],[-54.0399979,1.5061594],[-54.0559392,1.4934889],[-54.06916,1.5009694],[-54.0794391,1.4949008],[-54.0779651,1.4856899],[-54.0864661,1.4882968],[-54.0845904,1.5263318],[-54.0987782,1.5505238],[-54.1145243,1.551223],[-54.1175262,1.5581747],[-54.102,1.5906304],[-54.118551,1.5814801],[-54.1283569,1.5913127],[-54.1230827,1.6074007],[-54.1334971,1.6171409],[-54.1298049,1.6239212],[-54.1423598,1.6285091],[-54.1436637,1.640612],[-54.168917,1.6440041],[-54.1822179,1.6580748],[-54.1911038,1.6249093],[-54.2029418,1.6490084],[-54.2283585,1.6653166],[-54.2301392,1.6759715],[-54.2444456,1.676129],[-54.2493355,1.6837991],[-54.2636586,1.6801626],[-54.2668006,1.7080669],[-54.2923593,1.708746],[-54.2816416,1.7238476],[-54.3097806,1.7293986],[-54.3093044,1.7410503],[-54.3446622,1.7406282],[-54.3516918,1.7540727],[-54.3777221,1.7636871],[-54.3874417,1.7451551],[-54.4039456,1.7597567],[-54.4246608,1.7604403],[-54.5085548,1.748274],[-54.5369971,1.7702529],[-54.5710878,1.7775911],[-54.5709102,1.784455],[-54.581054,1.7776613],[-54.6019171,1.7845734],[-54.6258846,1.7806443],[-54.6436397,1.7686],[-54.6711959,1.7656566],[-54.7004969,1.7757097],[-54.7447791,1.7758008],[-54.7544217,1.797808],[-54.7469203,1.805768],[-54.7506717,1.8142477],[-54.7340256,1.8319768],[-54.7531955,1.850985],[-54.7530882,1.87572],[-54.7635315,1.8924889],[-54.7715874,1.940499],[-54.7544413,1.9705986],[-54.772144,1.9784125],[-54.7690252,1.9962038],[-54.7909708,2.0072571],[-54.8038049,2.0258228],[-54.812832,2.0628137],[-54.8061682,2.0763685],[-54.8138304,2.1008142],[-54.8046921,2.1078777],[-54.8062543,2.1389277],[-54.7814813,2.1671549],[-54.7832226,2.174192],[-54.7678915,2.1809114],[-54.7631109,2.2023191],[-54.8114203,2.266378],[-54.7961664,2.3179651],[-54.809639,2.3452799],[-54.8746964,2.4153254],[-54.8709865,2.4359575],[-54.855412,2.4277758],[-54.8388571,2.4340167],[-54.8389696,2.4236698],[-54.8165103,2.421789],[-54.8141975,2.4316775],[-54.7945848,2.4314431],[-54.7975377,2.4464608],[-54.7819523,2.4424157],[-54.7742325,2.4483803],[-54.7723266,2.4582783],[-54.7804643,2.4608838],[-54.7782871,2.4730548],[-54.7701095,2.4756712],[-54.7609337,2.4635274],[-54.7401519,2.4719844],[-54.730903,2.4633597],[-54.6964822,2.4623497],[-54.6918382,2.4474343],[-54.6844444,2.4471667],[-54.7032989,2.4325224],[-54.6858056,2.4116389],[-54.7191402,2.4038632],[-54.7099397,2.3940943],[-54.7176306,2.3827578],[-54.7077574,2.3643946],[-54.6916111,2.3617778],[-54.6931297,2.3515706],[-54.6637146,2.3565113],[-54.6682736,2.3407389],[-54.660816,2.3384765],[-54.6623314,2.3278765],[-54.6429791,2.3221982],[-54.6153489,2.3221063],[-54.6132419,2.3389973],[-54.6012619,2.3376453],[-54.5875893,2.3222727],[-54.5573731,2.3300514],[-54.5368689,2.3254137],[-54.5255596,2.2905006],[-54.5136557,2.2798544],[-54.5489625,2.269875],[-54.5231427,2.2519532],[-54.4993376,2.2518857],[-54.4971551,2.2343066],[-54.4765928,2.2270757],[-54.4769306,2.2123919],[-54.4487326,2.2036392],[-54.4233216,2.214365],[-54.4105043,2.1981704],[-54.3771176,2.2263932],[-54.3640178,2.2267471],[-54.3539849,2.2028547],[-54.3623654,2.1941887],[-54.3612699,2.1751127],[-54.3389752,2.1690537],[-54.3350303,2.1536741],[-54.319405,2.1591442],[-54.2673281,2.1434189],[-54.2545437,2.1554507],[-54.2077858,2.1606866],[-54.1873838,2.1794207],[-54.1817658,2.1522362],[-54.1671765,2.1527089],[-54.1664507,2.1397288],[-54.1515342,2.1298293],[-54.1561797,2.1225043],[-54.1436293,2.11658],[-54.1243175,2.1235715],[-54.1064074,2.111041],[-54.0932769,2.1391737],[-54.083659,2.1359216],[-54.0822721,2.1732793],[-54.0650735,2.1965841],[-54.0166947,2.1819183],[-53.9879233,2.2113171],[-53.9750641,2.2065452],[-53.962492,2.2192791],[-53.9441767,2.2150563],[-53.943493,2.2301363],[-53.9334032,2.2367509],[-53.9420806,2.246677],[-53.9376719,2.2828797],[-53.9221595,2.2887621],[-53.9089947,2.2827237],[-53.9108568,2.2720755],[-53.8862267,2.2727179],[-53.8831284,2.3087477],[-53.8656728,2.3043788],[-53.8495132,2.3129785],[-53.8460977,2.3254212],[-53.8098152,2.3401556],[-53.8105854,2.3525785],[-53.7829387,2.3608614],[-53.7685301,2.3751852],[-53.7507329,2.369197],[-53.7376161,2.3737434],[-53.7385761,2.3653629],[-53.7524635,2.3595803],[-53.7209267,2.35073],[-53.7451701,2.3190248],[-53.7468121,2.3097224],[-53.7348956,2.3017193],[-53.721415,2.312654],[-53.7045815,2.3053929],[-53.6968329,2.310702],[-53.6969289,2.2932238],[-53.6688798,2.303823],[-53.6600281,2.2958858],[-53.6691635,2.2872194],[-53.6592012,2.2794598],[-53.6445515,2.275444],[-53.6331837,2.2818594],[-53.6191084,2.2726585],[-53.6117842,2.2816778],[-53.5991796,2.280866],[-53.5868539,2.2633975],[-53.5730664,2.2707977],[-53.5544701,2.2572353],[-53.5434209,2.2677319],[-53.5157924,2.2571603],[-53.4846318,2.2619786],[-53.4614919,2.2528807],[-53.4460239,2.2670878],[-53.447468,2.281744],[-53.4315173,2.2825801],[-53.432512,2.2982483],[-53.421994,2.2862104],[-53.4091745,2.287455],[-53.4002869,2.3046882],[-53.3715289,2.3126995],[-53.3700318,2.3219091],[-53.3569803,2.3288491],[-53.3588181,2.3471399],[-53.3399304,2.3520526],[-53.3341841,2.336202],[-53.3180472,2.3420704],[-53.3015945,2.3062344],[-53.2601469,2.2933791],[-53.2613763,2.273092],[-53.2305647,2.2693268],[-53.2264077,2.2545307],[-53.2441109,2.240825],[-53.2579814,2.2423792],[-53.2588394,2.2235908],[-53.2729415,2.2165049],[-53.27721,2.1800522],[-53.2344484,2.1434014],[-53.1391741,2.1009381],[-53.1330392,2.0189701],[-53.1162322,2.0070231],[-53.1104586,1.9805579],[-53.0909448,1.9751841],[-53.0734735,1.9448922],[-53.0589177,1.9465615],[-53.0523493,1.9137358],[-53.027108,1.874704],[-53.0243196,1.8490801],[-52.9949943,1.8197677],[-53.0123519,1.7837629],[-53.0045271,1.7623556],[-52.9887985,1.7535815],[-52.9713494,1.7103494],[-52.9889738,1.6676759],[-52.9942957,1.626729],[-52.9769872,1.5740259],[-52.9521259,1.5542537],[-52.896389,1.5561809],[-52.8722426,1.540314],[-52.8633737,1.5202128],[-52.8693599,1.4414792],[-52.890387,1.3889142],[-52.9148703,1.3577016],[-52.930422,1.3051451],[-52.9284713,1.2707048],[-52.9534492,1.2655204],[-52.9649031,1.2395902],[-52.9724895,1.2061188],[-52.9614041,1.128982],[-52.9372514,1.1200522],[-52.8928032,1.0859121],[-52.8914902,1.051553],[-52.8740974,1.0242572],[-52.8777362,0.9955557],[-52.8666787,0.9667561],[-52.8463206,0.9513094],[-52.8241443,0.9567884],[-52.8241856,0.9302417],[-52.8377072,0.9047049],[-52.8233119,0.8756227],[-52.7890302,0.8859645],[-52.7720981,0.8761107],[-52.7481861,0.8556626],[-52.7573797,0.8298899],[-52.7539357,0.8069406],[-52.7260084,0.7833532],[-52.6784248,0.7597919],[-52.674942,0.7274095],[-52.6928493,0.6400548],[-52.6806801,0.5812087],[-52.6620461,0.5423263],[-52.6337147,0.5242634],[-52.6333819,0.4971215],[-52.6118007,0.495648],[-52.6044912,0.470324],[-52.5925121,0.460722],[-52.5947463,0.4453209],[-52.5822444,0.4397594],[-52.5703604,0.4096225],[-52.5733076,0.3837161],[-52.5593321,0.3810066],[-52.5632776,0.3688852],[-52.5365624,0.3497286],[-52.5338518,0.335058],[-52.5082299,0.309294],[-52.4948724,0.2735475],[-52.485793,0.2690317],[-52.503001,0.2309083],[-52.487124,0.2127497],[-52.5033338,0.2138906],[-52.4909269,0.1829925],[-52.5009094,0.1672582],[-52.5002441,0.1397485],[-52.5126016,0.1328952],[-52.5034279,0.1095832],[-52.5129033,0.091037],[-52.5049648,0.0769664],[-52.5188629,0.050283],[-52.5052705,0.0410448],[-52.5179863,0.0335579],[-52.5066966,0.0265464],[-52.5070531,0.0141871],[-52.5163226,0.0064149],[-52.5080038,0.0020654],[-52.5057459,-0.0150475],[-52.52785,-0.0202764],[-52.522542,-0.0374447],[-52.5305833,-0.0407168],[-52.5334355,-0.0867078],[-52.5445114,-0.0965952],[-52.558273,-0.0957158],[-52.544238,-0.1121632],[-52.5588078,-0.1159423],[-52.5547672,-0.1426811],[-52.5380702,-0.1410174],[-52.5318165,-0.1486248],[-52.4989398,-0.1145329],[-52.4722951,-0.1069032],[-52.4131448,-0.1159802],[-52.3524874,-0.1427603],[-52.3381078,-0.1706875],[-52.3358498,-0.1976639],[-52.2867087,-0.252003],[-52.1976325,-0.2567874],[-52.1291062,-0.2885679],[-52.1008699,-0.3284618],[-52.0840422,-0.3320982],[-52.0858873,-0.441362],[-52.0609441,-0.4785822],[-52.0853951,-0.5130405],[-52.0749322,-0.5202967],[-52.0819162,-0.5275791],[-52.0726821,-0.5292967],[-52.0754385,-0.5485903],[-52.0886577,-0.5619776],[-52.0654819,-0.5637776],[-52.0555651,-0.5762318],[-52.0484375,-0.6045019],[-52.0592941,-0.6133893],[-52.0523751,-0.6181704],[-52.0563347,-0.6405673],[-52.0289166,-0.6647945],[-52.0180218,-0.6878233],[-52.011152,-0.6817711],[-51.9849695,-0.6892887],[-51.9723471,-0.741488],[-51.9501634,-0.754496],[-51.9466457,-0.7491725],[-51.9351896,-0.767995],[-51.943651,-0.7704191]]]}},{"type":"Feature","properties":{"level":"municipio","municipality_code":"1600303","municipality_name":"Macapá","uf":"AP","state_code":"16","area_km2":6563.849},"geometry":{"type":"Polygon","coordinates":[[[-50.7170898,0.326268],[-50.6448219,0.2087487],[-50.6681975,0.1850345],[-50.7619561,0.120978],[-50.9210933,0.0761336],[-50.9462399,0.0627093],[-50.9792534,0.0374034],[-50.9969123,0.0034511],[-51.0173382,-0.0107236],[-51.0656742,-0.0762263],[-51.118394,-0.0975378],[-51.1450745,-0.0350178],[-51.1234644,-0.015225],[-51.1040045,-0.0125246],[-51.1052498,0.0],[-51.2036111,0.0],[-51.2027966,0.0073909],[-51.2165901,0.0148771],[-51.2334818,0.0142109],[-51.2294623,0.0331889],[-51.2487601,0.0327206],[-51.2361518,0.056984],[-51.219474,0.063548],[-51.220716,0.0769149],[-51.2066611,0.0820531],[-51.2089565,0.0911459],[-51.2010439,0.0874589],[-51.1933145,0.0992863],[-51.2001957,0.1067732],[-51.1919541,0.1060477],[-51.1881585,0.1546588],[-51.2273416,0.1745873],[-51.2532011,0.1743972],[-51.2705992,0.1638918],[-51.2713241,0.1768809],[-51.2915982,0.1960615],[-51.2907425,0.2048081],[-51.3388488,0.2400081],[-51.3453522,0.2681068],[-51.3641826,0.2983452],[-51.3827572,0.3083988],[-51.3980538,0.3488912],[-51.4154407,0.3673121],[-51.4461489,0.3712575],[-51.4639273,0.4269207],[-51.4908801,0.4332903],[-51.4752884,0.4468851],[-51.4816582,0.4644728],[-51.4931304,0.467909],[-51.4855404,0.4790097],[-51.4733033,0.4764798],[-51.4608598,0.5058063],[-51.4440274,0.5099368],[-51.4255428,0.5035345],[-51.411447,0.4842761],[-51.380777,0.4892844],[-51.3337393,0.4668248],[-51.3116404,0.4749309],[-51.2758587,0.4534523],[-51.2608527,0.4572323],[-51.2453442,0.4157347],[-51.2173931,0.3982301],[-51.2087836,0.3826916],[-51.2123488,0.3430118],[-51.2063949,0.3170577],[-51.1900307,0.3171646],[-51.1764117,0.3067901],[-51.1608318,0.3175568],[-51.1358221,0.3103263],[-51.1282164,0.318122],[-51.1365732,0.3368223],[-51.1167507,0.3754397],[-51.1164584,0.3965202],[-51.0932847,0.4281783],[-51.0622319,0.4424386],[-51.0524989,0.4214402],[-51.0291634,0.4284651],[-51.0331089,0.4546566],[-51.0143322,0.4572234],[-51.0018906,0.4964842],[-50.97533,0.5030201],[-50.9404505,0.4965436],[-50.9263497,0.5116261],[-50.9266274,0.517642],[-50.9516178,0.5240282],[-50.9790146,0.5483233],[-50.9875761,0.5476292],[-50.9980643,0.5668656],[-50.9872985,0.6188017],[-50.9955761,0.645978],[-50.9739544,0.6962076],[-50.9131759,0.7280937],[-50.9044412,0.7439932],[-50.9155768,0.771891],[-50.9000228,0.7866289],[-50.8865713,0.7732873],[-50.8868372,0.7980493],[-50.8182483,0.8263477],[-50.7954204,0.8435833],[-50.7757471,0.8239889],[-50.7043823,0.821066],[-50.6667714,0.8474987],[-50.6584788,0.8735239],[-50.6480723,0.8788511],[-50.6443155,0.8738078],[-50.6400212,0.8800832],[-50.6364034,0.8667352],[-50.6285335,0.8719415],[-50.6156107,0.8611698],[-50.6129487,0.8922784],[-50.6007201,0.8872877],[-50.5943106,0.8719394],[-50.5993811,0.8657882],[-50.5929836,0.8627502],[-50.5774988,0.8738248],[-50.5792814,0.8871332],[-50.5583656,0.87026],[-50.5348354,0.8728742],[-50.5038182,0.9104229],[-50.5016194,0.9261668],[-50.4786836,0.926108],[-50.4655519,0.9175524],[-50.4510534,0.9316925],[-50.4421405,0.927296],[-50.4373869,0.9484466],[-50.4196798,0.9610419],[-50.4010462,0.935499],[-50.3866856,0.9342611],[-50.3879236,0.9243586],[-50.3749248,0.9272056],[-50.3642782,0.941688],[-50.3406327,0.9259678],[-50.3294909,0.9437923],[-50.3072798,0.9443472],[-50.1861695,1.0504527],[-50.1930597,1.0588919],[-50.1798925,1.0963614],[-50.1487898,1.1026373],[-50.1383355,1.1313329],[-50.1114101,1.1396653],[-50.0919451,1.1574042],[-50.0672095,1.2167556],[-50.0221019,1.2166027],[-49.901625,1.2402934],[-49.8975781,1.1915839],[-49.883083,1.169077],[-49.8897824,1.013597],[-49.9274107,0.9846554],[-49.9567455,0.9495338],[-49.989014,0.9395151],[-50.0024735,0.9064127],[-49.9897817,0.8918922],[-49.9876153,0.8760135],[-50.0202612,0.85877],[-50.097362,0.7670499],[-50.153397,0.7497434],[-50.1661412,0.754426],[-50.2203937,0.7431222],[-50.2312447,0.7301393],[-50.2260218,0.6962486],[-50.3396759,0.6701611],[-50.4098614,0.6233435],[-50.4471775,0.667265],[-50.4372607,0.6905029],[-50.4530901,0.7077571],[-50.4566553,0.7299308],[-50.4846777,0.7310003],[-50.4846064,0.7380588],[-50.504928,0.7449034],[-50.4982611,0.7553247],[-50.5162653,0.7558951],[-50.5186896,0.7628466],[-50.5311321,0.7548969],[-50.5324512,0.7640765],[-50.5364799,0.758337],[-50.5483163,0.7679622],[-50.5698857,0.7703507],[-50.5680318,0.7447192],[-50.5796294,0.7345194],[-50.5810804,0.7430081],[-50.6016159,0.751849],[-50.6174097,0.7474642],[-50.6222927,0.7063832],[-50.6155188,0.6995742],[-50.6168023,0.6906975],[-50.6259292,0.6880951],[-50.62514,0.6330313],[-50.6417338,0.622535],[-50.6493685,0.6075205],[-50.6444129,0.599927],[-50.6544311,0.5924049],[-50.672673,0.6297362],[-50.6998116,0.6073337],[-50.7124401,0.6419312],[-50.7243122,0.6451397],[-50.7279487,0.6371542],[-50.7470161,0.6430747],[-50.752245,0.6585823],[-50.7721506,0.6707031],[-50.7664463,0.6755752],[-50.7771419,0.6953012],[-50.8089315,0.7215033],[-50.8274467,0.7517217],[-50.8501926,0.7554292],[-50.8909871,0.6747211],[-50.9106917,0.6861894],[-50.9240968,0.6736408],[-50.9452028,0.6715969],[-50.920294,0.637611],[-50.9067242,0.5679098],[-50.8949027,0.5631744],[-50.887095,0.5750459],[-50.8666555,0.5781256],[-50.8450016,0.5664519],[-50.8474495,0.5567239],[-50.8214648,0.5510125],[-50.8010768,0.5220645],[-50.7796087,0.5450736],[-50.7685574,0.5436891],[-50.7610738,0.5084089],[-50.7508853,0.508302],[-50.7565801,0.5002919],[-50.7456206,0.4725249],[-50.7311221,0.4744857],[-50.7291097,0.4584269],[-50.7172779,0.4575878],[-50.718154,0.4444485],[-50.7088369,0.449701],[-50.7104002,0.4373202],[-50.6970185,0.4372577],[-50.7075045,0.418949],[-50.6931267,0.4153933],[-50.6894163,0.4213453],[-50.6846236,0.4161663],[-50.6915034,0.4108327],[-50.6826911,0.4140793],[-50.6831549,0.406504],[-50.7143264,0.3836237],[-50.6840825,0.3804544],[-50.6788261,0.370251],[-50.6854739,0.3581151],[-50.6792126,0.3567237],[-50.6863658,0.3383029],[-50.7041806,0.3421142],[-50.7099008,0.3356211],[-50.7052628,0.3293599],[-50.7170898,0.326268]]]}},{"type":"Feature","properties":{"level":"municipio","municipality_code":"1600402","municipality_name":"Mazagão","uf":"AP","state_code":"16","area_km2":13294.778},"geometry":{"type":"Polygon","coordinates":[[[-51.9462179,-0.7988904],[-51.943651,-0.7704191],[-51.9351896,-0.767995],[-51.9466457,-0.7491725],[-51.9501634,-0.754496],[-51.9723471,-0.741488],[-51.9849695,-0.6892887],[-52.011152,-0.6817711],[-52.0180218,-0.6878233],[-52.0289166,-0.6647945],[-52.0563347,-0.6405673],[-52.0523751,-0.6181704],[-52.0592941,-0.6133893],[-52.0484375,-0.6045019],[-52.0555651,-0.5762318],[-52.0654819,-0.5637776],[-52.0886577,-0.5619776],[-52.0754385,-0.5485903],[-52.0726821,-0.5292967],[-52.0819162,-0.5275791],[-52.0749322,-0.5202967],[-52.0853951,-0.5130405],[-52.0609441,-0.4785822],[-52.0858873,-0.441362],[-52.0840422,-0.3320982],[-52.1008699,-0.3284618],[-52.1291062,-0.2885679],[-52.1976325,-0.2567874],[-52.2867087,-0.252003],[-52.3358498,-0.1976639],[-52.3381078,-0.1706875],[-52.3524874,-0.1427603],[-52.4131448,-0.1159802],[-52.4722951,-0.1069032],[-52.4989398,-0.1145329],[-52.5318165,-0.1486248],[-52.5380702,-0.1410174],[-52.5547672,-0.1426811],[-52.5588078,-0.1159423],[-52.544238,-0.1121632],[-52.558273,-0.0957158],[-52.5445114,-0.0965952],[-52.5334355,-0.0867078],[-52.5305833,-0.0407168],[-52.522542,-0.0374447],[-52.52785,-0.0202764],[-52.5057459,-0.0150475],[-52.5080038,0.0020654],[-52.5163226,0.0064149],[-52.5070531,0.0141871],[-52.5066966,0.0265464],[-52.5179863,0.0335579],[-52.5052705,0.0410448],[-52.5188629,0.050283],[-52.5049648,0.0769664],[-52.5129033,0.091037],[-52.5034279,0.1095832],[-52.5126016,0.1328952],[-52.5002441,0.1397485],[-52.5009094,0.1672582],[-52.4909269,0.1829925],[-52.5033338,0.2138906],[-52.487124,0.2127497],[-52.503001,0.2309083],[-52.485793,0.2690317],[-52.4948724,0.2735475],[-52.5082299,0.309294],[-52.5338518,0.335058],[-52.5365624,0.3497286],[-52.5632776,0.3688852],[-52.5593321,0.3810066],[-52.5733076,0.3837161],[-52.5718816,0.4155643],[-52.5822444,0.4397594],[-52.5945562,0.4448931],[-52.5923695,0.4602942],[-52.6044912,0.470324],[-52.6112302,0.494935],[-52.6327164,0.4962659],[-52.6384683,0.5085772],[-52.6337147,0.5242634],[-52.6620461,0.5423263],[-52.6750709,0.5688025],[-52.6928493,0.6400548],[-52.674942,0.7274095],[-52.6769987,0.7559894],[-52.7439531,0.7964837],[-52.7544705,0.8077724],[-52.752985,0.8238141],[-52.7427682,0.8145309],[-52.7220588,0.8264672],[-52.6753963,0.8263298],[-52.6631771,0.8339212],[-52.6616861,0.7919576],[-52.6321873,0.774514],[-52.6187485,0.759534],[-52.6148644,0.7404597],[-52.5791561,0.740009],[-52.5688662,0.7249481],[-52.546547,0.7209168],[-52.5330346,0.6973813],[-52.5038679,0.6762803],[-52.4981315,0.6622728],[-52.5071223,0.6507461],[-52.5035026,0.6421627],[-52.4816176,0.6318519],[-52.4609973,0.5740684],[-52.4383714,0.5698168],[-52.4147878,0.5489446],[-52.416879,0.5106715],[-52.3958479,0.4987368],[-52.3937616,0.4850722],[-52.3841053,0.4846296],[-52.3868096,0.4679503],[-52.376795,0.4514436],[-52.3490188,0.432269],[-52.3371627,0.4394712],[-52.3475279,0.4092051],[-52.3349042,0.3830573],[-52.3240921,0.3861269],[-52.315537,0.378276],[-52.2968425,0.3968055],[-52.2807949,0.368001],[-52.2355533,0.3655343],[-52.238359,0.3912918],[-52.201927,0.4421767],[-52.2003736,0.4577102],[-52.1644835,0.4687522],[-52.1039299,0.5085863],[-52.0557999,0.4892162],[-52.0321864,0.4697034],[-52.0107002,0.4791033],[-51.9547268,0.4588537],[-51.9520885,0.4466638],[-51.9080525,0.4486338],[-51.8994366,0.44085],[-51.8871664,0.4484355],[-51.8557928,0.4322938],[-51.8542182,0.439632],[-51.8390067,0.4362748],[-51.8340773,0.4453366],[-51.8094453,0.4522583],[-51.8094156,0.4466136],[-51.7912926,0.4475643],[-51.7802405,0.4224304],[-51.7601685,0.4063399],[-51.7332394,0.4004456],[-51.7166019,0.4095961],[-51.6890905,0.3830955],[-51.6932261,0.3693104],[-51.6807123,0.3492269],[-51.6906116,0.3349069],[-51.69836,0.33562],[-51.6894232,0.330403],[-51.6938441,0.3196957],[-51.67275,0.2950368],[-51.6465816,0.2849475],[-51.6287675,0.2667652],[-51.6245962,0.2721011],[-51.6088737,0.2452956],[-51.5907626,0.2429426],[-51.5741132,0.2288959],[-51.5767514,0.2165248],[-51.5693243,0.2171939],[-51.5670901,0.2004376],[-51.5759793,0.1938421],[-51.5703463,0.1664259],[-51.5769062,0.1557304],[-51.5716844,0.1415334],[-51.5679457,0.1497884],[-51.5630258,0.1419688],[-51.5663533,0.1330558],[-51.5560855,0.1161093],[-51.56198,0.1117123],[-51.5342666,0.0827868],[-51.5303449,0.0501059],[-51.4902959,0.0375089],[-51.4889887,0.0274075],[-51.4495619,0.012732],[-51.4343224,-0.0343891],[-51.4051117,-0.0506701],[-51.3989652,-0.0658856],[-51.3634145,-0.0690971],[-51.3288952,-0.082498],[-51.3167555,-0.0746178],[-51.2875774,-0.0790903],[-51.2698451,-0.091778],[-51.239594,-0.0835499],[-51.2154606,-0.0904632],[-51.2080541,-0.1170073],[-51.2350362,-0.1436392],[-51.3024816,-0.2526427],[-51.3230321,-0.2637693],[-51.3390097,-0.284577],[-51.3544518,-0.3185241],[-51.3625053,-0.3681079],[-51.4207255,-0.4289932],[-51.4324792,-0.4733425],[-51.4514848,-0.5040504],[-51.5955362,-0.6504378],[-51.6835071,-0.7955224],[-51.7135817,-0.8035215],[-51.7414496,-0.8246134],[-51.7185136,-0.8302577],[-51.7397859,-0.8411303],[-51.7285297,-0.8408321],[-51.7266877,-0.8585373],[-51.7345906,-0.8518236],[-51.7434441,-0.8562202],[-51.738334,-0.8659639],[-51.7591309,-0.8610921],[-51.7714308,-0.868281],[-51.7825423,-0.8526554],[-51.7929408,-0.8682216],[-51.8088059,-0.8611515],[-51.8077958,-0.8736282],[-51.8233638,-0.8589532],[-51.8253246,-0.8788565],[-51.8143319,-0.8859861],[-51.8233043,-0.9093352],[-51.8360202,-0.9066616],[-51.8362579,-0.9199106],[-51.8782082,-0.8796289],[-51.8842691,-0.8899667],[-51.8939545,-0.8776683],[-51.9032834,-0.8840849],[-51.9026298,-0.8716082],[-51.9148109,-0.8825401],[-51.9161775,-0.8681622],[-51.9259224,-0.8806983],[-51.9435084,-0.8656237],[-51.9406087,-0.8585892],[-51.9495454,-0.8575911],[-51.9579593,-0.8414782],[-51.9393252,-0.8110109],[-51.9400382,-0.7948027],[-51.9462179,-0.7988904]]]}},{"type":"Feature","properties":{"level":"municipio","municipality_code":"1600501","municipality_name":"Oiapoque","uf":"AP","state_code":"16","area_km2":23058.224},"geometry":{"type":"Polygon","coordinates":[[[-51.676992,4.31499],[-51.6700208,4.4254296],[-51.6353282,4.4548636],[-51.64092,4.4843927],[-51.6284212,4.5043414],[-51.4858816,4.4371787],[-51.3318401,4.3057986],[-51.2713269,4.2340014],[-51.2039784,4.1251095],[-51.1756508,4.0108615],[-51.1792978,3.9194963],[-51.1508373,3.9138192],[-51.1988218,3.6644125],[-51.1825484,3.5807016],[-51.1915802,3.4052644],[-51.1819542,3.3996888],[-51.1746354,3.2933816],[-51.192491,3.2259306],[-51.2247439,3.2149151],[-51.2195951,3.203015],[-51.2301332,3.1921465],[-51.243112,3.2118111],[-51.2398873,3.2021523],[-51.2542125,3.1893393],[-51.2454065,3.1791586],[-51.251705,3.1707814],[-51.2444795,3.1635907],[-51.2465949,3.1503009],[-51.2287214,3.1572306],[-51.2295295,3.1502772],[-51.2561407,3.1192541],[-51.2900973,3.1226462],[-51.2871172,3.0964435],[-51.2955608,3.0798289],[-51.309054,3.0692069],[-51.3221332,3.0787129],[-51.3249478,3.0631726],[-51.3592187,3.0521785],[-51.3786721,3.0310167],[-51.3684073,3.0189476],[-51.3880262,3.0274621],[-51.3995326,3.0211796],[-51.3968009,3.0105157],[-51.390344,3.0123344],[-51.4010311,2.9801431],[-51.4229054,2.9458412],[-51.4407561,2.9361239],[-51.4246247,2.9135109],[-51.439805,2.9022225],[-51.43633,2.883664],[-51.4538416,2.8684181],[-51.4659529,2.8705464],[-51.4711051,2.862274],[-51.4599007,2.8571396],[-51.4763294,2.853108],[-51.4823744,2.838216],[-51.5271218,2.82345],[-51.5175401,2.7976987],[-51.5245372,2.7888839],[-51.5197464,2.7803839],[-51.5299877,2.777872],[-51.5307115,2.7631599],[-51.5586503,2.7205405],[-51.5601703,2.7012366],[-51.5816672,2.6864151],[-51.5857567,2.6745577],[-51.6029471,2.6680144],[-51.604648,2.6499749],[-51.6315261,2.6306665],[-51.6552049,2.5908075],[-51.6564563,2.5832903],[-51.6392507,2.5680727],[-51.6435884,2.5441504],[-51.6853902,2.5238784],[-51.6837859,2.4974619],[-51.6963596,2.469348],[-51.7212853,2.4507009],[-51.7307925,2.4326803],[-51.7488705,2.4238269],[-51.7528967,2.4030757],[-51.7722304,2.3789686],[-51.7971196,2.3881893],[-51.8062652,2.3756888],[-51.8214295,2.3720529],[-51.8468462,2.3954558],[-51.8632566,2.3937275],[-51.851819,2.3659554],[-51.8665096,2.3485073],[-51.8873716,2.3401081],[-51.8960134,2.356939],[-51.9151087,2.3558571],[-51.9272631,2.3759498],[-51.9342851,2.3698409],[-51.9501234,2.3783067],[-51.9579009,2.408398],[-51.9846214,2.4158319],[-51.995543,2.4053179],[-52.0030721,2.4207199],[-51.9949848,2.4303153],[-52.0106775,2.4398946],[-52.0215643,2.4342881],[-52.0429024,2.4392001],[-52.0599009,2.391382],[-52.0917925,2.4097128],[-52.0954857,2.3989612],[-52.110119,2.4019038],[-52.1182376,2.3956124],[-52.1117609,2.3847571],[-52.1243706,2.3748671],[-52.1185947,2.3569346],[-52.1294319,2.3348387],[-52.151712,2.3199904],[-52.1549017,2.299836],[-52.1777077,2.3011942],[-52.1844555,2.2908532],[-52.1801201,2.2782374],[-52.1898733,2.2791726],[-52.1937353,2.2612692],[-52.2313189,2.2640185],[-52.2487947,2.241549],[-52.2463786,2.203091],[-52.2315104,2.2016089],[-52.2205441,2.1852963],[-52.2422631,2.1931067],[-52.2524055,2.1687657],[-52.2750973,2.1574355],[-52.3346809,2.1555768],[-52.3472929,2.1399779],[-52.3554347,2.1415687],[-52.3649881,2.119141],[-52.4123441,2.0912087],[-52.4094023,2.0302184],[-52.4394294,2.0450377],[-52.4648494,2.0352183],[-52.4969876,2.0414966],[-52.534548,2.0150668],[-52.5524044,2.0095861],[-52.5581555,2.0216986],[-52.5919323,2.0146114],[-52.5937386,2.0035017],[-52.6101556,2.0097631],[-52.6452941,2.050833],[-52.6567961,2.0446125],[-52.668103,2.0567389],[-52.6826585,2.0538678],[-52.6810188,2.0692247],[-52.7153253,2.0626809],[-52.7289625,2.0728183],[-52.7550169,2.0673428],[-52.7602144,2.0777355],[-52.7966509,2.0713723],[-52.8102959,2.0838593],[-52.829354,2.0834306],[-52.8387913,2.0690793],[-52.8286556,2.0662671],[-52.8372068,2.0363823],[-52.859129,2.0399316],[-52.8679378,2.0247666],[-52.889489,2.031752],[-52.9037735,2.0164167],[-52.9087144,2.008653],[-52.9004852,1.9625688],[-52.921242,1.9416212],[-52.9290205,1.9501338],[-52.9466866,1.9451348],[-52.9944627,1.9520199],[-53.0086039,1.9783513],[-53.0255007,1.9809384],[-53.0479403,1.9719707],[-53.0589177,1.9465615],[-53.0734735,1.9448922],[-53.0909448,1.9751841],[-53.1119786,1.9822732],[-53.1162322,2.0070231],[-53.1330392,2.0189701],[-53.1391741,2.1009381],[-53.2469508,2.1510126],[-53.27721,2.1800522],[-53.2782407,2.1921412],[-53.2621433,2.1893929],[-53.2475392,2.2111887],[-53.2225672,2.2006063],[-53.2087667,2.2109566],[-53.1021041,2.2259503],[-53.0740292,2.2194119],[-53.0529442,2.1902663],[-52.9978903,2.1784411],[-52.9876745,2.1680849],[-52.9440598,2.1771177],[-52.934757,2.1946987],[-52.9047464,2.1882282],[-52.8856662,2.2199899],[-52.8877078,2.2384688],[-52.8744583,2.2410432],[-52.8715027,2.2604632],[-52.8538652,2.2641121],[-52.8586043,2.2815226],[-52.8386181,2.2812792],[-52.8421493,2.2916964],[-52.8017634,2.3000513],[-52.77905,2.3181372],[-52.7732977,2.3150082],[-52.7171316,2.3432012],[-52.7103401,2.3588169],[-52.6608607,2.3739169],[-52.6575865,2.4031445],[-52.6441092,2.4194057],[-52.6463079,2.4329972],[-52.6358287,2.4451895],[-52.6307605,2.4412491],[-52.6104438,2.4524992],[-52.6220231,2.4631354],[-52.6186252,2.4745568],[-52.595297,2.4760987],[-52.5877394,2.4941949],[-52.5519355,2.5199771],[-52.5493641,2.5311721],[-52.5612733,2.5502911],[-52.549315,2.5621756],[-52.53688,2.5586636],[-52.527596,2.5830971],[-52.5319437,2.5991621],[-52.550054,2.6111761],[-52.5422874,2.6228831],[-52.5552871,2.6402241],[-52.5432696,2.6542228],[-52.5292498,2.6519374],[-52.5200262,2.683681],[-52.4792157,2.7525109],[-52.4732975,2.7943687],[-52.421761,2.8913896],[-52.4054913,2.900907],[-52.3909973,2.8976621],[-52.3771892,2.9165503],[-52.3952102,2.927683],[-52.3934919,2.9460998],[-52.381595,2.9533823],[-52.3623971,3.0162408],[-52.3261042,3.0766213],[-52.3454639,3.0977258],[-52.3382004,3.1198942],[-52.3528862,3.1269871],[-52.3480567,3.1364087],[-52.3315065,3.1372006],[-52.3408292,3.1450791],[-52.3312866,3.1708712],[-52.3013258,3.1730521],[-52.3027255,3.1999565],[-52.2925133,3.2264208],[-52.2604514,3.2530006],[-52.2483995,3.2496654],[-52.2444331,3.2381833],[-52.2347242,3.2399753],[-52.1896885,3.2985963],[-52.1868568,3.3190317],[-52.1741562,3.3303383],[-52.108426,3.4513862],[-52.0947612,3.4633962],[-52.0879107,3.4876829],[-52.072904,3.5004731],[-52.0734055,3.515533],[-52.0593152,3.5206582],[-52.0198241,3.5929035],[-51.9881613,3.6281758],[-51.9934844,3.6435948],[-51.973907,3.7062779],[-51.957324,3.7131262],[-51.9564133,3.7210832],[-51.9221595,3.7238904],[-51.9162413,3.7446179],[-51.9267609,3.768691],[-51.919695,3.7814212],[-51.8968084,3.7847117],[-51.9028223,3.8007701],[-51.8864369,3.7941405],[-51.8740469,3.8027885],[-51.8557129,3.8329362],[-51.7986377,3.8881364],[-51.782176,3.9213359],[-51.7791077,3.9714556],[-51.7449435,4.0028736],[-51.6739949,4.0357594],[-51.6576833,4.0519743],[-51.6362547,4.1222868],[-51.6294622,4.1954097],[-51.6696394,4.2822962],[-51.676992,4.31499]]]}},{"type":"Feature","properties":{"level":"municipio","municipality_code":"1600154","municipality_name":"Pedra Branca do Amapari","uf":"AP","state_code":"16","area_km2":9622.29},"geometry":{"type":"Polygon","coordinates":[[[-52.6187485,0.759534],[-52.6616861,0.7919576],[-52.6631771,0.8339212],[-52.6753963,0.8263298],[-52.7220588,0.8264672],[-52.7427682,0.8145309],[-52.7573797,0.8298899],[-52.7481861,0.8556626],[-52.7720981,0.8761107],[-52.7890302,0.8859645],[-52.8233119,0.8756227],[-52.8377072,0.9047049],[-52.8241856,0.9302417],[-52.8241443,0.9567884],[-52.8463206,0.9513094],[-52.8666787,0.9667561],[-52.8777362,0.9955557],[-52.8740974,1.0242572],[-52.8914902,1.051553],[-52.8928032,1.0859121],[-52.9372514,1.1200522],[-52.9600464,1.1267318],[-52.9639183,1.1357835],[-52.9724895,1.2061188],[-52.9649031,1.2395902],[-52.9534492,1.2655204],[-52.9284713,1.2707048],[-52.930422,1.3051451],[-52.9148703,1.3577016],[-52.890387,1.3889142],[-52.8693599,1.4414792],[-52.8633737,1.5202128],[-52.8722426,1.540314],[-52.896389,1.5561809],[-52.9521259,1.5542537],[-52.9769872,1.5740259],[-52.9942957,1.626729],[-52.9889738,1.6676759],[-52.9713494,1.7103494],[-52.9887985,1.7535815],[-53.0045271,1.7623556],[-53.0123519,1.7837629],[-52.9949943,1.8197677],[-53.0243196,1.8490801],[-53.027108,1.874704],[-53.0523493,1.9137358],[-53.0596042,1.943653],[-53.0479403,1.9719707],[-53.0255007,1.9809384],[-53.0086039,1.9783513],[-52.9944627,1.9520199],[-52.9466866,1.9451348],[-52.9290205,1.9501338],[-52.921242,1.9416212],[-52.9004852,1.9625688],[-52.9087144,2.008653],[-52.8872415,2.0322034],[-52.858406,2.0185825],[-52.8119068,1.9804818],[-52.7956599,1.9770261],[-52.7809925,1.9509367],[-52.7843452,1.9180341],[-52.7561129,1.8668679],[-52.7409343,1.8602983],[-52.7369902,1.8694183],[-52.6960929,1.8385871],[-52.6858821,1.8479423],[-52.6803045,1.8357817],[-52.6613583,1.8253783],[-52.6627042,1.8077888],[-52.6563294,1.8112343],[-52.6470977,1.7909504],[-52.6356289,1.7959212],[-52.611303,1.7745295],[-52.5885431,1.7375528],[-52.572358,1.7449546],[-52.5690834,1.7337324],[-52.5550492,1.7256664],[-52.5586747,1.706495],[-52.5496694,1.7047415],[-52.5572713,1.6895444],[-52.5479151,1.6896613],[-52.5363369,1.6630077],[-52.5127127,1.6501484],[-52.5207823,1.6310931],[-52.502024,1.6314196],[-52.5010175,1.6126222],[-52.4895562,1.61157],[-52.4910766,1.5971906],[-52.4814866,1.5833956],[-52.4940004,1.5804729],[-52.5049939,1.5631706],[-52.4810188,1.5396719],[-52.496579,1.530321],[-52.4849414,1.4863568],[-52.477978,1.4862436],[-52.4849951,1.4602889],[-52.4750542,1.4647317],[-52.4722587,1.4448563],[-52.4578623,1.4402966],[-52.4717796,1.4238116],[-52.4664498,1.4085012],[-52.4715457,1.4131722],[-52.4797323,1.3957517],[-52.4701423,1.3992592],[-52.4494418,1.3723681],[-52.4649964,1.339397],[-52.4800218,1.3329032],[-52.480551,1.3072439],[-52.4948191,1.289121],[-52.4619556,1.2832749],[-52.4508452,1.2886533],[-52.4471028,1.2809364],[-52.4545877,1.2680749],[-52.4103799,1.2451579],[-52.407924,1.2382594],[-52.4144733,1.238844],[-52.4057057,1.2282001],[-52.3900963,1.2211817],[-52.3820776,1.2282039],[-52.3892136,1.2092026],[-52.3584534,1.2016618],[-52.3696808,1.1858768],[-52.3578686,1.1717286],[-52.3639501,1.1617898],[-52.3585703,1.1464722],[-52.3329579,1.1485769],[-52.3289816,1.1408596],[-52.3095676,1.1377026],[-52.3095676,1.1220341],[-52.295241,1.1111448],[-52.2966217,1.1006523],[-52.2750169,1.0690343],[-52.2303012,1.0593878],[-52.2128748,1.0724111],[-52.1976458,1.0699619],[-52.2089638,1.0334162],[-52.1964367,1.0298685],[-52.1915229,1.008372],[-52.1627638,1.0180186],[-52.1592385,1.0000238],[-52.1425397,1.0096706],[-52.1069156,0.9885219],[-52.0772288,1.0081864],[-52.0490264,0.9981687],[-52.0239999,0.9999428],[-52.0183432,0.9857317],[-52.024324,0.9583938],[-52.0399602,0.9517567],[-52.0479275,0.9357172],[-52.0486536,0.9058302],[-52.0389858,0.8953721],[-52.0576471,0.8790402],[-52.029654,0.8567894],[-52.0123271,0.8593501],[-52.005991,0.8722061],[-51.9630708,0.8450733],[-51.9448502,0.8550448],[-51.9194791,0.9289467],[-51.8452974,0.9568369],[-51.8274801,0.9764818],[-51.8022024,0.9741486],[-51.7981618,0.9949425],[-51.7835629,0.994402],[-51.7747572,0.9729918],[-51.8280449,0.935111],[-51.8358443,0.9104816],[-51.7876935,0.8845799],[-51.7844249,0.8666291],[-51.7614715,0.8420572],[-51.7588885,0.8105547],[-51.7406648,0.7720414],[-51.7455385,0.7630902],[-51.7270571,0.7552489],[-51.7045861,0.7021932],[-51.7202281,0.68578],[-51.728495,0.6580872],[-51.7236164,0.6492059],[-51.7356046,0.6250036],[-51.7551894,0.6135482],[-51.7582317,0.6583242],[-51.7709237,0.658039],[-51.7936934,0.6386456],[-51.8045652,0.6532346],[-51.80428,0.6863173],[-51.8571399,0.6668765],[-51.8819536,0.7058055],[-51.8886562,0.6969077],[-51.9268037,0.697585],[-51.9310819,0.6912038],[-52.0194318,0.6929458],[-52.0699564,0.6624716],[-52.089704,0.6615538],[-52.0904548,0.6738747],[-52.1020086,0.6744776],[-52.108706,0.6603969],[-52.1031826,0.6478635],[-52.1181008,0.6279077],[-52.1535745,0.6311162],[-52.1652802,0.6391374],[-52.1686077,0.6311756],[-52.1793627,0.6345623],[-52.1848887,0.6100828],[-52.205032,0.5848308],[-52.2185203,0.5905942],[-52.2242246,0.5815034],[-52.2413375,0.5827512],[-52.2593822,0.5585167],[-52.2707353,0.5220343],[-52.2914275,0.5039877],[-52.3093246,0.4999426],[-52.3220085,0.4627263],[-52.3496222,0.4417592],[-52.3490188,0.432269],[-52.376795,0.4514436],[-52.3868096,0.4679503],[-52.3841053,0.4846296],[-52.3937616,0.4850722],[-52.3958479,0.4987368],[-52.416879,0.5106715],[-52.4147878,0.5489446],[-52.4383714,0.5698168],[-52.4659887,0.5803935],[-52.4816176,0.6318519],[-52.5066649,0.6479524],[-52.4981107,0.65968],[-52.5038679,0.6762803],[-52.5330346,0.6973813],[-52.546547,0.7209168],[-52.5688662,0.7249481],[-52.5791561,0.740009],[-52.6148644,0.7404597],[-52.6187485,0.759534]]]}},{"type":"Feature","properties":{"level":"municipio","municipality_code":"1600535","municipality_name":"Porto Grande","uf":"AP","state_code":"16","area_km2":4428.013},"geometry":{"type":"Polygon","coordinates":[[[-51.1608318,0.3175568],[-51.1758056,0.3067544],[-51.1900307,0.3171646],[-51.2063949,0.3170577],[-51.2123488,0.3430118],[-51.2087836,0.3826916],[-51.2173931,0.3982301],[-51.2453442,0.4157347],[-51.2463068,0.4308507],[-51.2619223,0.4458954],[-51.2604962,0.4570184],[-51.2758587,0.4534523],[-51.3116404,0.4749309],[-51.3337393,0.4668248],[-51.380777,0.4892844],[-51.411447,0.4842761],[-51.4255428,0.5035345],[-51.4440274,0.5099368],[-51.4708249,0.4946024],[-51.4733033,0.4764798],[-51.4855404,0.4790097],[-51.5087752,0.4606806],[-51.5151261,0.4295985],[-51.5369644,0.4196836],[-51.535039,0.4043041],[-51.5256863,0.3994555],[-51.5360254,0.3553313],[-51.5308796,0.331445],[-51.5393173,0.323269],[-51.5279324,0.2975405],[-51.5331019,0.2728816],[-51.5477073,0.2600471],[-51.5457584,0.2358991],[-51.5751114,0.2161207],[-51.5763711,0.2312132],[-51.5907626,0.2429426],[-51.6088737,0.2452956],[-51.6245962,0.2721011],[-51.6287675,0.2667652],[-51.6465816,0.2849475],[-51.67275,0.2950368],[-51.6938441,0.3196957],[-51.6894232,0.330403],[-51.69836,0.33562],[-51.6906116,0.3349069],[-51.6807123,0.3492269],[-51.6932261,0.3693104],[-51.6890905,0.3830955],[-51.6968745,0.3972965],[-51.7172555,0.4097149],[-51.7332394,0.4004456],[-51.7601685,0.4063399],[-51.7802405,0.4224304],[-51.7916194,0.4478019],[-51.8094156,0.4466136],[-51.809683,0.4522583],[-51.8340773,0.4453366],[-51.8390067,0.4362748],[-51.8542182,0.439632],[-51.8557928,0.4322938],[-51.8871664,0.4484355],[-51.8994366,0.44085],[-51.9080525,0.4486338],[-51.9520885,0.4466638],[-51.9547268,0.4588537],[-52.0107002,0.4791033],[-52.0321864,0.4697034],[-52.0573448,0.490048],[-52.1052372,0.5085269],[-52.1644835,0.4687522],[-52.2003736,0.4577102],[-52.201927,0.4421767],[-52.2340815,0.4022728],[-52.2346184,0.3691119],[-52.2424628,0.3638145],[-52.2807949,0.368001],[-52.2968425,0.3968055],[-52.315537,0.378276],[-52.3240921,0.3861269],[-52.3369612,0.3840602],[-52.3386251,0.4016079],[-52.3475279,0.4092051],[-52.3371627,0.4394712],[-52.3480961,0.4325119],[-52.3496222,0.4417592],[-52.329046,0.4519516],[-52.3093246,0.4999426],[-52.2914275,0.5039877],[-52.2707353,0.5220343],[-52.2593822,0.5585167],[-52.2413375,0.5827512],[-52.2242246,0.5815034],[-52.2185203,0.5905942],[-52.205032,0.5848308],[-52.1848887,0.6100828],[-52.1793627,0.6345623],[-52.1686077,0.6311756],[-52.1652802,0.6391374],[-52.1535745,0.6311162],[-52.1181008,0.6279077],[-52.1031826,0.6478635],[-52.108706,0.6603969],[-52.1010651,0.6748659],[-52.0904548,0.6738747],[-52.089704,0.6615538],[-52.0699564,0.6624716],[-52.0194318,0.6929458],[-51.9310819,0.6912038],[-51.9268037,0.697585],[-51.8886562,0.6969077],[-51.8819536,0.7058055],[-51.8571399,0.6668765],[-51.80428,0.6863173],[-51.8045652,0.6532346],[-51.7936934,0.6386456],[-51.7717794,0.6575637],[-51.759325,0.6590847],[-51.7531929,0.6509566],[-51.7582792,0.6148791],[-51.7397878,0.6194423],[-51.7236164,0.6492059],[-51.728495,0.6580872],[-51.7188543,0.6890578],[-51.7055502,0.6957581],[-51.708129,0.7160276],[-51.724012,0.7357427],[-51.7270571,0.7552489],[-51.7455385,0.7630902],[-51.7406648,0.7720414],[-51.7588885,0.8105547],[-51.7623032,0.8441818],[-51.7844249,0.8666291],[-51.7876935,0.8845799],[-51.8128666,0.8926773],[-51.816184,0.9019941],[-51.8358443,0.9104816],[-51.8352228,0.9184756],[-51.8280449,0.935111],[-51.7747572,0.9729918],[-51.7832661,0.9882961],[-51.7794089,0.9969149],[-51.7538346,0.987932],[-51.7564491,0.9715345],[-51.7161625,0.9944672],[-51.700951,0.9761686],[-51.6916102,0.9833692],[-51.6836004,1.0132409],[-51.6735373,1.0088032],[-51.6626846,0.9592957],[-51.637253,0.9537111],[-51.5959725,0.9238112],[-51.6044992,0.886922],[-51.6267935,0.8717004],[-51.6165614,0.8350187],[-51.6069805,0.8323368],[-51.6008092,0.8475609],[-51.5825079,0.850888],[-51.5387038,0.8780365],[-51.5207809,0.8725699],[-51.5113261,0.8785709],[-51.4853327,0.8549525],[-51.4897536,0.8433425],[-51.4721653,0.7923655],[-51.4242878,0.7484434],[-51.39703,0.7358901],[-51.3785142,0.7404667],[-51.3652321,0.7569575],[-51.3709008,0.7713596],[-51.3536901,0.7801118],[-51.3386626,0.7360794],[-51.3591754,0.7213281],[-51.3707572,0.6946458],[-51.3570628,0.6568443],[-51.2798698,0.6331195],[-51.2506414,0.6111953],[-51.2009691,0.595653],[-51.1551917,0.568711],[-51.1433464,0.5427105],[-51.1265226,0.5336315],[-51.1321087,0.5169917],[-51.1025673,0.4766938],[-51.0831719,0.471015],[-51.0756524,0.4549876],[-51.0443575,0.4367121],[-51.0516433,0.421155],[-51.0610197,0.4423316],[-51.0932847,0.4281783],[-51.1164584,0.3965202],[-51.1167507,0.3754397],[-51.1365732,0.3368223],[-51.1288343,0.3157928],[-51.1393017,0.308981],[-51.1608318,0.3175568]]]}},{"type":"Feature","properties":{"level":"municipio","municipality_code":"1600550","municipality_name":"Pracuúba","uf":"AP","state_code":"16","area_km2":4948.508},"geometry":{"type":"Polygon","coordinates":[[[-50.8741795,1.8250238],[-50.8564335,1.8311248],[-50.8307037,1.8103687],[-50.8150072,1.8127031],[-50.8042641,1.8001599],[-50.8143417,1.7849083],[-50.8087198,1.7816879],[-50.7908501,1.7962824],[-50.7794753,1.7902711],[-50.7830054,1.8109186],[-50.7696694,1.8252932],[-50.7746381,1.8387502],[-50.7598091,1.8255344],[-50.7440823,1.8295779],[-50.722611,1.8144606],[-50.6927478,1.8301102],[-50.6406703,1.8295056],[-50.6328631,1.7942439],[-50.613975,1.7625909],[-50.6159458,1.7412157],[-50.5845342,1.7323075],[-50.5681115,1.7132956],[-50.5809223,1.6849525],[-50.5673902,1.653006],[-50.5503627,1.647263],[-50.5536137,1.6270639],[-50.538998,1.592215],[-50.5400868,1.5298765],[-50.5280325,1.5152602],[-50.542919,1.5057677],[-50.5366099,1.4902302],[-50.557919,1.4820119],[-50.5605847,1.4724751],[-50.8650125,1.5939432],[-50.8896361,1.5835369],[-50.9090074,1.5860278],[-50.9326085,1.6194124],[-50.9582532,1.5999009],[-50.9833391,1.596435],[-50.9912857,1.6083678],[-51.0040353,1.6014588],[-51.0171735,1.6091086],[-51.012674,1.632923],[-51.025727,1.647735],[-51.0543412,1.6162997],[-51.0895955,1.5990528],[-51.1331487,1.6034671],[-51.1388616,1.6098447],[-51.1513462,1.6038656],[-51.1620642,1.610618],[-51.1699231,1.6332393],[-51.1863701,1.638926],[-51.1992877,1.6318381],[-51.2082318,1.6503228],[-51.234836,1.6527196],[-51.2561639,1.6798274],[-51.3145661,1.6922516],[-51.4276199,1.6395626],[-51.4308285,1.6180912],[-51.4560448,1.5983474],[-51.4459212,1.5891057],[-51.4367705,1.5547739],[-51.4444951,1.5540612],[-51.4448516,1.530183],[-51.4218914,1.5236974],[-51.42108,1.5074444],[-51.4036142,1.4915736],[-51.4069418,1.4773176],[-51.3969117,1.4692867],[-51.3995737,1.4616359],[-51.3940238,1.454888],[-51.3799621,1.4589121],[-51.3781826,1.428609],[-51.368509,1.4291555],[-51.3682,1.4092916],[-51.3844098,1.3961044],[-51.3792759,1.3790916],[-51.3925146,1.3725573],[-51.3890449,1.3228085],[-51.9906253,1.31674],[-51.9688318,1.3381265],[-51.9727713,1.3641639],[-51.9540039,1.3967648],[-51.9236915,1.3868095],[-51.9119277,1.3999921],[-51.9133403,1.4089374],[-51.8992885,1.410549],[-51.8921207,1.4175504],[-51.8961697,1.4222545],[-51.8855002,1.4240595],[-51.8686698,1.4434927],[-51.8673893,1.4663138],[-51.8517407,1.4922403],[-51.8363657,1.4980928],[-51.8218661,1.5211747],[-51.7992139,1.5344659],[-51.7800088,1.5718228],[-51.7640337,1.5725847],[-51.7333638,1.5976386],[-51.7069944,1.6761762],[-51.7077876,1.7340232],[-51.6966543,1.7514298],[-51.68434,1.8061578],[-51.6470664,1.8763231],[-51.5939017,1.8847638],[-51.562844,1.8551746],[-51.5321742,1.8502881],[-51.4458617,1.7721587],[-51.4471096,1.751134],[-51.3824571,1.7944464],[-51.3660647,1.8249316],[-51.3722016,1.8500843],[-51.2977514,1.8644346],[-51.3025588,1.8710817],[-51.2964721,1.8821952],[-51.2730223,1.8966679],[-51.2358109,1.8731822],[-51.2105046,1.8888591],[-51.1963954,1.8825224],[-51.1677913,1.8918454],[-51.1145065,1.8450223],[-51.0355636,1.8687982],[-50.9910286,1.8383469],[-50.967288,1.8389956],[-50.9103932,1.8229028],[-50.8825196,1.8303484],[-50.8741795,1.8250238]]]}},{"type":"Feature","properties":{"level":"municipio","municipality_code":"1600600","municipality_name":"Santana","uf":"AP","state_code":"16","area_km2":1541.225},"geometry":{"type":"Polygon","coordinates":[[[-51.2179824,-0.0874011],[-51.2520538,-0.0844535],[-51.2698451,-0.091778],[-51.2875774,-0.0790903],[-51.3167555,-0.0746178],[-51.3288952,-0.082498],[-51.3634145,-0.0690971],[-51.3989652,-0.0658856],[-51.4051117,-0.0506701],[-51.4343224,-0.0343891],[-51.4495619,0.012732],[-51.5326028,0.0530769],[-51.5342666,0.0827868],[-51.56198,0.1117123],[-51.5560855,0.1161093],[-51.5663533,0.1330558],[-51.5630258,0.1419688],[-51.5679457,0.1497884],[-51.5716844,0.1415334],[-51.5782135,0.161292],[-51.5703463,0.1664259],[-51.5759793,0.1938421],[-51.5670901,0.2004376],[-51.5708692,0.214829],[-51.5457584,0.2358991],[-51.5477073,0.2600471],[-51.5331019,0.2728816],[-51.5279324,0.2975405],[-51.5393173,0.323269],[-51.5308796,0.331445],[-51.5360254,0.3553313],[-51.5256863,0.3994555],[-51.535039,0.4043041],[-51.5369644,0.4196836],[-51.5151261,0.4295985],[-51.5067615,0.4618682],[-51.4816582,0.4644728],[-51.475431,0.445364],[-51.4901671,0.4319118],[-51.4639273,0.4269207],[-51.4461489,0.3712575],[-51.4154407,0.3673121],[-51.3980538,0.3488912],[-51.3827572,0.3083988],[-51.3641826,0.2983452],[-51.3453522,0.2681068],[-51.3388488,0.2400081],[-51.2907425,0.2048081],[-51.2915982,0.1960615],[-51.2713241,0.1768809],[-51.2705992,0.1638918],[-51.2532011,0.1743972],[-51.2273416,0.1745873],[-51.1881585,0.1546588],[-51.1919541,0.1060477],[-51.2001957,0.1067732],[-51.1933145,0.0992863],[-51.2010439,0.0874589],[-51.2089565,0.0911459],[-51.2074616,0.0810315],[-51.2214597,0.0758253],[-51.219474,0.063548],[-51.2361518,0.056984],[-51.2491365,0.0345926],[-51.2285578,0.0323492],[-51.2334818,0.0142109],[-51.2165901,0.0148771],[-51.2027966,0.0073909],[-51.2036111,0.0],[-51.1052498,0.0],[-51.1040045,-0.0125246],[-51.1234644,-0.015225],[-51.1450745,-0.0350178],[-51.118394,-0.0975378],[-51.1748986,-0.1045348],[-51.2080541,-0.1170073],[-51.2179824,-0.0874011]]]}},{"type":"Feature","properties":{"level":"municipio","municipality_code":"1600055","municipality_name":"Serra do Navio","uf":"AP","state_code":"16","area_km2":7713.046},"geometry":{"type":"Polygon","coordinates":[[[-52.005991,0.8722061],[-52.0119944,0.8596353],[-52.0248053,0.8551021],[-52.0576471,0.8790402],[-52.0389858,0.8953721],[-52.0486536,0.9058302],[-52.0479275,0.9357172],[-52.0399602,0.9517567],[-52.024324,0.9583938],[-52.0183432,0.9857317],[-52.0239999,0.9999428],[-52.0490264,0.9981687],[-52.0772288,1.0081864],[-52.1069156,0.9885219],[-52.1425397,1.0096706],[-52.1592385,1.0000238],[-52.1627638,1.0180186],[-52.1915229,1.008372],[-52.1964367,1.0298685],[-52.2089638,1.0334162],[-52.1976458,1.0699619],[-52.2128748,1.0724111],[-52.2303012,1.0593878],[-52.2750169,1.0690343],[-52.2966217,1.1006523],[-52.295241,1.1111448],[-52.3095676,1.1220341],[-52.3095676,1.1377026],[-52.3289816,1.1408596],[-52.3329579,1.1485769],[-52.3585703,1.1464722],[-52.3639501,1.1617898],[-52.3578686,1.1717286],[-52.3696808,1.1858768],[-52.3584534,1.2016618],[-52.3892136,1.2092026],[-52.3820776,1.2282039],[-52.3900963,1.2211817],[-52.4057057,1.2282001],[-52.4144733,1.238844],[-52.407924,1.2382594],[-52.4103799,1.2451579],[-52.4545877,1.2680749],[-52.4471028,1.2809364],[-52.4508452,1.2886533],[-52.4619556,1.2832749],[-52.4948191,1.289121],[-52.480551,1.3072439],[-52.4800218,1.3329032],[-52.4649964,1.339397],[-52.4494418,1.3723681],[-52.4701423,1.3992592],[-52.4797323,1.3957517],[-52.4715457,1.4131722],[-52.4664498,1.4085012],[-52.4717796,1.4238116],[-52.4578623,1.4402966],[-52.4722587,1.4448563],[-52.4750542,1.4647317],[-52.4849951,1.4602889],[-52.477978,1.4862436],[-52.4849414,1.4863568],[-52.496579,1.530321],[-52.4810188,1.5396719],[-52.5049939,1.5631706],[-52.4940004,1.5804729],[-52.4814866,1.5833956],[-52.4910766,1.5971906],[-52.4895562,1.61157],[-52.5010175,1.6126222],[-52.502024,1.6314196],[-52.5207823,1.6310931],[-52.5127127,1.6501484],[-52.5363369,1.6630077],[-52.5479151,1.6896613],[-52.5572713,1.6895444],[-52.5496694,1.7047415],[-52.5586747,1.706495],[-52.5550492,1.7256664],[-52.5690834,1.7337324],[-52.572358,1.7449546],[-52.5885431,1.7375528],[-52.611303,1.7745295],[-52.6356289,1.7959212],[-52.6470977,1.7909504],[-52.6563294,1.8112343],[-52.6627042,1.8077888],[-52.6613583,1.8253783],[-52.6803045,1.8357817],[-52.6858821,1.8479423],[-52.6960929,1.8385871],[-52.7369902,1.8694183],[-52.7409343,1.8602983],[-52.7572294,1.8679021],[-52.7871305,1.9258227],[-52.7809925,1.9509367],[-52.7956599,1.9770261],[-52.8119068,1.9804818],[-52.8679378,2.0247666],[-52.859129,2.0399316],[-52.8372068,2.0363823],[-52.8288549,2.0518177],[-52.8362686,2.0782015],[-52.8128214,2.084495],[-52.7966509,2.0713723],[-52.7602144,2.0777355],[-52.7572639,2.0677053],[-52.7289625,2.0728183],[-52.7153253,2.0626809],[-52.6810188,2.0692247],[-52.6826585,2.0538678],[-52.668103,2.0567389],[-52.6567961,2.0446125],[-52.6452941,2.050833],[-52.6101556,2.0097631],[-52.5937386,2.0035017],[-52.5919323,2.0146114],[-52.5581555,2.0216986],[-52.5524044,2.0095861],[-52.534548,2.0150668],[-52.4969876,2.0414966],[-52.4648494,2.0352183],[-52.4394294,2.0450377],[-52.4094023,2.0302184],[-52.4123441,2.0912087],[-52.3649881,2.119141],[-52.3554347,2.1415687],[-52.3472929,2.1399779],[-52.3346809,2.1555768],[-52.2750973,2.1574355],[-52.2524055,2.1687657],[-52.2422631,2.1931067],[-52.2205441,2.1852963],[-52.2315104,2.2016089],[-52.2463786,2.203091],[-52.2487947,2.241549],[-52.2313189,2.2640185],[-52.1937353,2.2612692],[-52.1898733,2.2791726],[-52.1801201,2.2782374],[-52.1844555,2.2908532],[-52.1777077,2.3011942],[-52.1549017,2.299836],[-52.151712,2.3199904],[-52.1294319,2.3348387],[-52.1185947,2.3569346],[-52.1243706,2.3748671],[-52.1117609,2.3847571],[-52.1182376,2.3956124],[-52.110119,2.4019038],[-52.0954857,2.3989612],[-52.0917925,2.4097128],[-52.0599009,2.391382],[-52.0429024,2.4392001],[-52.0159589,2.4320203],[-52.0419835,2.4217359],[-52.0380415,2.341908],[-52.0651218,2.2885821],[-52.066367,2.27108],[-52.0370531,2.2328164],[-52.0433115,2.2104828],[-52.0364377,2.1919712],[-52.0380478,2.1488168],[-52.0326769,2.1486143],[-52.0270358,2.1060914],[-52.0104606,2.0840987],[-52.0080231,2.0417132],[-51.9993176,2.0335004],[-52.006073,2.0044771],[-52.0170071,1.9925056],[-52.0105999,1.9869375],[-52.0209768,1.9748964],[-52.013017,1.9327271],[-52.0306573,1.9115571],[-52.0307269,1.8961047],[-52.0404668,1.8936379],[-52.0438199,1.8826708],[-52.0491825,1.885455],[-52.0601862,1.8678446],[-52.0556593,1.8712554],[-52.0505754,1.8613712],[-52.0551041,1.8294117],[-52.0489039,1.8196762],[-52.0564951,1.807425],[-52.0485557,1.8054064],[-52.0454914,1.7866118],[-52.0539182,1.7647542],[-52.0459789,1.7367009],[-52.0533611,1.710666],[-52.0499486,1.6926362],[-52.0396413,1.6883202],[-52.0457003,1.675372],[-52.0301001,1.648292],[-52.0220967,1.6507081],[-52.0193053,1.6356917],[-52.0397109,1.5755432],[-52.0318412,1.5617589],[-52.035602,1.5228422],[-52.0263394,1.5231903],[-52.0262697,1.5113551],[-52.0165892,1.5057159],[-52.0384574,1.4836463],[-52.0239715,1.473621],[-52.0443074,1.4493929],[-52.0331644,1.4227974],[-52.0425663,1.4141642],[-52.0335831,1.4094817],[-52.0221745,1.3762165],[-52.0072007,1.3684941],[-52.0146876,1.3260801],[-51.9814002,1.3097747],[-51.9861661,1.2868732],[-52.0006645,1.2799822],[-52.0035167,1.2698834],[-51.9967428,1.2575271],[-51.9987631,1.2311509],[-51.9835516,1.2263984],[-52.0026848,1.2117844],[-52.0085079,1.183982],[-51.9890182,1.1782789],[-51.9951979,1.1623578],[-51.9795111,1.1574863],[-51.9946037,1.1459612],[-51.9932965,1.1368124],[-51.9789169,1.1295646],[-51.9835516,1.0778789],[-51.9771343,1.0701557],[-51.9853342,1.0551845],[-51.9509896,1.0586303],[-51.9357781,1.0406885],[-51.9190217,1.0491247],[-51.9261521,1.0643336],[-51.9155754,1.0708686],[-51.90179,1.0457977],[-51.8924016,1.0443719],[-51.8847959,1.0554221],[-51.8847959,1.0400944],[-51.863999,1.0386685],[-51.8584135,1.0263112],[-51.8399934,1.0386685],[-51.8348833,1.0170432],[-51.8158689,1.00326],[-51.8127791,0.9856743],[-51.8151088,0.9758256],[-51.8419245,0.9679057],[-51.8452974,0.9568369],[-51.9194791,0.9289467],[-51.9433632,0.8559175],[-51.9630708,0.8450733],[-52.005991,0.8722061]]]}},{"type":"Feature","properties":{"level":"municipio","municipality_code":"1600709","municipality_name":"Tartarugalzinho","uf":"AP","state_code":"16","area_km2":6684.705},"geometry":{"type":"Polygon","coordinates":[[[-51.090401,1.0226872],[-51.1274987,1.0093929],[-51.1511715,1.0314223],[-51.1815938,1.0353457],[-51.2396512,0.9528082],[-51.2459986,0.9762902],[-51.2951909,0.9755498],[-51.3077799,0.9919448],[-51.3124347,0.9827424],[-51.3463932,0.9794634],[-51.3563375,0.9662416],[-51.3524233,0.95101],[-51.3613096,0.9456154],[-51.3670223,0.954289],[-51.3817271,0.9513273],[-51.3826792,0.9730112],[-51.3974898,0.978723],[-51.4089151,0.9954353],[-51.4066983,1.0505643],[-51.4666621,1.0675739],[-51.4828269,1.0875157],[-51.4704615,1.1048506],[-51.4560225,1.1075834],[-51.4453864,1.1436443],[-51.4452081,1.182081],[-51.4349285,1.1892693],[-51.4439009,1.2357133],[-51.4531228,1.2433885],[-51.4342749,1.2533687],[-51.4296401,1.2653686],[-51.4000728,1.2757288],[-51.405587,1.2841881],[-51.3887118,1.3238703],[-51.3925146,1.3725573],[-51.3792759,1.3790916],[-51.3824608,1.4037791],[-51.3671067,1.4132834],[-51.368509,1.4291555],[-51.3781826,1.428609],[-51.3799621,1.4589121],[-51.3940238,1.454888],[-51.3995737,1.4616359],[-51.3969117,1.4692867],[-51.4069418,1.4773176],[-51.4036142,1.4915736],[-51.42108,1.5074444],[-51.4218914,1.5236974],[-51.4448516,1.530183],[-51.4444951,1.5540612],[-51.4367705,1.5547739],[-51.4459212,1.5891057],[-51.4560448,1.5983474],[-51.4308285,1.6180912],[-51.4276199,1.6395626],[-51.323313,1.6904832],[-51.2561639,1.6798274],[-51.234836,1.6527196],[-51.2082318,1.6503228],[-51.1992877,1.6318381],[-51.1863701,1.638926],[-51.1699231,1.6332393],[-51.1620642,1.610618],[-51.1508403,1.6037918],[-51.1388616,1.6098447],[-51.1331487,1.6034671],[-51.0895955,1.5990528],[-51.0543412,1.6162997],[-51.025727,1.647735],[-51.012674,1.632923],[-51.0171735,1.6091086],[-51.0040353,1.6014588],[-50.9912857,1.6083678],[-50.9833391,1.596435],[-50.9582532,1.5999009],[-50.9326085,1.6194124],[-50.9091295,1.5860685],[-50.8896361,1.5835369],[-50.8650125,1.5939432],[-50.5605847,1.4724751],[-50.4342533,1.2371956],[-50.4166956,1.216645],[-50.4229971,1.1873416],[-50.4609766,1.156958],[-50.473336,1.0806775],[-50.5270515,1.0421801],[-50.5383412,1.0476458],[-50.540005,1.0708156],[-50.5556918,1.0922029],[-50.5848075,1.0746178],[-50.5990683,1.0935099],[-50.6100015,1.0948169],[-50.6336506,1.0889948],[-50.6435143,1.0774694],[-50.6299666,1.0386155],[-50.6381665,1.0267334],[-50.6603895,1.0260205],[-50.6821372,1.0538244],[-50.69414,1.0582207],[-50.7207601,1.0401601],[-50.75047,1.0419424],[-50.7950348,1.0299416],[-50.8146434,1.0020187],[-50.8125043,0.9696991],[-50.8545735,0.9538956],[-50.8722806,0.9587674],[-50.8874921,0.9921565],[-50.9450104,0.9939388],[-50.9890999,0.975759],[-50.9879115,0.9542521],[-51.0006274,0.9317945],[-51.0263851,0.9765369],[-51.0184942,0.9868982],[-51.0373184,0.9908906],[-51.0358923,1.0060523],[-51.0524348,1.0079059],[-51.0582341,1.0186473],[-51.090401,1.0226872]]]}},{"type":"Feature","properties":{"level":"municipio","municipality_code":"1600808","municipality_name":"Vitória do Jari","uf":"AP","state_code":"16","area_km2":2508.979},"geometry":{"type":"Polygon","coordinates":[[[-51.8090963,-1.1571011],[-51.8919242,-1.1649817],[-51.925956,-1.1323158],[-51.9469037,-1.1660067],[-51.9589307,-1.1690261],[-51.9659296,-1.1596028],[-51.9637669,-1.1290891],[-51.9853341,-1.1214454],[-51.9939523,-1.1347229],[-51.9879795,-1.1675911],[-52.0297604,-1.1681279],[-52.0550643,-1.17695],[-52.0639335,-1.1897728],[-52.0470645,-1.2193091],[-52.054648,-1.23422],[-52.070459,-1.2359841],[-52.1098719,-1.2181159],[-52.1067638,-1.1830679],[-52.1202623,-1.146198],[-52.1467312,-1.1487914],[-52.1735712,-1.1301323],[-52.2221473,-1.1345286],[-52.2386612,-1.1262396],[-52.2733218,-1.1285312],[-52.3009847,-1.1159092],[-52.3329879,-1.1158915],[-52.3581556,-1.0625844],[-52.4001787,-1.0436305],[-52.4200671,-1.0527007],[-52.4283164,-1.0481215],[-52.4144641,-1.0092723],[-52.4199283,-0.9659632],[-52.4395446,-0.9347461],[-52.4293465,-0.9203304],[-52.4047158,-0.9127377],[-52.4012064,-0.8819116],[-52.419851,-0.8546977],[-52.4555179,-0.8302661],[-52.3971224,-0.8066462],[-52.3837077,-0.8103301],[-52.3704954,-0.7976091],[-52.2825215,-0.7982322],[-52.2353486,-0.8132702],[-52.2187586,-0.8300784],[-52.1909743,-0.8349921],[-52.1640928,-0.887038],[-52.1341752,-0.9144961],[-52.0834567,-0.9088998],[-52.0626161,-0.9226632],[-52.0497941,-0.9041896],[-52.0320461,-0.9013145],[-52.0237868,-0.8893726],[-52.0003754,-0.8867584],[-51.9627032,-0.8632309],[-51.9431541,-0.8732123],[-51.9340629,-0.870004],[-51.9259224,-0.8806983],[-51.9161775,-0.8681622],[-51.9148109,-0.8825401],[-51.9026298,-0.8716082],[-51.9032834,-0.8840849],[-51.8939545,-0.8776683],[-51.8842691,-0.8899667],[-51.8782082,-0.8796289],[-51.8349506,-0.920267],[-51.8360202,-0.9066616],[-51.8233043,-0.9093352],[-51.8143319,-0.8859861],[-51.8253246,-0.8788565],[-51.8238985,-0.8593691],[-51.8090436,-0.8735688],[-51.8039335,-0.8713705],[-51.8088059,-0.8611515],[-51.7929408,-0.8682216],[-51.7825423,-0.8526554],[-51.7714308,-0.868281],[-51.7591309,-0.8610921],[-51.738334,-0.8659639],[-51.7434441,-0.8562202],[-51.7345906,-0.8518236],[-51.7263906,-0.8576461],[-51.7285297,-0.8408321],[-51.7391323,-0.8398232],[-51.7185136,-0.8302577],[-51.7414496,-0.8246134],[-51.7135817,-0.8035215],[-51.6835071,-0.7955224],[-51.6955895,-0.924719],[-51.6881858,-1.0392483],[-51.7043365,-1.067741],[-51.7783994,-1.1404123],[-51.8090963,-1.1571011]]]}}]}