{"type":"FeatureCollection","name":"DF_Municipios_2024","crs":{"type":"name","properties":{"name":"urn:ogc:def:crs:EPSG::4674"}},"features":[{"type":"Feature","properties":{"level":"municipio","municipality_code":"5300108","municipality_name":"Brasília","uf":"DF","state_code":"53","area_km2":5760.783},"geometry":{"type":"Polygon","coordinates":[[[-47.3085041,-16.0499714],[-48.2778112,-16.0495978],[-48.2724265,-16.0089627],[-48.2501855,-15.9475962],[-48.2608587,-15.9280342],[-48.2763642,-15.9312376],[-48.2695298,-15.9170073],[-48.2771091,-15.9074416],[-48.2716483,-15.883715],[-48.2851215,-15.8367742],[-48.2667138,-15.8068626],[-48.2410362,-15.7992563],[-48.2096863,-15.754044],[-48.2088841,-15.7153612],[-48.2405772,-15.7063615],[-48.241331,-15.6867065],[-48.2341602,-15.6419091],[-48.2182154,-15.6233359],[-48.1997298,-15.622914],[-48.200009,-15.5022783],[-47.4184069,-15.5018199],[-47.4177867,-15.546259],[-47.4027651,-15.5474564],[-47.3765167,-15.5766676],[-47.3179199,-15.5892805],[-47.3339294,-15.6295829],[-47.3266032,-15.652618],[-47.331472,-15.6835045],[-47.3124896,-15.6972871],[-47.3210168,-15.7212617],[-47.3130451,-15.742092],[-47.3554055,-15.8234497],[-47.3674162,-15.8285735],[-47.3719887,-15.8740795],[-47.3807006,-15.8812467],[-47.3748819,-15.9069195],[-47.3655235,-15.9094643],[-47.3690839,-15.9205564],[-47.3612066,-15.9258191],[-47.3734837,-15.9367891],[-47.3684745,-15.9470701],[-47.3791683,-15.9738457],[-47.3692725,-16.0030809],[-47.3391407,-16.0123344],[-47.3408313,-16.0192601],[-47.3100062,-16.0362735],[-47.3085041,-16.0499714]]]}}]}