{"type":"FeatureCollection","name":"RR_Municipios_2024","crs":{"type":"name","properties":{"name":"urn:ogc:def:crs:EPSG::4674"}},"features":[{"type":"Feature","properties":{"level":"municipio","municipality_code":"1400050","municipality_name":"Alto Alegre","uf":"RR","state_code":"14","area_km2":25424.287},"geometry":{"type":"Polygon","coordinates":[[[-62.2477357,3.1382305],[-62.241905,3.1540672],[-62.21468,3.1621227],[-62.1994097,3.1840626],[-62.1663452,3.2001776],[-62.1305144,3.2346263],[-62.0821801,3.2474067],[-62.0519069,3.2646248],[-62.0171868,3.2490662],[-61.969963,3.2612886],[-61.9571786,3.251017],[-61.9471817,3.2565673],[-61.9441283,3.2782375],[-61.9327391,3.2885076],[-61.9249616,3.2801784],[-61.9130172,3.2899005],[-61.893575,3.29129],[-61.8685676,3.2682355],[-61.8507926,3.2632331],[-61.8238473,3.3221239],[-61.8060706,3.3282323],[-61.7305175,3.3198959],[-61.7149624,3.3249031],[-61.7119014,3.3351797],[-61.6899582,3.3207324],[-61.6616252,3.3301747],[-61.6263444,3.3571258],[-61.5944059,3.3090689],[-61.5871816,3.3140636],[-61.5649533,3.3065658],[-61.5566219,3.3137852],[-61.5371804,3.3012909],[-61.5324539,3.3104548],[-61.519678,3.3071245],[-61.507459,3.3143467],[-61.4863499,3.340456],[-61.4757893,3.3373994],[-61.4605106,3.3471172],[-61.4057866,3.3501779],[-61.3791227,3.3654562],[-61.3494018,3.3537941],[-61.3166243,3.3568473],[-61.2677341,3.4001757],[-61.2360647,3.4429593],[-61.2188459,3.449622],[-61.1649521,3.452675],[-61.1318971,3.4335112],[-61.0566171,3.4421198],[-61.0216192,3.4385078],[-61.0005369,3.4479384],[-61.0005115,2.6816681],[-61.0191224,2.6824055],[-61.0298806,2.6980295],[-61.0346811,2.6779623],[-61.0430133,2.6740712],[-61.0949065,2.7084845],[-61.1024579,2.6946247],[-61.1240487,2.6975295],[-61.1330132,2.7203523],[-61.1370809,2.7005888],[-61.1838507,2.6771307],[-61.1963421,2.6876857],[-61.2001109,2.6809898],[-61.2136945,2.6820946],[-61.2155116,2.6640738],[-61.2274562,2.6537939],[-61.2410658,2.6512912],[-61.2532927,2.6674062],[-61.2739227,2.6718211],[-61.2896814,2.6574029],[-61.302451,2.6921269],[-61.2966241,2.7057342],[-61.3141197,2.7182432],[-61.3080136,2.7257362],[-61.3269,2.7299077],[-61.3332859,2.7596238],[-61.3443991,2.7576799],[-61.3455127,2.7660157],[-61.3557927,2.7690736],[-61.3671773,2.8087941],[-61.3791185,2.815731],[-61.3696747,2.8285115],[-61.37218,2.8404605],[-61.3818968,2.8382371],[-61.406068,2.8612943],[-61.4425058,2.8721568],[-61.4513464,2.8946287],[-61.4607491,2.8849812],[-61.4715189,2.8930796],[-61.4968984,2.886567],[-61.5232867,2.8957387],[-61.5796764,2.9484051],[-61.6279608,2.9335544],[-61.7041943,2.852274],[-61.7224573,2.8134109],[-61.7090696,2.7997212],[-61.6985951,2.8048465],[-61.6949579,2.7937605],[-61.7255113,2.7845966],[-61.7421774,2.7649473],[-61.7482371,2.7426227],[-61.7363506,2.7423995],[-61.7342239,2.7185115],[-61.7705152,2.7115677],[-61.7759369,2.7202315],[-61.7908604,2.7065158],[-61.817148,2.6992445],[-61.8203189,2.6888298],[-61.834031,2.6973336],[-61.8686896,2.6831281],[-61.8836921,2.6972301],[-61.8930169,2.6899038],[-61.9138461,2.69157],[-61.9247753,2.7065369],[-61.9460721,2.6837925],[-61.9737711,2.6889172],[-61.9749261,2.7122018],[-61.9803797,2.7186374],[-61.9963447,2.7168484],[-62.0060695,2.7335148],[-62.0348332,2.7292912],[-62.0940636,2.7470763],[-62.195512,2.7474075],[-62.2054886,2.75673],[-62.2016291,2.7618494],[-62.2116286,2.7643507],[-62.2225051,2.7551943],[-62.2936219,2.7585415],[-62.3461202,2.7751022],[-62.4073199,2.7825655],[-62.4857228,2.7698037],[-62.5226064,2.7455925],[-62.5677648,2.7336315],[-62.5913291,2.7293936],[-62.600938,2.7370163],[-62.6196776,2.7366078],[-62.6238745,2.7241685],[-62.6396924,2.7197165],[-62.6441458,2.7104271],[-62.655881,2.7116661],[-62.6642322,2.703004],[-62.6897231,2.7054991],[-62.6891245,2.6950719],[-62.7024447,2.6931383],[-62.7178228,2.7135738],[-62.7531922,2.7199955],[-62.7649249,2.7298023],[-62.8041118,2.723342],[-62.8171352,2.7451555],[-62.8408274,2.754003],[-62.856374,2.7808824],[-62.8689,2.7518],[-62.8818,2.762],[-62.8888,2.7564],[-62.9364,2.7621],[-62.9511,2.7744],[-62.9709,2.7749],[-62.9749,2.7922],[-63.015,2.8022],[-63.0264,2.7888],[-63.0464,2.8012],[-63.0741,2.7801],[-63.0978,2.7908],[-63.1133,2.7854],[-63.1275,2.7948],[-63.1406,2.7898],[-63.1628,2.8033],[-63.1725,2.7974],[-63.1936,2.8196],[-63.2099,2.8089],[-63.2324,2.8206],[-63.274,2.8015],[-63.2764,2.7909],[-63.2979,2.7733],[-63.3208,2.7802],[-63.3556,2.7745],[-63.3612,2.753],[-63.3692,2.7626],[-63.3883,2.7569],[-63.4395,2.7803],[-63.4505,2.7661],[-63.4587,2.7673],[-63.4661,2.7444],[-63.4591,2.7322],[-63.4678,2.7283],[-63.4638,2.7191],[-63.4746,2.7051],[-63.4657,2.6944],[-63.4743,2.686],[-63.4661,2.6806],[-63.4648,2.6659],[-63.4828,2.657],[-63.4733,2.6155],[-63.5218,2.5729],[-63.5714,2.5915],[-63.6108,2.5905],[-63.6463,2.6215],[-63.6880775,2.588233],[-63.9578394,2.4704371],[-63.976582,2.4656004],[-64.0091614,2.4809383],[-64.0189059,2.4639222],[-64.0322257,2.4724728],[-64.0428666,2.4958707],[-64.0613655,2.5043902],[-64.0455162,2.5281398],[-64.0450582,2.5777671],[-64.027928,2.5774215],[-64.0269453,2.5923264],[-64.0102964,2.6048953],[-64.0082281,2.6267819],[-63.9865347,2.6481776],[-63.9868083,2.6873198],[-64.0083193,2.7059971],[-63.9872793,2.7160971],[-63.9886785,2.7325796],[-64.0039652,2.7381669],[-64.0053501,2.7599675],[-63.9976424,2.7685695],[-64.0173391,2.7768332],[-64.020647,2.8198319],[-64.0429126,2.8295553],[-64.0560297,2.8612879],[-64.0802374,2.8758492],[-64.0669086,2.8914014],[-64.0777811,2.9027175],[-64.07129,2.9241897],[-64.0923377,2.9322907],[-64.0988918,2.9501351],[-64.1080647,2.9542159],[-64.1074398,2.9791408],[-64.1378618,2.9921967],[-64.1610492,2.9848915],[-64.1471016,3.0105591],[-64.1482051,3.0380294],[-64.1787062,3.0512196],[-64.1753027,3.0655454],[-64.2189372,3.0907124],[-64.2186954,3.1137112],[-64.2302866,3.1378818],[-64.2188504,3.1543439],[-64.1814312,3.1651274],[-64.1695812,3.2016048],[-64.1563681,3.2135731],[-64.1584061,3.2448524],[-64.1369955,3.2723277],[-64.1172565,3.278419],[-64.1234491,3.2916349],[-64.1149311,3.3347012],[-64.1337022,3.3451869],[-64.1329095,3.3637371],[-64.1451907,3.3616222],[-64.1478277,3.3717247],[-64.1419794,3.3895196],[-64.124879,3.3969084],[-64.1169157,3.4215399],[-64.12915227299987,3.4458674720001525],[-64.11798673099992,3.468906422274335],[-64.13056812629296,3.476176135789529],[-64.0724714,3.4807296],[-64.0174735,3.4512895],[-64.0005283,3.433506],[-63.9816333,3.4390659],[-63.9699683,3.4337871],[-63.9552463,3.4476765],[-63.9344125,3.4451744],[-63.901916,3.420176],[-63.8763612,3.4249019],[-63.845803,3.4557283],[-63.8305225,3.4954564],[-63.8349701,3.5007318],[-63.8230252,3.5185132],[-63.8080241,3.5196222],[-63.8060766,3.5396182],[-63.7880265,3.5290662],[-63.786079,3.544899],[-63.7394097,3.5721222],[-63.7424653,3.5851786],[-63.7171884,3.65934],[-63.7119156,3.6999013],[-63.6941369,3.715456],[-63.6507977,3.7251825],[-63.6330239,3.7421239],[-63.5724705,3.7304531],[-63.5732996,3.7040669],[-63.5519101,3.6832265],[-63.5102449,3.68712],[-63.487743,3.6671236],[-63.4574701,3.6629549],[-63.448856,3.6476791],[-63.394693,3.6157296],[-63.3663563,3.6140662],[-63.3507973,3.6240699],[-63.3421894,3.609895],[-63.3471912,3.5885122],[-63.3230253,3.5746197],[-63.3052441,3.5812857],[-63.2752447,3.6104582],[-63.2805184,3.6218396],[-63.273016,3.6443411],[-63.2758026,3.685457],[-63.2182968,3.6757279],[-63.1991288,3.6815666],[-63.1863579,3.6732318],[-63.1824671,3.6432347],[-63.1621887,3.6310079],[-63.1496883,3.6037882],[-63.1596898,3.5965638],[-63.1660738,3.5510129],[-63.1760737,3.5393417],[-63.1719147,3.5190679],[-63.1471847,3.4918473],[-63.1482949,3.4773964],[-63.1160782,3.4646224],[-63.1035726,3.4426819],[-63.0410669,3.4073856],[-63.0110734,3.3676813],[-63.0071878,3.3485091],[-62.9755198,3.3423998],[-62.9596831,3.3168477],[-62.9194065,3.3079519],[-62.8385772,3.2646253],[-62.8257952,3.2476744],[-62.7902404,3.2368441],[-62.7371902,3.2387931],[-62.6946814,3.2196222],[-62.6491327,3.2401782],[-62.6474625,3.2335148],[-62.6363543,3.248513],[-62.6302485,3.2399027],[-62.6199624,3.2435102],[-62.5982979,3.2321205],[-62.554131,3.2326798],[-62.4721802,3.2010117],[-62.4535717,3.1810089],[-62.4474629,3.1323978],[-62.4321836,3.124343],[-62.4055157,3.1262911],[-62.3502369,3.1551783],[-62.3221865,3.1543448],[-62.3102341,3.1454592],[-62.2880171,3.152119],[-62.2477357,3.1382305]]]}},{"type":"Feature","properties":{"level":"municipio","municipality_code":"1400027","municipality_name":"Amajari","uf":"RR","state_code":"14","area_km2":28370.592},"geometry":{"type":"Polygon","coordinates":[[[-64.13056812629296,3.476176135789529],[-64.1334592,3.4881773],[-64.1584108,3.491525],[-64.1619709,3.5028917],[-64.1779864,3.5049566],[-64.1768785,3.52112],[-64.1925525,3.5234533],[-64.1736585,3.5379242],[-64.1716271,3.5560977],[-64.1862081,3.5696734],[-64.1883272,3.5831756],[-64.1983305,3.5783252],[-64.1990945,3.6016204],[-64.2214135,3.6096174],[-64.2260966,3.63109],[-64.2376595,3.6317962],[-64.2486134,3.6201257],[-64.2338154,3.6452327],[-64.2442464,3.6605913],[-64.2505679,3.6631959],[-64.2647505,3.6504674],[-64.2936853,3.6536156],[-64.3091176,3.6688709],[-64.3021302,3.6829204],[-64.3182808,3.7134955],[-64.3343455,3.7075244],[-64.3641664,3.7468195],[-64.3841369,3.7541328],[-64.3920923,3.7659215],[-64.4065902,3.767116],[-64.4137658,3.777845],[-64.438614,3.7724872],[-64.4569775,3.7821704],[-64.4742167,3.8304833],[-64.4855219,3.8201905],[-64.50201734399991,3.8254943040001796],[-64.4989649,3.8347623],[-64.525523,3.8538183],[-64.5211707,3.8605641],[-64.5343013,3.8783312],[-64.5659142,3.89999],[-64.5508236,3.9253777],[-64.5883992,3.939341],[-64.5853345,3.948283],[-64.5951521,3.9617412],[-64.640405,3.977414],[-64.6464338,3.995085],[-64.6713207,3.9906632],[-64.6803179,4.0126314],[-64.700881,4.0069171],[-64.7056228,4.0269041],[-64.7153582,4.032939],[-64.7344963,4.0227238],[-64.7472889,4.045667],[-64.7726849,4.0536406],[-64.7620909,4.0614066],[-64.7723622,4.0739494],[-64.7674992,4.109408],[-64.7799709,4.1240325],[-64.7773935,4.1412675],[-64.7848346,4.1533551],[-64.7968304,4.1526269],[-64.8021585,4.1681695],[-64.7928269,4.1831765],[-64.8056763,4.187589],[-64.8043471,4.200205],[-64.8216041,4.1948552],[-64.8269138,4.2199305],[-64.8200232,4.2286766],[-64.8261265,4.2332338],[-64.8058955,4.2563407],[-64.8122269,4.2684318],[-64.793031,4.2767527],[-64.7905402,4.2911567],[-64.755692,4.2738782],[-64.7328637,4.2768957],[-64.7271496,4.2492265],[-64.7098867,4.2308061],[-64.7069607,4.2090191],[-64.6887313,4.2042922],[-64.6882851,4.1925882],[-64.6785055,4.1908898],[-64.6625363,4.1643768],[-64.6474519,4.1549156],[-64.6385122,4.1586658],[-64.6298477,4.1152071],[-64.5910066,4.1084769],[-64.5851781,4.1149891],[-64.5637799,4.1007345],[-64.5198173,4.118625],[-64.5017942,4.1056745],[-64.4870822,4.1117391],[-64.490228,4.1323445],[-64.4740393,4.1398473],[-64.4389781,4.1153644],[-64.4212618,4.1438331],[-64.4103379,4.1336623],[-64.3793983,4.1335818],[-64.3793837,4.1431428],[-64.3611072,4.1375178],[-64.3394277,4.1464549],[-64.3354726,4.1338143],[-64.3290112,4.1374751],[-64.3091627,4.1226813],[-64.2951077,4.1611702],[-64.2624256,4.1492998],[-64.2747595,4.1359772],[-64.2482728,4.1186649],[-64.2198449,4.1218827],[-64.1768127,4.0941904],[-64.1469015,4.0967603],[-64.1359043,4.1070929],[-64.1213221,4.0716396],[-64.1057532,4.0688138],[-64.0962355,4.0419936],[-64.072767,4.0208033],[-64.0533463,3.9759422],[-64.044973,3.9674047],[-64.0355361,3.9769559],[-64.0189964,3.9715379],[-63.9963108,3.9039599],[-63.9763269,3.89818],[-63.9662432,3.8695483],[-63.9178321,3.9335593],[-63.9066373,3.9389455],[-63.8968442,3.9291427],[-63.8856727,3.9347949],[-63.8815884,3.9289974],[-63.8607973,3.9474197],[-63.8004993,3.9338517],[-63.7612189,3.9427502],[-63.7437424,3.934613],[-63.736352,3.9142004],[-63.6659931,3.9099355],[-63.6571154,3.9393591],[-63.6377643,3.9565058],[-63.6410798,3.9812209],[-63.5861188,3.9173708],[-63.5958206,3.904748],[-63.5578254,3.8875485],[-63.5507054,3.8637549],[-63.5380206,3.8654927],[-63.5299049,3.8548037],[-63.5031236,3.8494405],[-63.4986371,3.8402671],[-63.5046012,3.8648116],[-63.4843122,3.8846861],[-63.463329,3.8716831],[-63.4630433,3.8613329],[-63.4512395,3.8587289],[-63.4363794,3.8714664],[-63.4370337,3.8862424],[-63.4151343,3.901569],[-63.4179487,3.9346967],[-63.4317857,3.9374093],[-63.4511385,3.9556916],[-63.425671,3.9767943],[-63.3923152,3.979122],[-63.3338645,3.9526937],[-63.3037552,3.9211452],[-63.2834037,3.9257436],[-63.251908,3.9242223],[-63.2371954,3.9145861],[-63.2178806,3.917325],[-63.2338648,3.8790176],[-63.2260818,3.8609675],[-63.2274225,3.8329163],[-63.2035869,3.8136249],[-63.1867819,3.8165453],[-63.1675613,3.8049962],[-63.1249063,3.8045884],[-63.099509,3.7939631],[-63.0887519,3.7699726],[-63.0758919,3.7699579],[-63.0721346,3.750313],[-63.0595304,3.740656],[-63.0657762,3.7010718],[-63.0769318,3.695049],[-63.0729137,3.6867044],[-63.032918,3.6705679],[-63.0272746,3.6520741],[-62.9913829,3.6182646],[-62.950972,3.6111364],[-62.9219935,3.6501425],[-62.9215027,3.6749481],[-62.9077494,3.6707959],[-62.889217,3.6789514],[-62.8710101,3.7027914],[-62.8515808,3.7126945],[-62.8373067,3.7372082],[-62.7977565,3.7247833],[-62.7843379,3.6982998],[-62.7442769,3.6742007],[-62.7440499,3.6877611],[-62.731038,3.7045943],[-62.7403299,3.7668162],[-62.7269076,3.8042182],[-62.7740899,3.8352959],[-62.7565451,3.8458385],[-62.7564491,3.8580311],[-62.7891383,3.8937371],[-62.7835709,3.9334016],[-62.7626994,3.9411981],[-62.7470355,3.9717592],[-62.7618515,3.9839362],[-62.7681066,4.0068149],[-62.7496673,4.0215543],[-62.75055,4.0335209],[-62.7336029,4.0392937],[-62.7027127,4.0304658],[-62.6804047,4.0385537],[-62.6595208,4.0348],[-62.6441359,4.0498782],[-62.6307094,4.040249],[-62.6086693,4.0438914],[-62.5742241,4.0142324],[-62.5571435,4.0161669],[-62.5621282,4.0378055],[-62.547903,4.0449649],[-62.5387142,4.0400897],[-62.533201,4.0491634],[-62.5430403,4.0625106],[-62.5399473,4.0789697],[-62.556897,4.0793974],[-62.5480528,4.1123235],[-62.5341934,4.1126288],[-62.5416132,4.1230414],[-62.5383668,4.1357119],[-62.5102281,4.1303395],[-62.5049474,4.1462888],[-62.4863969,4.1346802],[-62.4704744,4.1363467],[-62.4571091,4.1585296],[-62.4659758,4.1646264],[-62.4632376,4.178712],[-62.4502909,4.1748015],[-62.4354251,4.1836532],[-62.3878465,4.1781536],[-62.3669035,4.1637272],[-62.3629884,4.1716627],[-62.3356975,4.1376125],[-62.2930422,4.1416277],[-62.2774556,4.1297768],[-62.2480957,4.1269782],[-62.241937,4.1166124],[-62.1977064,4.1135937],[-62.1877624,4.0962394],[-62.142475,4.0756159],[-62.1392106,4.0836642],[-62.1108363,4.0918881],[-62.1162004,4.1180936],[-62.1032808,4.1153809],[-62.0981267,4.1278019],[-62.0717611,4.1238784],[-62.072703,4.1542373],[-62.0667382,4.1577285],[-62.0475209,4.1516027],[-62.0316817,4.1584445],[-62.0245433,4.151665],[-61.9837789,4.1789092],[-61.9790708,4.16399],[-61.960959,4.1543788],[-61.9543944,4.1380003],[-61.9376653,4.1299332],[-61.9310744,4.1170618],[-61.9207815,4.1395811],[-61.9223452,4.158246],[-61.8962577,4.1617585],[-61.8734806,4.1495436],[-61.8665978,4.1759434],[-61.8356485,4.1598788],[-61.8223641,4.1633087],[-61.8156916,4.1686092],[-61.8210744,4.1986974],[-61.8092358,4.2006386],[-61.7995886,4.2253163],[-61.7686583,4.2275903],[-61.7659163,4.2358717],[-61.7751217,4.247402],[-61.7367447,4.2562546],[-61.727572,4.2672353],[-61.7214884,4.2656496],[-61.7240144,4.2440027],[-61.7016041,4.2549024],[-61.6790622,4.2534565],[-61.666393,4.2629803],[-61.6462199,4.2588989],[-61.6406525,4.2381385],[-61.6078894,4.2606294],[-61.5888379,4.243015],[-61.5529733,4.255809],[-61.5393495,4.2779144],[-61.5213948,4.287571],[-61.5266981,4.2957851],[-61.5081547,4.3218562],[-61.3482122,4.3253855],[-61.3372961,4.3115942],[-61.3026757,4.2976817],[-61.300628,4.2737825],[-61.2560074,4.2332892],[-61.2576546,4.2206338],[-61.2453199,4.2009367],[-61.259935,4.1643648],[-61.2423991,4.151832],[-61.23962,4.130584],[-61.2519,4.0983164],[-61.2291194,4.0709115],[-61.2068746,4.0658079],[-61.1964837,4.0489309],[-61.1501231,4.0243289],[-61.0740098,4.011222],[-61.0583985,4.0021825],[-61.0486212,4.0087529],[-61.0547578,4.0124538],[-61.0480659,4.0216394],[-61.0359524,4.0193308],[-61.0401787,4.0260093],[-61.0289002,4.0380182],[-61.0203414,4.0345992],[-61.0178732,4.0437034],[-60.988487,4.0321425],[-60.9761762,4.0353896],[-60.9565096,4.0218858],[-60.9297058,3.9863247],[-60.9327022,3.9343596],[-60.914234,3.9223011],[-60.8983451,3.8665484],[-60.8749301,3.8335304],[-60.8720414,3.7874083],[-60.8894239,3.7383098],[-60.8627056,3.6661868],[-60.867399,3.6455702],[-60.8045101,3.6138786],[-60.8122279,3.5949971],[-60.7981706,3.5939781],[-60.7980939,3.5800054],[-60.7658118,3.5659981],[-60.740398,3.574437],[-60.7118726,3.5526866],[-60.6973386,3.5639924],[-60.6827557,3.5460696],[-60.6727263,3.5483065],[-60.6572534,3.5332458],[-60.6322497,3.5298749],[-60.6179528,3.5032218],[-60.6091225,3.5017666],[-60.6218704,3.4842841],[-60.6221732,3.4672484],[-60.6040655,3.4453357],[-60.5949542,3.4012939],[-60.6091753,3.4066508],[-60.6243699,3.4259149],[-60.6541783,3.436632],[-60.666595,3.4544139],[-60.6958695,3.4733512],[-60.7254257,3.4796625],[-60.7431478,3.4983233],[-60.7787452,3.4984851],[-60.8010344,3.4848701],[-60.8501201,3.4775637],[-60.8809848,3.4806001],[-60.9093303,3.4635118],[-60.9284492,3.4793388],[-60.9461214,3.48008],[-61.0216192,3.4385078],[-61.0566171,3.4421198],[-61.1318971,3.4335112],[-61.1649521,3.452675],[-61.2188459,3.449622],[-61.2360647,3.4429593],[-61.2677341,3.4001757],[-61.3188407,3.3560136],[-61.3494018,3.3537941],[-61.3791227,3.3654562],[-61.4057866,3.3501779],[-61.4560638,3.348236],[-61.4757893,3.3373994],[-61.4863499,3.340456],[-61.507459,3.3143467],[-61.519678,3.3071245],[-61.5324539,3.3104548],[-61.5371804,3.3012909],[-61.5566219,3.3137852],[-61.5649533,3.3065658],[-61.5871816,3.3140636],[-61.5944059,3.3090689],[-61.6263444,3.3571258],[-61.6616252,3.3301747],[-61.6899582,3.3207324],[-61.7119014,3.3351797],[-61.7149624,3.3249031],[-61.7305175,3.3198959],[-61.7980143,3.3301756],[-61.8238473,3.3221239],[-61.8507926,3.2632331],[-61.8685676,3.2682355],[-61.893575,3.29129],[-61.9130172,3.2899005],[-61.9249616,3.2801784],[-61.9327391,3.2885076],[-61.9441283,3.2782375],[-61.9471817,3.2565673],[-61.9571786,3.251017],[-61.969963,3.2612886],[-62.0171868,3.2490662],[-62.060797,3.2635152],[-62.0821801,3.2474067],[-62.1305144,3.2346263],[-62.1663452,3.2001776],[-62.1994097,3.1840626],[-62.21468,3.1621227],[-62.241905,3.1540672],[-62.2494035,3.1374038],[-62.2880171,3.152119],[-62.3102341,3.1454592],[-62.3221865,3.1543448],[-62.3502369,3.1551783],[-62.4055157,3.1262911],[-62.4321836,3.124343],[-62.4474629,3.1323978],[-62.4535717,3.1810089],[-62.4744073,3.2026751],[-62.5005174,3.2068442],[-62.554131,3.2326798],[-62.5982979,3.2321205],[-62.6199624,3.2435102],[-62.6302485,3.2399027],[-62.6352385,3.2485144],[-62.6474625,3.2335148],[-62.6491327,3.2401782],[-62.6946814,3.2196222],[-62.7371902,3.2387931],[-62.7935753,3.2373964],[-62.8105236,3.2482357],[-62.8257952,3.2476744],[-62.8385772,3.2646253],[-62.9194065,3.3079519],[-62.9596831,3.3168477],[-62.9755198,3.3423998],[-63.0071878,3.3485091],[-63.0110734,3.3676813],[-63.0410669,3.4073856],[-63.1035726,3.4426819],[-63.1160782,3.4646224],[-63.1482949,3.4773964],[-63.1471847,3.4918473],[-63.1719147,3.5190679],[-63.1760737,3.5393417],[-63.1660738,3.5510129],[-63.1596898,3.5965638],[-63.1496883,3.6037882],[-63.1621887,3.6310079],[-63.1824671,3.6432347],[-63.1863579,3.6732318],[-63.2016301,3.6823982],[-63.2182968,3.6757279],[-63.2758026,3.685457],[-63.273016,3.6443411],[-63.2805184,3.6218396],[-63.2752447,3.6104582],[-63.3052441,3.5812857],[-63.3230253,3.5746197],[-63.3471912,3.5885122],[-63.3421894,3.609895],[-63.3507973,3.6240699],[-63.3663563,3.6140662],[-63.394693,3.6157296],[-63.448856,3.6476791],[-63.4574701,3.6629549],[-63.487743,3.6671236],[-63.5102449,3.68712],[-63.5519101,3.6832265],[-63.5732996,3.7040669],[-63.5724705,3.7304531],[-63.6330239,3.7421239],[-63.6507977,3.7251825],[-63.6941369,3.715456],[-63.7119156,3.6999013],[-63.7171884,3.65934],[-63.7424653,3.5851786],[-63.7394097,3.5721222],[-63.786079,3.544899],[-63.7880265,3.5290662],[-63.8060766,3.5396182],[-63.8080241,3.5196222],[-63.8230252,3.5185132],[-63.8349701,3.5007318],[-63.8305225,3.4954564],[-63.845803,3.4557283],[-63.8763612,3.4249019],[-63.901916,3.420176],[-63.9344125,3.4451744],[-63.9552463,3.4476765],[-63.9699683,3.4337871],[-63.9816333,3.4390659],[-64.0005283,3.433506],[-64.0174735,3.4512895],[-64.0724714,3.4807296],[-64.13056812629296,3.476176135789529]]]}},{"type":"Feature","properties":{"level":"municipio","municipality_code":"1400100","municipality_name":"Boa Vista","uf":"RR","state_code":"14","area_km2":5687.037},"geometry":{"type":"Polygon","coordinates":[[[-60.6958695,3.4733512],[-60.6541783,3.436632],[-60.6243699,3.4259149],[-60.5953689,3.4002211],[-60.6032619,3.4565],[-60.5789824,3.4698291],[-60.5785066,3.4789343],[-60.5521726,3.4801791],[-60.5466167,3.5014846],[-60.554476,3.5082491],[-60.5529819,3.5186386],[-60.5383425,3.5253711],[-60.5281757,3.5542953],[-60.5143431,3.5428367],[-60.5132012,3.5674035],[-60.4920931,3.5813464],[-60.4834275,3.6056614],[-60.4757884,3.6060473],[-60.4506201,3.5801027],[-60.4361985,3.577471],[-60.4282277,3.5867653],[-60.4179224,3.5767009],[-60.4102347,3.5801724],[-60.4068966,3.5676818],[-60.3957884,3.5726742],[-60.3785578,3.5657293],[-60.3813419,3.5557329],[-60.3727288,3.5479548],[-60.357177,3.5415632],[-60.3530073,3.5515686],[-60.3377275,3.5454533],[-60.322454,3.5296215],[-60.3299504,3.5148985],[-60.3210631,3.5062926],[-60.31078,3.5082324],[-60.2857838,3.4496245],[-60.2993934,3.4390705],[-60.3024526,3.4240647],[-60.321614,3.4146264],[-60.3213439,3.3690707],[-60.3446716,3.3404614],[-60.345785,3.3176752],[-60.3960648,3.3004565],[-60.4105074,3.2796276],[-60.4088409,3.2551841],[-60.3846718,3.210737],[-60.3852302,3.1818455],[-60.3738346,3.1649002],[-60.4399469,3.0743456],[-60.4485655,3.0454614],[-60.4885612,3.016841],[-60.5043962,2.9732397],[-60.5499501,2.9029567],[-60.6038385,2.8565725],[-60.6493964,2.8349031],[-60.6710656,2.7990714],[-60.6946717,2.7282338],[-60.7752327,2.643516],[-60.8243961,2.5468522],[-60.8280055,2.4554585],[-60.8507858,2.4285124],[-60.8682861,2.4346299],[-60.85773,2.4485202],[-60.8844005,2.4715682],[-60.8988476,2.4762931],[-60.9068957,2.4660198],[-60.9141181,2.4699058],[-60.8943954,2.491575],[-60.8952313,2.5101827],[-60.9443922,2.5212903],[-60.9274518,2.5496261],[-60.9274577,2.5640722],[-60.9155121,2.5651871],[-60.9171765,2.6276861],[-60.9430084,2.6512894],[-60.9602315,2.645189],[-60.9702303,2.6657342],[-61.0005115,2.6816681],[-61.0005369,3.4479384],[-60.9461214,3.48008],[-60.9284492,3.4793388],[-60.9079507,3.4636395],[-60.8878942,3.478886],[-60.8010344,3.4848701],[-60.7688652,3.4993986],[-60.7431478,3.4983233],[-60.7238692,3.4787206],[-60.6958695,3.4733512]]]}},{"type":"Feature","properties":{"level":"municipio","municipality_code":"1400159","municipality_name":"Bonfim","uf":"RR","state_code":"14","area_km2":8079.84},"geometry":{"type":"Polygon","coordinates":[[[-59.7346883,1.9996341],[-60.156639,1.9996416],[-60.1603681,2.0277033],[-60.1750335,2.0434998],[-60.2153119,2.0502285],[-60.2509806,2.024802],[-60.263923,2.0429938],[-60.291531,2.0575204],[-60.2703101,2.0717633],[-60.2181754,2.1506658],[-60.1766988,2.144695],[-60.1576102,2.1591403],[-60.1497848,2.1780022],[-60.1507602,2.1923038],[-60.1629757,2.1851127],[-60.1657832,2.2401695],[-60.1800628,2.23669],[-60.1929189,2.2474177],[-60.1968372,2.2385891],[-60.2061969,2.2473235],[-60.2093974,2.3059071],[-60.1977388,2.3037003],[-60.1778389,2.3427569],[-60.1695844,2.3425236],[-60.1677495,2.3566417],[-60.1764479,2.3634805],[-60.1776673,2.3833059],[-60.1991148,2.3975642],[-60.1948957,2.4698563],[-60.2018344,2.5094838],[-60.1951676,2.5410094],[-60.2266714,2.5678146],[-60.2217527,2.5936176],[-60.2485297,2.6062137],[-60.2606481,2.6017045],[-60.312446,2.6467306],[-60.3352309,2.638933],[-60.3562156,2.6451024],[-60.4102806,2.6383403],[-60.3757254,2.6807907],[-60.3543733,2.6910519],[-60.3417576,2.7391153],[-60.3295103,2.7512174],[-60.3571703,2.792706],[-60.5385087,2.8494872],[-60.5586238,2.8612057],[-60.5682859,2.8849078],[-60.5043962,2.9732397],[-60.4885612,3.016841],[-60.4485655,3.0454614],[-60.4399469,3.0743456],[-60.3738346,3.1649002],[-60.3852302,3.1818455],[-60.3846718,3.210737],[-60.4107816,3.2632324],[-60.4013398,3.2965644],[-60.3482804,3.3151784],[-60.3430104,3.3437879],[-60.3052242,3.3826782],[-60.1971694,3.4068501],[-60.1857884,3.417128],[-60.1760288,3.4454806],[-60.1560594,3.4626836],[-60.1393902,3.4610094],[-60.0832812,3.4935141],[-60.0524476,3.5271238],[-60.0368896,3.5276744],[-59.9998352,3.5527375],[-59.9752273,3.5565674],[-59.9582834,3.5726812],[-59.9371682,3.5587925],[-59.923002,3.5785123],[-59.9055005,3.5862893],[-59.8857787,3.5637913],[-59.8425387,3.5530368],[-59.8361262,3.5251532],[-59.8054175,3.5107162],[-59.8022206,3.4914737],[-59.8274463,3.4794553],[-59.8150163,3.478898],[-59.8101571,3.469833],[-59.8239462,3.4718212],[-59.8416978,3.4278701],[-59.834741,3.421815],[-59.8111265,3.4272809],[-59.8220339,3.4129249],[-59.8043777,3.3607577],[-59.8098457,3.3518778],[-59.8341974,3.3527069],[-59.8276015,3.3309087],[-59.8528593,3.3030853],[-59.8588601,3.2780147],[-59.8721506,3.2771455],[-59.8814449,3.2582615],[-59.87858,3.245978],[-59.8878619,3.241685],[-59.8750503,3.2241795],[-59.908113,3.2122696],[-59.9125803,3.1915386],[-59.899858,3.153516],[-59.9212054,3.1471693],[-59.9070678,3.1437709],[-59.9193825,3.1323802],[-59.9087813,3.125208],[-59.9080778,3.1127811],[-59.9153506,3.1105874],[-59.9206221,3.1223123],[-59.92314,3.1084736],[-59.9294489,3.1109206],[-59.9395242,3.0997944],[-59.9377991,3.0884332],[-59.9556293,3.0822329],[-59.9515069,3.0422011],[-59.962354,3.0169214],[-59.9468209,2.9998273],[-59.9648869,2.9637261],[-59.9601577,2.9524237],[-59.9840416,2.9297296],[-59.9867185,2.9087903],[-59.9778252,2.8966253],[-59.9898415,2.8825568],[-59.9824949,2.8701538],[-59.9916856,2.8359194],[-59.9919506,2.6870447],[-59.9739976,2.6670215],[-59.9774954,2.6405619],[-59.9577304,2.6096496],[-59.967629,2.6082695],[-59.9722213,2.5943853],[-59.9430087,2.5845605],[-59.9290327,2.5694731],[-59.9384375,2.5529537],[-59.9182787,2.5264084],[-59.9205535,2.5080485],[-59.8969108,2.4809764],[-59.9008899,2.4371088],[-59.8911864,2.424876],[-59.8978905,2.4239658],[-59.896307,2.408165],[-59.9093203,2.389234],[-59.8988304,2.3625864],[-59.8816726,2.3526398],[-59.8719787,2.3606776],[-59.8539186,2.3313389],[-59.8435679,2.3290403],[-59.8443246,2.3208455],[-59.8290342,2.3291831],[-59.7870486,2.2836497],[-59.7697737,2.2953138],[-59.7505822,2.2876817],[-59.740617,2.2928309],[-59.7239781,2.2781411],[-59.729527,2.2646448],[-59.7198977,2.2373755],[-59.7302236,2.2312359],[-59.7262618,2.2069368],[-59.7418607,2.1625127],[-59.7394908,2.1466369],[-59.7252741,2.1321436],[-59.7218007,2.103461],[-59.7364772,2.088957],[-59.7426186,2.0686899],[-59.7297338,2.0303622],[-59.7208146,2.0276106],[-59.7337237,2.0182588],[-59.7346883,1.9996341]]]}},{"type":"Feature","properties":{"level":"municipio","municipality_code":"1400175","municipality_name":"Cantá","uf":"RR","state_code":"14","area_km2":7664.831},"geometry":{"type":"Polygon","coordinates":[[[-60.6558282,1.8976075],[-60.7396181,1.8973076],[-60.7500685,1.9058087],[-60.7604475,1.9577096],[-60.7424001,1.999479],[-60.7887609,1.9992379],[-60.830843,1.9833143],[-60.9267823,1.9844944],[-60.938868,1.966514],[-60.955954,1.9640541],[-60.9781256,1.9457938],[-61.018565,1.9781112],[-61.0529923,2.0629358],[-61.0159233,2.1450013],[-60.9096827,2.2356488],[-60.8907844,2.2837945],[-60.8457843,2.3135159],[-60.8357889,2.3618493],[-60.8474486,2.381575],[-60.8468946,2.3985135],[-60.8280055,2.4554585],[-60.8243961,2.5468522],[-60.7752327,2.643516],[-60.6946717,2.7282338],[-60.6710656,2.7990714],[-60.6493964,2.8349031],[-60.6038385,2.8565725],[-60.5682859,2.8849078],[-60.5586238,2.8612057],[-60.5385087,2.8494872],[-60.3571703,2.792706],[-60.3295103,2.7512174],[-60.3417576,2.7391153],[-60.3543733,2.6910519],[-60.3757254,2.6807907],[-60.4102806,2.6383403],[-60.3562156,2.6451024],[-60.3352309,2.638933],[-60.312446,2.6467306],[-60.2606481,2.6017045],[-60.2485297,2.6062137],[-60.2217527,2.5936176],[-60.2266714,2.5678146],[-60.1951676,2.5410094],[-60.2018344,2.5094838],[-60.1948957,2.4698563],[-60.1991148,2.3975642],[-60.1776673,2.3833059],[-60.1764479,2.3634805],[-60.1677495,2.3566417],[-60.1695844,2.3425236],[-60.1778389,2.3427569],[-60.1977388,2.3037003],[-60.2093974,2.3059071],[-60.2061969,2.2473235],[-60.1968372,2.2385891],[-60.1929189,2.2474177],[-60.1800628,2.23669],[-60.1657832,2.2401695],[-60.1629757,2.1851127],[-60.1507602,2.1923038],[-60.1497848,2.1780022],[-60.1576102,2.1591403],[-60.1766988,2.144695],[-60.2181754,2.1506658],[-60.2703101,2.0717633],[-60.291531,2.0575204],[-60.263923,2.0429938],[-60.2509806,2.024802],[-60.2153119,2.0502285],[-60.1750335,2.0434998],[-60.1599761,2.0267167],[-60.157034,1.9949394],[-60.1664797,1.9579299],[-60.2228645,1.9038657],[-60.2300375,1.8836648],[-60.2563519,1.8662984],[-60.280224,1.837584],[-60.3021179,1.8274913],[-60.3438445,1.7770514],[-60.3583027,1.7762539],[-60.3891197,1.7369181],[-60.4163922,1.7465766],[-60.4798119,1.7319628],[-60.491703,1.7219381],[-60.4930638,1.7097759],[-60.5262849,1.724273],[-60.5369536,1.7086935],[-60.5836197,1.7097811],[-60.5550888,1.7369654],[-60.547478,1.7608524],[-60.5751485,1.7904766],[-60.5775325,1.833503],[-60.5898123,1.851211],[-60.6385876,1.8702898],[-60.6558282,1.8976075]]]}},{"type":"Feature","properties":{"level":"municipio","municipality_code":"1400209","municipality_name":"Caracaraí","uf":"RR","state_code":"14","area_km2":47385.317},"geometry":{"type":"Polygon","coordinates":[[[-61.9667474,-1.2432476],[-61.9880169,-1.216741],[-62.0174603,-1.141744],[-62.062179,-1.0997992],[-62.0996815,-1.0967433],[-62.1146772,-1.0834062],[-62.1113467,-1.0603609],[-62.1255177,-1.0373019],[-62.1430091,-1.0373036],[-62.1719075,-1.0059124],[-62.1999604,-1.0003542],[-62.2038518,-0.9828517],[-62.2274549,-0.9734411],[-62.2591241,-0.9759149],[-62.2721852,-0.9520217],[-62.2860729,-0.9439697],[-62.2938472,-0.9481297],[-62.3127423,-0.930355],[-62.3171788,-0.9142457],[-62.3285742,-0.9156341],[-62.3566288,-0.8750771],[-62.3649621,-0.8773045],[-62.3763474,-0.8661923],[-62.3699632,-0.859246],[-62.3805119,-0.8436894],[-62.3760672,-0.8364693],[-62.4332906,-0.8039684],[-62.4427378,-0.8020265],[-62.4482994,-0.8100744],[-62.4616298,-0.8017453],[-62.4655125,-0.7889712],[-62.4807979,-0.7950775],[-62.4957928,-0.7870216],[-62.5102377,-0.7589685],[-62.4949568,-0.7506342],[-62.5082918,-0.7142492],[-62.4866273,-0.6814673],[-62.4702738,-0.6911766],[-62.4620158,-0.6852156],[-62.4271271,-0.6897596],[-62.4029884,-0.7223981],[-62.3821725,-0.7031962],[-62.3729861,-0.7094991],[-62.3570076,-0.7023656],[-62.3711293,-0.6891733],[-62.3698832,-0.6678458],[-62.3535627,-0.6752726],[-62.3429104,-0.6657448],[-62.3419332,-0.6731227],[-62.3266877,-0.6529922],[-62.3116376,-0.6587089],[-62.292874,-0.6477152],[-62.2893558,-0.6224054],[-62.301816,-0.6148808],[-62.2906262,-0.5984635],[-62.3123217,-0.5759385],[-62.3065558,-0.5594233],[-62.3184297,-0.5446183],[-62.3099274,-0.542273],[-62.308999,-0.5303019],[-62.2999103,-0.5294224],[-62.3072399,-0.5081186],[-62.2968319,-0.5078255],[-62.2853001,-0.4929714],[-62.2845671,-0.4716187],[-62.2673671,-0.4692245],[-62.2804626,-0.4433275],[-62.270983,-0.4496796],[-62.2628716,-0.4349232],[-62.2567636,-0.4406401],[-62.2448165,-0.4326022],[-62.2420312,-0.4202401],[-62.2259062,-0.4209241],[-62.2214107,-0.4039689],[-62.2118823,-0.4014769],[-62.2139834,-0.387209],[-62.2015232,-0.3867204],[-62.2081686,-0.367615],[-62.1943402,-0.3593572],[-62.1942913,-0.3346326],[-62.1869129,-0.325593],[-62.2193096,-0.3056569],[-62.2308414,-0.3157227],[-62.2480628,-0.2963393],[-62.24281,-0.2905246],[-62.253389,-0.2700021],[-62.2372639,-0.2517761],[-62.2506526,-0.2480136],[-62.2530225,-0.2129053],[-62.2431765,-0.2058201],[-62.241564,-0.1704673],[-62.2778209,-0.1498469],[-62.2940436,-0.1195515],[-62.3197948,-0.0963412],[-62.3121232,-0.0868128],[-62.3215539,-0.0774798],[-62.3145664,-0.0690264],[-62.3278573,-0.0642866],[-62.3306914,-0.0548071],[-62.3201369,-0.0575923],[-62.3130516,-0.0469889],[-62.3206255,-0.0430798],[-62.336604,0.021567],[-62.3658734,0.0557716],[-62.4092644,0.0750728],[-62.4217735,0.0978432],[-62.4285756,0.1735341],[-62.4527436,0.2074142],[-62.4544158,0.2435529],[-62.4682903,0.2757532],[-62.4585849,0.3134941],[-62.4668891,0.3329678],[-62.4463713,0.3791138],[-62.456074,0.392411],[-62.4585682,0.4176914],[-62.485246,0.4540804],[-62.5093851,0.4404992],[-62.5186613,0.4437009],[-62.5330086,0.5088084],[-62.5182977,0.5838169],[-62.5382905,0.6751955],[-62.5333109,0.7013007],[-62.5004942,0.7479483],[-62.4577351,0.7851979],[-62.4660739,0.8290772],[-62.4860709,0.8579653],[-62.4710538,0.9171288],[-62.4427354,0.9585339],[-62.4458079,0.9768413],[-62.4777302,1.0279474],[-62.4716209,1.0862816],[-62.529669,1.0888183],[-62.5869072,1.2554775],[-62.6107924,1.3526494],[-62.6205211,1.3626934],[-62.6202536,1.4037833],[-62.6399648,1.4382383],[-62.6769036,1.4546309],[-62.7207753,1.4885447],[-62.7308005,1.499632],[-62.7363493,1.5296296],[-62.6723,1.5346],[-62.575,1.5978],[-62.3988,1.684],[-62.2882,1.7572],[-62.0745,1.8658],[-61.9584,1.9141],[-61.8956,1.9227],[-61.874,1.9341],[-61.8148,1.9323],[-61.7636,1.9502],[-61.753,1.9409],[-61.7241,1.9373],[-61.6151,1.9384],[-61.5928,1.9483],[-61.5864,1.9603],[-61.5533,1.9682],[-61.5341,1.9889],[-61.4911492,2.0104752],[-61.4486462,2.0097634],[-61.4148084,2.0256347],[-61.3660637,1.9969443],[-61.2318219,1.9707287],[-61.0221179,1.9996312],[-61.018565,1.9781112],[-60.9781256,1.9457938],[-60.955954,1.9640541],[-60.938868,1.966514],[-60.9267823,1.9844944],[-60.830843,1.9833143],[-60.7887609,1.9992379],[-60.7424001,1.999479],[-60.7604475,1.9577096],[-60.7500685,1.9058087],[-60.7396181,1.8973076],[-60.6548339,1.8977658],[-60.6385876,1.8702898],[-60.5918932,1.8529543],[-60.5775325,1.833503],[-60.5751485,1.7904766],[-60.5593133,1.7788615],[-60.5453946,1.7533925],[-60.577915,1.7208862],[-60.5836197,1.7097811],[-60.5785653,1.7063477],[-60.5643953,1.7124533],[-60.5369536,1.7086935],[-60.5262849,1.724273],[-60.4930638,1.7097759],[-60.4848654,1.7301115],[-60.4163922,1.7465766],[-60.3891197,1.7369181],[-60.3583027,1.7762539],[-60.3438445,1.7770514],[-60.3021179,1.8274913],[-60.280224,1.837584],[-60.2256133,1.8886352],[-60.2228645,1.9038657],[-60.1664797,1.9579299],[-60.156639,1.9996416],[-59.7346883,1.9996341],[-59.7387734,1.947874],[-59.7513656,1.9065904],[-59.7262562,1.873777],[-59.7374713,1.8611618],[-59.7360387,1.8505176],[-59.724097,1.8408336],[-59.7030143,1.8516647],[-59.6938566,1.843292],[-59.6720155,1.8414641],[-59.6630097,1.8692862],[-59.6645074,1.8604106],[-59.6497809,1.843163],[-59.6601209,1.8239216],[-59.6539444,1.8164444],[-59.679836,1.806877],[-59.6914172,1.7566346],[-59.6672573,1.7545543],[-59.6638752,1.7365558],[-59.6576637,1.7429744],[-59.6332544,1.7413119],[-59.6188171,1.7149563],[-59.5665195,1.7354902],[-59.5568643,1.723609],[-59.5380039,1.7213282],[-59.5112539,1.6675911],[-59.4984351,1.6771062],[-59.4928702,1.6733217],[-59.4963399,1.6534663],[-59.4837382,1.627998],[-59.4664401,1.6169602],[-59.445172,1.6172206],[-59.4371066,1.5935502],[-59.4263947,1.5865755],[-59.4304539,1.5642187],[-59.4137414,1.5514058],[-59.4477253,1.545744],[-59.4666148,1.559353],[-59.4657754,1.5721288],[-59.4857636,1.5957268],[-59.5238338,1.591025],[-59.5957752,1.6090757],[-59.6152249,1.6265735],[-59.6305045,1.6240739],[-59.6480015,1.6074116],[-59.6621715,1.6099101],[-59.6599482,1.6215797],[-59.6680015,1.6251848],[-59.7085527,1.6043535],[-59.7193907,1.6104692],[-59.7646721,1.6063005],[-59.7760619,1.5915742],[-59.7657823,1.5793578],[-59.7674479,1.5635242],[-59.7907793,1.5587974],[-59.797165,1.534352],[-59.8146721,1.5312994],[-59.8035593,1.5090784],[-59.8210587,1.4796367],[-59.8177234,1.451303],[-59.7924501,1.4318516],[-59.7943858,1.4121316],[-59.7810569,1.4062983],[-59.7743883,1.3882466],[-59.7788369,1.3807388],[-59.7721697,1.3662956],[-59.7805007,1.3626846],[-59.7907758,1.3387996],[-59.7860552,1.3332493],[-59.793558,1.3293547],[-59.7796695,1.3140796],[-59.7868939,1.2838024],[-59.7793925,1.2760274],[-59.7855053,1.2651887],[-59.807173,1.2629629],[-59.8055001,1.254915],[-59.8241127,1.2563032],[-59.8421665,1.1996353],[-59.8666155,1.1871312],[-59.8782781,1.2126912],[-59.8902231,1.1968585],[-59.8966136,1.202415],[-59.9138397,1.1910254],[-59.9391187,1.1924092],[-59.9513385,1.1840796],[-59.9463337,1.1760228],[-59.9613331,1.1779696],[-59.9749469,1.1393604],[-59.9924448,1.1243558],[-60.0127275,1.1174158],[-60.0141167,1.1240774],[-60.0277288,1.1249127],[-60.0818884,1.1024182],[-60.1152248,1.1032445],[-60.1230065,1.0957499],[-60.2146858,1.1290792],[-60.2380035,1.1299112],[-60.2452246,1.1201946],[-60.2768921,1.1315785],[-60.2916125,1.115465],[-60.2999459,1.1221359],[-60.294947,1.129355],[-60.3005085,1.1371373],[-60.3135599,1.132138],[-60.3202291,1.1479714],[-60.3246699,1.1379654],[-60.3441198,1.1326915],[-60.3524457,1.1435228],[-60.3574482,1.129911],[-60.3763374,1.1393516],[-60.3999488,1.1315791],[-60.4155029,1.1235203],[-60.4177291,1.1018559],[-60.4332821,1.1065763],[-60.4510643,1.0979628],[-60.4527251,1.0804709],[-60.467452,1.0813022],[-60.4643911,1.0699134],[-60.4807808,1.0590787],[-60.482454,1.0457492],[-60.5099492,1.0257421],[-60.5138422,0.9901867],[-60.5227273,0.9857485],[-60.536065,0.9926946],[-60.5430016,0.9657428],[-60.561059,0.9551881],[-60.5543925,0.9551919],[-60.5613439,0.9390758],[-60.5735611,0.9435261],[-60.5688374,0.9360251],[-60.5932804,0.9235276],[-60.6021744,0.9324139],[-60.5971734,0.9201865],[-60.6027327,0.9043559],[-60.6357879,0.8960213],[-60.6507863,0.9029648],[-60.6691146,0.8788034],[-60.6774478,0.8860274],[-60.6821741,0.8763018],[-60.6843981,0.8840765],[-60.6818944,0.8746397],[-60.6885636,0.8726868],[-60.6910644,0.8835246],[-60.7060622,0.8701947],[-60.7141203,0.8793605],[-60.7168993,0.8668621],[-60.7418946,0.9026892],[-60.7266205,0.9210225],[-60.7299502,0.9343545],[-60.768005,0.9360236],[-60.7902292,0.9718594],[-60.81051,0.9821365],[-60.8230084,1.0035184],[-60.8163445,1.0307437],[-60.8196734,1.0626881],[-60.8407822,1.0760207],[-60.8435663,1.0918556],[-60.8749524,1.1238056],[-60.8852292,1.1301902],[-60.9049539,1.1207433],[-60.9068945,1.093247],[-60.9316175,1.0721358],[-60.9852312,1.0924106],[-60.991623,1.0826904],[-61.0030132,1.0893524],[-61.0118966,1.0843599],[-61.0185643,1.1032487],[-61.0224539,1.0840823],[-61.0441214,1.0824075],[-61.037174,1.070189],[-61.049398,1.0604684],[-61.046894,1.0457437],[-61.0655059,1.0357477],[-61.0580115,1.0271303],[-61.0693972,1.0199162],[-61.0635665,1.0118595],[-61.0791121,1.0157476],[-61.089121,1.0096319],[-61.0888457,0.9974082],[-61.1146782,0.9824098],[-61.1085638,0.9629658],[-61.1299561,0.9635216],[-61.119953,0.957135],[-61.1280124,0.943802],[-61.1432827,0.951855],[-61.1530081,0.9360229],[-61.1568987,0.9540791],[-61.1749577,0.9538001],[-61.1768984,0.9624118],[-61.1924504,0.9499135],[-61.2030124,0.9779679],[-61.2260656,1.0018554],[-61.2424575,0.9910265],[-61.2563469,0.9665771],[-61.2630145,0.9671352],[-61.2643954,0.9788064],[-61.2885649,0.9785289],[-61.3174588,0.9951863],[-61.3457869,0.9796322],[-61.3646818,0.9587985],[-61.3757871,0.9254712],[-61.4243965,0.8699095],[-61.45384,0.785476],[-61.5005149,0.7235273],[-61.559403,0.6793542],[-61.6127358,0.6104687],[-61.6263424,0.5615851],[-61.6502348,0.5154701],[-61.6838478,0.4896344],[-61.7113506,0.4357475],[-61.7294018,0.3651956],[-61.7588508,0.3096353],[-61.7777333,0.1676971],[-61.7699596,0.0974164],[-61.7737882,0.0584338],[-61.8160687,-0.0384149],[-61.789956,-0.1011971],[-61.8344015,-0.245638],[-61.8380109,-0.2717443],[-61.829959,-0.3175809],[-61.8463478,-0.3767446],[-61.8355155,-0.4064672],[-61.8002341,-0.4564737],[-61.824957,-0.5259135],[-61.8091268,-0.5989711],[-61.8677365,-0.7239672],[-61.8480177,-0.8217408],[-61.8821819,-0.8778564],[-61.8832915,-0.8964713],[-61.8696857,-0.9317457],[-61.8896815,-1.0003445],[-61.8588429,-1.0573011],[-61.8813429,-1.1267464],[-61.8499608,-1.1986864],[-61.8391201,-1.2584081],[-61.8724544,-1.3303587],[-61.8646682,-1.3681475],[-61.8399376,-1.4010596],[-61.8966239,-1.3953553],[-61.909129,-1.3486851],[-61.9499562,-1.2970205],[-61.9667474,-1.2432476]]]}},{"type":"Feature","properties":{"level":"municipio","municipality_code":"1400233","municipality_name":"Caroebe","uf":"RR","state_code":"14","area_km2":12064.432},"geometry":{"type":"Polygon","coordinates":[[[-58.8954648,0.2635103],[-59.4335537,0.2635403],[-59.4374467,0.290334],[-59.4710824,0.345524],[-59.4525562,0.3996246],[-59.4643889,0.4281214],[-59.5048916,0.4369052],[-59.5227201,0.4900313],[-59.5456387,0.5215177],[-59.5661687,0.5254537],[-59.5885255,0.5445942],[-59.5942525,0.5635908],[-59.6149454,0.5702283],[-59.6503969,0.5705625],[-59.6868775,0.5404542],[-59.7059951,0.5477937],[-59.7435277,0.5421779],[-59.8146111,0.6183251],[-59.779533,0.8201275],[-59.7628182,0.8381348],[-59.771151,0.8514869],[-59.755247,0.9193081],[-59.7522206,1.0009651],[-59.7390322,1.0758846],[-59.7527799,1.1894673],[-59.776474,1.2768159],[-59.7868939,1.2838024],[-59.7796695,1.3140796],[-59.793558,1.3293547],[-59.7860552,1.3332493],[-59.7907758,1.3387996],[-59.7805007,1.3626846],[-59.7721697,1.3662956],[-59.7788369,1.3807388],[-59.7743883,1.3882466],[-59.7810569,1.4062983],[-59.7943858,1.4121316],[-59.7924501,1.4318516],[-59.8177234,1.451303],[-59.8210587,1.4796367],[-59.8035593,1.5090784],[-59.8146721,1.5312994],[-59.797165,1.534352],[-59.7907793,1.5587974],[-59.7674479,1.5635242],[-59.7657823,1.5793578],[-59.7760619,1.5915742],[-59.7646721,1.6063005],[-59.7193907,1.6104692],[-59.7085527,1.6043535],[-59.6680015,1.6251848],[-59.6599482,1.6215797],[-59.6621715,1.6099101],[-59.6480015,1.6074116],[-59.6305045,1.6240739],[-59.6152249,1.6265735],[-59.5957752,1.6090757],[-59.5238338,1.591025],[-59.4857636,1.5957268],[-59.4657754,1.5721288],[-59.4666148,1.559353],[-59.4477253,1.545744],[-59.397542,1.5549671],[-59.396943,1.5386788],[-59.3791741,1.5184335],[-59.3838074,1.5067762],[-59.3626093,1.5091365],[-59.3613452,1.5035061],[-59.3588384,1.5169327],[-59.3296377,1.5143185],[-59.3221665,1.4820245],[-59.3278398,1.4629615],[-59.3028929,1.4661132],[-59.2866263,1.4537567],[-59.2886817,1.4390605],[-59.2747265,1.4188987],[-59.2832579,1.4083526],[-59.2528312,1.3879746],[-59.2071058,1.371616],[-59.194682,1.3786096],[-59.1748797,1.3592744],[-59.1608568,1.3601795],[-59.1444902,1.3465837],[-59.1310754,1.3530716],[-59.1161498,1.3430207],[-59.0878768,1.3470765],[-59.0795152,1.3324833],[-59.0579797,1.3348366],[-59.0478612,1.32156],[-59.0218876,1.3308702],[-59.0095386,1.3230962],[-58.9953087,1.3281547],[-58.9795685,1.3020373],[-58.9620097,1.3138403],[-58.9182009,1.3164083],[-58.9239584,1.2901921],[-58.8998098,1.2793302],[-58.8879891,1.2618663],[-58.9077595,1.2506649],[-58.9120173,1.2381905],[-58.8954979,1.2274968],[-58.8954648,0.2635103]]]}},{"type":"Feature","properties":{"level":"municipio","municipality_code":"1400282","municipality_name":"Iracema","uf":"RR","state_code":"14","area_km2":14018.766},"geometry":{"type":"Polygon","coordinates":[[[-62.0310614,2.2216229],[-61.9314899,2.2604066],[-61.8952971,2.2954361],[-61.8707056,2.3012509],[-61.8504424,2.3242827],[-61.8403358,2.3252639],[-61.8368034,2.3412578],[-61.8110602,2.3539468],[-61.776449,2.4029648],[-61.7210236,2.4368321],[-61.6236172,2.4530036],[-61.5078919,2.4501656],[-61.4115492,2.4090864],[-61.3387128,2.2636722],[-61.3197376,2.2768721],[-61.2769466,2.2683639],[-61.2521768,2.2795121],[-61.2270099,2.2794598],[-61.1992506,2.2545393],[-61.0510602,2.2980496],[-60.9540175,2.2372209],[-60.9382662,2.2152771],[-61.0159233,2.1450013],[-61.048103,2.0833101],[-61.0514588,2.0509192],[-61.0221179,1.9996312],[-61.2318219,1.9707287],[-61.3660637,1.9969443],[-61.4148084,2.0256347],[-61.4486462,2.0097634],[-61.4911492,2.0104752],[-61.5341,1.9889],[-61.5533,1.9682],[-61.5864,1.9603],[-61.5928,1.9483],[-61.6151,1.9384],[-61.7241,1.9373],[-61.753,1.9409],[-61.7636,1.9502],[-61.8148,1.9323],[-61.874,1.9341],[-61.8956,1.9227],[-61.9584,1.9141],[-62.0745,1.8658],[-62.2882,1.7572],[-62.3988,1.684],[-62.575,1.5978],[-62.6723,1.5346],[-62.7363493,1.5296296],[-62.8061983,1.5955755],[-62.7929928,1.6353122],[-62.7237318,1.7123987],[-62.7310733,1.8182323],[-62.7041791,1.8739468],[-62.6987291,1.9119576],[-62.7149136,1.9506879],[-62.8132455,1.9916842],[-62.8385715,2.0163864],[-62.9484827,2.0310414],[-62.9804347,2.0179276],[-63.0237761,2.0146794],[-63.0535681,2.0288897],[-63.1198323,2.0964525],[-63.1463394,2.1732586],[-63.1941336,2.1812129],[-63.2763514,2.1543897],[-63.3107885,2.165004],[-63.3597912,2.1971016],[-63.3822017,2.2276576],[-63.3672086,2.2423342],[-63.3603669,2.2695449],[-63.3680201,2.2894618],[-63.3606342,2.3010926],[-63.3672634,2.3157512],[-63.3607996,2.3261747],[-63.3763196,2.3404039],[-63.3764434,2.3564176],[-63.3554137,2.3866558],[-63.3650933,2.3925236],[-63.3727243,2.4259845],[-63.4008138,2.4295061],[-63.4138413,2.45292],[-63.4351851,2.4425337],[-63.4415145,2.4176564],[-63.4642116,2.4013496],[-63.4804728,2.4336579],[-63.4881823,2.4276188],[-63.4878824,2.4361135],[-63.4943641,2.4367559],[-63.4986471,2.4265338],[-63.5186917,2.4208231],[-63.5468027,2.4276616],[-63.5550525,2.4214869],[-63.5553442,2.4470853],[-63.5673363,2.4355886],[-63.5726472,2.4469243],[-63.5925586,2.4562732],[-63.6338212,2.439755],[-63.6456827,2.4465241],[-63.6537014,2.4392112],[-63.6823977,2.4421856],[-63.6909519,2.4576877],[-63.7015524,2.4589964],[-63.7190018,2.4437203],[-63.7326383,2.453721],[-63.7485569,2.4409671],[-63.7589551,2.4466778],[-63.7675569,2.4416928],[-63.774267,2.4531143],[-63.7980735,2.4632508],[-63.7977761,2.4707937],[-63.8133139,2.4757905],[-63.8169307,2.4859627],[-63.8364304,2.4862245],[-63.8454607,2.4955801],[-63.8923313,2.4657714],[-63.9266145,2.4716915],[-63.9358944,2.4565581],[-63.9400062,2.4630493],[-63.9553394,2.4597751],[-63.9604066,2.4728991],[-63.6880775,2.588233],[-63.6463,2.6215],[-63.6108,2.5905],[-63.5714,2.5915],[-63.5218,2.5729],[-63.4733,2.6155],[-63.4828,2.657],[-63.4648,2.6659],[-63.4661,2.6806],[-63.4743,2.686],[-63.4657,2.6944],[-63.4746,2.7051],[-63.4638,2.7191],[-63.4678,2.7283],[-63.4591,2.7322],[-63.4661,2.7444],[-63.4589,2.7671],[-63.4505,2.7661],[-63.4435,2.7794],[-63.4247,2.7777],[-63.3883,2.7569],[-63.3692,2.7626],[-63.3612,2.753],[-63.3556,2.7745],[-63.3208,2.7802],[-63.2979,2.7733],[-63.2764,2.7909],[-63.274,2.8015],[-63.2324,2.8206],[-63.2099,2.8089],[-63.1936,2.8196],[-63.1725,2.7974],[-63.1628,2.8033],[-63.1406,2.7898],[-63.1275,2.7948],[-63.1133,2.7854],[-63.0978,2.7908],[-63.0741,2.7801],[-63.0464,2.8012],[-63.0264,2.7888],[-63.015,2.8022],[-62.9749,2.7922],[-62.9709,2.7749],[-62.9511,2.7744],[-62.9322,2.7607],[-62.9125,2.7617],[-62.9048,2.7512],[-62.9157,2.7368],[-62.9116,2.7181],[-62.9344,2.6994],[-62.9665,2.6944],[-62.9887,2.6724],[-63.0007,2.6768],[-62.998,2.6859],[-63.0044,2.6878],[-63.005,2.6781],[-63.0328,2.6615],[-63.0282,2.6438],[-63.0363,2.6379],[-63.0338,2.625],[-63.0702,2.5913],[-63.0725,2.5513],[-63.0495,2.5249],[-63.082,2.4613],[-63.0599,2.4672],[-63.0439,2.4423],[-63.0455,2.3902],[-63.0388,2.3767],[-63.0122,2.3675],[-63.0035,2.374],[-62.9761,2.3667],[-62.9685,2.3751],[-62.9517,2.3723],[-62.937,2.3412],[-62.9212,2.3394],[-62.9226,2.3316],[-62.9152,2.3311],[-62.8923,2.3437],[-62.8907,2.3329],[-62.8779,2.3291],[-62.8798,2.3131],[-62.8631,2.3167],[-62.8429,2.2987],[-62.8344,2.3041],[-62.8188,2.2836],[-62.821,2.2692],[-62.7821,2.2555],[-62.7611,2.2626],[-62.7469,2.2495],[-62.6675,2.2558],[-62.613,2.2429],[-62.5941,2.2176],[-62.604,2.2038],[-62.5971,2.2016],[-62.5925,2.1686],[-62.5636,2.1302],[-62.5494,2.1288],[-62.5455,2.1043],[-62.5256,2.1037],[-62.5084,2.1199],[-62.4909,2.1086],[-62.4338,2.1129],[-62.4196,2.1064],[-62.4148,2.1159],[-62.4226,2.1143],[-62.4117,2.1235],[-62.4096,2.1182],[-62.3404465,2.1928571],[-62.3074,2.1891],[-62.2908,2.2051],[-62.2752,2.202],[-62.2525,2.2158],[-62.1574,2.2221],[-62.1393957,2.2382161],[-62.0731566,2.2216465],[-62.0310614,2.2216229]]]}},{"type":"Feature","properties":{"level":"municipio","municipality_code":"1400308","municipality_name":"Mucajaí","uf":"RR","state_code":"14","area_km2":12337.851},"geometry":{"type":"Polygon","coordinates":[[[-61.4380912,2.8699224],[-61.406068,2.8612943],[-61.3818968,2.8382371],[-61.3713463,2.8396227],[-61.3696747,2.8285115],[-61.3791185,2.815731],[-61.3671773,2.8087941],[-61.3557927,2.7690736],[-61.3455127,2.7660157],[-61.3443991,2.7576799],[-61.3332859,2.7596238],[-61.3269,2.7299077],[-61.3080136,2.7257362],[-61.3141197,2.7182432],[-61.2966241,2.7057342],[-61.302451,2.6921269],[-61.2896814,2.6574029],[-61.2739227,2.6718211],[-61.2532927,2.6674062],[-61.2410658,2.6512912],[-61.2274562,2.6537939],[-61.2155116,2.6640738],[-61.2136945,2.6820946],[-61.2001109,2.6809898],[-61.1963421,2.6876857],[-61.1838507,2.6771307],[-61.1370809,2.7005888],[-61.1313494,2.7203532],[-61.1278143,2.6993431],[-61.1055117,2.6937902],[-61.0912206,2.7078557],[-61.0430133,2.6740712],[-61.0273764,2.6974793],[-61.0191224,2.6824055],[-61.0040181,2.6836438],[-60.9702303,2.6657342],[-60.9602315,2.645189],[-60.9430084,2.6512894],[-60.9196725,2.6318462],[-60.9124552,2.5965746],[-60.9155121,2.5651871],[-60.9274577,2.5640722],[-60.9274518,2.5496261],[-60.9443922,2.5212903],[-60.8952313,2.5101827],[-60.8935604,2.4935187],[-60.9130092,2.4679633],[-60.8921729,2.4757388],[-60.85773,2.4485202],[-60.8682861,2.4346299],[-60.8485645,2.4282363],[-60.836617,2.4376819],[-60.8349527,2.4268513],[-60.8468946,2.3985135],[-60.8474486,2.381575],[-60.8357889,2.3618493],[-60.8430114,2.3201839],[-60.8535651,2.304625],[-60.8907844,2.2837945],[-60.9096827,2.2356488],[-60.9382662,2.2152771],[-60.9540175,2.2372209],[-61.0510602,2.2980496],[-61.1992506,2.2545393],[-61.2270099,2.2794598],[-61.2521768,2.2795121],[-61.2769466,2.2683639],[-61.3197376,2.2768721],[-61.3387128,2.2636722],[-61.4115492,2.4090864],[-61.5078919,2.4501656],[-61.6236172,2.4530036],[-61.7210236,2.4368321],[-61.776449,2.4029648],[-61.8110602,2.3539468],[-61.8368034,2.3412578],[-61.8403358,2.3252639],[-61.8504424,2.3242827],[-61.8707056,2.3012509],[-61.8952971,2.2954361],[-61.9314899,2.2604066],[-62.0021732,2.2303852],[-62.0310729,2.2216194],[-62.0731566,2.2216465],[-62.1393957,2.2382161],[-62.1574,2.2221],[-62.2525,2.2158],[-62.2752,2.202],[-62.2908,2.2051],[-62.3074,2.1891],[-62.3404465,2.1928571],[-62.4096,2.1182],[-62.4117,2.1235],[-62.4226,2.1143],[-62.4148,2.1159],[-62.4196,2.1064],[-62.4338,2.1129],[-62.4909,2.1086],[-62.5084,2.1199],[-62.5256,2.1037],[-62.5455,2.1043],[-62.5494,2.1288],[-62.5636,2.1302],[-62.5925,2.1686],[-62.5971,2.2016],[-62.604,2.2038],[-62.5941,2.2176],[-62.613,2.2429],[-62.6675,2.2558],[-62.7469,2.2495],[-62.7611,2.2626],[-62.7793,2.2548],[-62.8179,2.2672],[-62.8243,2.2776],[-62.8188,2.2836],[-62.8342,2.3039],[-62.8429,2.2987],[-62.8659,2.3174],[-62.8798,2.3131],[-62.8779,2.3291],[-62.8907,2.3329],[-62.8923,2.3437],[-62.9223,2.3313],[-62.9203,2.3389],[-62.9451,2.3497],[-62.942,2.3598],[-62.9517,2.3723],[-62.9685,2.3751],[-62.9761,2.3667],[-63.0035,2.374],[-63.0122,2.3675],[-63.0402,2.3777],[-63.0439,2.4423],[-63.0599,2.4672],[-63.082,2.4613],[-63.0495,2.5249],[-63.0725,2.5513],[-63.0703,2.591],[-63.0338,2.625],[-63.0363,2.6379],[-63.0282,2.6438],[-63.0328,2.6615],[-63.005,2.6781],[-63.0044,2.6878],[-62.998,2.6859],[-63.0007,2.6768],[-62.9887,2.6724],[-62.9665,2.6944],[-62.9344,2.6994],[-62.91,2.7216],[-62.9157,2.7368],[-62.9049,2.7541],[-62.9125,2.7617],[-62.8879,2.7564],[-62.8818,2.762],[-62.8678,2.7519],[-62.8581398,2.7807145],[-62.8408274,2.754003],[-62.8130737,2.7414294],[-62.8041118,2.723342],[-62.7649249,2.7298023],[-62.7531922,2.7199955],[-62.7178228,2.7135738],[-62.7024447,2.6931383],[-62.6891245,2.6950719],[-62.6897231,2.7054991],[-62.6642322,2.703004],[-62.655881,2.7116661],[-62.6441458,2.7104271],[-62.6396924,2.7197165],[-62.6238745,2.7241685],[-62.6196776,2.7366078],[-62.600938,2.7370163],[-62.5913291,2.7293936],[-62.5677648,2.7336315],[-62.5226064,2.7455925],[-62.4857228,2.7698037],[-62.4073199,2.7825655],[-62.3461202,2.7751022],[-62.2936219,2.7585415],[-62.2225051,2.7551943],[-62.2116286,2.7643507],[-62.2016291,2.7618494],[-62.2054886,2.75673],[-62.195512,2.7474075],[-62.0940636,2.7470763],[-62.0348332,2.7292912],[-62.0060695,2.7335148],[-61.9963447,2.7168484],[-61.9803797,2.7186374],[-61.9749261,2.7122018],[-61.9787448,2.6970958],[-61.9723854,2.688314],[-61.9444547,2.6843986],[-61.9247753,2.7065369],[-61.9138461,2.69157],[-61.8930169,2.6899038],[-61.8852077,2.6974984],[-61.8640072,2.6831141],[-61.834031,2.6973336],[-61.8203189,2.6888298],[-61.817148,2.6992445],[-61.7908604,2.7065158],[-61.7740696,2.7207628],[-61.7705152,2.7115677],[-61.7342239,2.7185115],[-61.7363506,2.7423995],[-61.7482371,2.7426227],[-61.7421774,2.7649473],[-61.7255113,2.7845966],[-61.6949579,2.7937605],[-61.6985951,2.8048465],[-61.7090696,2.7997212],[-61.7224573,2.8134109],[-61.7041943,2.852274],[-61.6268341,2.9342059],[-61.5758158,2.9476265],[-61.5232867,2.8957387],[-61.4968984,2.886567],[-61.4715189,2.8930796],[-61.4607491,2.8849812],[-61.4513464,2.8946287],[-61.4380912,2.8699224]]]}},{"type":"Feature","properties":{"level":"municipio","municipality_code":"1400407","municipality_name":"Normandia","uf":"RR","state_code":"14","area_km2":6959.982},"geometry":{"type":"Polygon","coordinates":[[[-59.7953935,4.1796222],[-59.6186074,4.132561],[-59.6542626,4.0695801],[-59.6419113,4.0672515],[-59.6293565,4.052173],[-59.6182204,4.0525176],[-59.6199416,4.0385244],[-59.6015968,4.0294991],[-59.6015802,4.0156067],[-59.6135627,4.017455],[-59.6072865,4.0072499],[-59.5945723,4.0179973],[-59.5970641,4.0008983],[-59.5864494,3.9937028],[-59.5800214,4.0011597],[-59.5720157,3.9868299],[-59.5868049,3.9760088],[-59.5843889,3.9686628],[-59.5663593,3.9643214],[-59.5572275,3.9787159],[-59.544759,3.9790124],[-59.5433177,3.971801],[-59.5267993,3.9687929],[-59.5197018,3.9550874],[-59.5157637,3.9449701],[-59.5264704,3.9389708],[-59.5268803,3.9244031],[-59.5391934,3.9325961],[-59.5449684,3.9206609],[-59.5629274,3.9203151],[-59.5675924,3.8904853],[-59.5777067,3.9019287],[-59.5756468,3.8899028],[-59.5938125,3.8847802],[-59.5936302,3.8600984],[-59.5856446,3.8572225],[-59.587048,3.8351003],[-59.5777578,3.83169],[-59.5782021,3.8162631],[-59.5850711,3.8236267],[-59.5982435,3.8149849],[-59.5971623,3.793998],[-59.6105531,3.8044035],[-59.6292378,3.7841972],[-59.6292505,3.7990436],[-59.6397915,3.7844968],[-59.6656321,3.7815004],[-59.6687376,3.7656234],[-59.6800336,3.7568736],[-59.6638718,3.7341678],[-59.6719024,3.7277936],[-59.6627716,3.7165941],[-59.6685832,3.7031053],[-59.6875821,3.6998738],[-59.6914438,3.6895117],[-59.7047801,3.6891285],[-59.7176125,3.6762522],[-59.720726,3.6658526],[-59.7522126,3.6527583],[-59.7594387,3.6333842],[-59.7688073,3.6320494],[-59.7647484,3.6260676],[-59.7884788,3.6167004],[-59.8160413,3.620542],[-59.8164861,3.6100831],[-59.850209,3.6050392],[-59.8589519,3.5804551],[-59.8673779,3.5775765],[-59.8586583,3.5717032],[-59.8704055,3.5636157],[-59.8857787,3.5637913],[-59.9055005,3.5862893],[-59.923002,3.5785123],[-59.9371682,3.5587925],[-59.9582834,3.5726812],[-59.9752273,3.5565674],[-59.9998352,3.5527375],[-60.0368896,3.5276744],[-60.0560593,3.5248961],[-60.0832812,3.4935141],[-60.1366183,3.4624031],[-60.1560594,3.4626836],[-60.1760288,3.4454806],[-60.1857884,3.417128],[-60.1971694,3.4068501],[-60.2952291,3.3871198],[-60.3213439,3.3690707],[-60.321614,3.4146264],[-60.3024526,3.4240647],[-60.2993934,3.4390705],[-60.2857838,3.4496245],[-60.3018925,3.4754525],[-60.2993937,3.4865733],[-60.3105104,3.4949046],[-60.31078,3.5082324],[-60.3210631,3.5062926],[-60.3299504,3.5148985],[-60.322454,3.5296215],[-60.3377275,3.5454533],[-60.3530073,3.5515686],[-60.3588432,3.5418484],[-60.3805007,3.5543474],[-60.3799497,3.5665646],[-60.3957884,3.5726742],[-60.4085594,3.5685142],[-60.4224556,3.6121229],[-60.4310607,3.612126],[-60.4255528,3.6210197],[-60.438283,3.6265615],[-60.4324625,3.648785],[-60.4580086,3.6723991],[-60.4616213,3.6962865],[-60.4755098,3.701012],[-60.4716184,3.7229593],[-60.4868987,3.7429576],[-60.5068925,3.7343447],[-60.4893979,3.7510085],[-60.4938443,3.7726779],[-60.4805087,3.7748978],[-60.4916144,3.8007319],[-60.4824485,3.7982306],[-60.4860631,3.8273995],[-60.4771782,3.8396264],[-60.4999546,3.8735132],[-60.4877348,3.9001768],[-60.5013432,3.9135065],[-60.4885624,3.9235084],[-60.4932871,3.9382355],[-60.4846722,3.9546217],[-60.4582806,3.9549014],[-60.4605099,3.9912869],[-60.4385665,4.0326734],[-60.4499528,4.0504505],[-60.4474501,4.084063],[-60.4743815,4.1146345],[-60.4721772,4.128233],[-60.4896737,4.1432338],[-60.5055045,4.1329489],[-60.4996762,4.1471237],[-60.5155094,4.1665641],[-60.5399497,4.1726805],[-60.5397113,4.2104804],[-60.5166211,4.2006562],[-60.4867022,4.2142672],[-60.4517587,4.2019574],[-60.3906505,4.1972894],[-60.3287872,4.1602536],[-60.2998685,4.1741469],[-60.2743994,4.166645],[-60.231782,4.1965901],[-60.2226195,4.196456],[-60.2248716,4.1827539],[-60.2081499,4.179946],[-60.1758942,4.1935975],[-60.168784,4.2057306],[-60.1603384,4.203783],[-60.1400869,4.2218718],[-60.1435387,4.2336139],[-60.1302846,4.2595453],[-60.0800366,4.2601861],[-60.0690867,4.2846719],[-60.0428864,4.3039365],[-60.0001669,4.2805617],[-59.9825305,4.2807189],[-59.9347816,4.2426959],[-59.8903644,4.225023],[-59.7661771,4.2117253],[-59.7953935,4.1796222]]]}},{"type":"Feature","properties":{"level":"municipio","municipality_code":"1400456","municipality_name":"Pacaraima","uf":"RR","state_code":"14","area_km2":8019.088},"geometry":{"type":"Polygon","coordinates":[[[-61.0429209,4.0225607],[-61.0583985,4.0021825],[-61.1197869,4.0217474],[-61.1408431,4.0208562],[-61.1964837,4.0489309],[-61.2068746,4.0658079],[-61.2291194,4.0709115],[-61.2519,4.0983164],[-61.23962,4.130584],[-61.2423991,4.151832],[-61.259935,4.1643648],[-61.2473189,4.2115256],[-61.2576546,4.2206338],[-61.2577952,4.2356607],[-61.300628,4.2737825],[-61.3012917,4.2961501],[-61.3242862,4.3115852],[-61.3372961,4.3115942],[-61.3482122,4.3253855],[-61.5199063,4.3258309],[-61.5229154,4.3419291],[-61.5123153,4.3494891],[-61.522193,4.3690389],[-61.5134569,4.4037655],[-61.4856673,4.4113811],[-61.4514129,4.4389524],[-61.4355732,4.4330122],[-61.4403741,4.424408],[-61.4211402,4.4332537],[-61.4039801,4.4244618],[-61.3729882,4.4272653],[-61.3461601,4.4174709],[-61.3197685,4.4298905],[-61.3247599,4.4409945],[-61.3133566,4.4556549],[-61.2888558,4.4554106],[-61.2783445,4.4679858],[-61.3100769,4.5021832],[-61.3227767,4.502933],[-61.3279075,4.5159442],[-61.3249216,4.5322188],[-61.3057598,4.5396363],[-61.2846289,4.5374244],[-61.2751508,4.5274025],[-61.2591994,4.5375317],[-61.2525858,4.5252219],[-61.2451758,4.5331653],[-61.2209614,4.5216228],[-61.2178411,4.5332639],[-61.2016917,4.5159119],[-61.1874164,4.5202569],[-61.1701833,4.5004767],[-61.1518333,4.4958661],[-61.1455831,4.4801475],[-61.126095,4.5052981],[-61.0926758,4.5232683],[-60.9978797,4.5156047],[-60.984861,4.542666],[-60.957908,4.545161],[-60.956844,4.581665],[-60.931415,4.58433],[-60.938306,4.602668],[-60.9330969,4.6207875],[-60.9515989,4.6432689],[-60.947579,4.655541],[-60.919587,4.663349],[-60.9019056,4.7160772],[-60.8767194,4.7157078],[-60.8510711,4.7029406],[-60.8359283,4.7275542],[-60.8151628,4.7281044],[-60.8074178,4.7478219],[-60.7636968,4.7581742],[-60.7509317,4.7536892],[-60.7395786,4.7697794],[-60.7208794,4.7773839],[-60.7269911,4.7887375],[-60.7166362,4.8002681],[-60.672941,4.8293175],[-60.6734568,4.8409145],[-60.6603518,4.8490249],[-60.6564998,4.862621],[-60.6495965,4.8619239],[-60.6523149,4.8844035],[-60.6380052,4.8773264],[-60.613921,4.8429384],[-60.6386793,4.8052069],[-60.6383137,4.7533034],[-60.6508462,4.725504],[-60.6383158,4.7187979],[-60.6444825,4.6705502],[-60.626453,4.6540626],[-60.6313382,4.6405401],[-60.625203,4.6282899],[-60.6402293,4.6168402],[-60.6115616,4.5457891],[-60.6440079,4.4851044],[-60.6365395,4.4763414],[-60.6564304,4.4187217],[-60.6538396,4.409213],[-60.639339,4.4057945],[-60.642178,4.3918086],[-60.5976771,4.3884828],[-60.5726726,4.3438745],[-60.5577613,4.3331492],[-60.5645932,4.3243385],[-60.559478,4.3140143],[-60.541343,4.3012855],[-60.5677314,4.275453],[-60.5602341,4.2623994],[-60.532453,4.2548959],[-60.5091212,4.2335083],[-60.541877,4.2068674],[-60.5399497,4.1726805],[-60.5155094,4.1665641],[-60.4996762,4.1471237],[-60.5055045,4.1329489],[-60.4896737,4.1432338],[-60.4721772,4.128233],[-60.4743815,4.1146345],[-60.4646702,4.1110124],[-60.4466186,4.0815651],[-60.4499528,4.0504505],[-60.438842,4.0287898],[-60.4605099,3.9912869],[-60.4577331,3.9562869],[-60.4846722,3.9546217],[-60.4932871,3.9382355],[-60.4885624,3.9235084],[-60.5016224,3.9121196],[-60.4877348,3.9001768],[-60.4999546,3.8735132],[-60.4771782,3.8396264],[-60.4860631,3.8273995],[-60.4824485,3.7982306],[-60.4916144,3.8007319],[-60.4805087,3.7748978],[-60.4938443,3.7726779],[-60.4893979,3.7510085],[-60.5068925,3.7343447],[-60.4868987,3.7429576],[-60.4716184,3.7229593],[-60.4755098,3.701012],[-60.4616213,3.6962865],[-60.4580086,3.6723991],[-60.4324625,3.648785],[-60.438283,3.6265615],[-60.4255528,3.6210197],[-60.4310607,3.612126],[-60.4224556,3.6121229],[-60.4102347,3.5801724],[-60.4179224,3.5767009],[-60.4282277,3.5867653],[-60.4361985,3.577471],[-60.4506201,3.5801027],[-60.4719815,3.6047443],[-60.4834275,3.6056614],[-60.4904792,3.5832547],[-60.513699,3.5665194],[-60.5143431,3.5428367],[-60.5281757,3.5542953],[-60.5383425,3.5253711],[-60.5529819,3.5186386],[-60.554476,3.5082491],[-60.5466167,3.5014846],[-60.5521726,3.4801791],[-60.5785066,3.4789343],[-60.5789824,3.4698291],[-60.6064009,3.4484557],[-60.6224235,3.4695824],[-60.6218704,3.4842841],[-60.6091225,3.5017666],[-60.6179528,3.5032218],[-60.6322497,3.5298749],[-60.6572534,3.5332458],[-60.6727263,3.5483065],[-60.6827557,3.5460696],[-60.6973386,3.5639924],[-60.7118726,3.5526866],[-60.740398,3.574437],[-60.7658118,3.5659981],[-60.7980939,3.5800054],[-60.7981706,3.5939781],[-60.8122279,3.5949971],[-60.8045101,3.6138786],[-60.867399,3.6455702],[-60.8627056,3.6661868],[-60.8894239,3.7383098],[-60.8720414,3.7874083],[-60.8743969,3.8311454],[-60.8983451,3.8665484],[-60.914234,3.9223011],[-60.9327022,3.9343596],[-60.9297058,3.9863247],[-60.9761762,4.0353896],[-60.988487,4.0321425],[-61.0178732,4.0437034],[-61.0203414,4.0345992],[-61.0289002,4.0380182],[-61.0401787,4.0260093],[-61.0359524,4.0193308],[-61.0429209,4.0225607]]]}},{"type":"Feature","properties":{"level":"municipio","municipality_code":"1400472","municipality_name":"Rorainópolis","uf":"RR","state_code":"14","area_km2":33579.739},"geometry":{"type":"Polygon","coordinates":[[[-61.4910623,-1.5748009],[-61.5446819,-1.5256267],[-61.5852314,-1.464245],[-61.6244049,-1.4386892],[-61.7902124,-1.3789673],[-61.8171838,-1.3995172],[-61.8399376,-1.4010596],[-61.8646682,-1.3681475],[-61.8724544,-1.3303587],[-61.8391201,-1.2584081],[-61.8499608,-1.1986864],[-61.8813429,-1.1267464],[-61.8580176,-1.0645223],[-61.8893991,-1.0028517],[-61.8696857,-0.9317457],[-61.8832885,-0.8828537],[-61.8480177,-0.8217408],[-61.8677365,-0.7239672],[-61.8102363,-0.6084142],[-61.811899,-0.5631357],[-61.824957,-0.5259135],[-61.8002352,-0.4656318],[-61.8055091,-0.441192],[-61.8446788,-0.3886914],[-61.8463439,-0.3631356],[-61.829959,-0.3175809],[-61.8380109,-0.2717443],[-61.8060647,-0.1392481],[-61.789956,-0.1011971],[-61.8160687,-0.0384149],[-61.7737882,0.0584338],[-61.7699596,0.0974164],[-61.7777333,0.1676971],[-61.7646778,0.2779713],[-61.7588508,0.3096353],[-61.7294018,0.3651956],[-61.7113506,0.4357475],[-61.6838478,0.4896344],[-61.6502348,0.5154701],[-61.6263424,0.5615851],[-61.6127358,0.6104687],[-61.559403,0.6793542],[-61.5005149,0.7235273],[-61.4691233,0.7649107],[-61.4368962,0.8196354],[-61.4243965,0.8699095],[-61.3757871,0.9254712],[-61.3630077,0.9615834],[-61.3243986,0.9932424],[-61.28245,0.9768556],[-61.2643954,0.9788064],[-61.2602351,0.9660189],[-61.233008,1.0010246],[-61.2188462,0.9996391],[-61.1924504,0.9499135],[-61.1874565,0.9596323],[-61.1738428,0.961582],[-61.1749577,0.9538001],[-61.1568987,0.9540791],[-61.1496749,0.9360208],[-61.1432827,0.951855],[-61.1280124,0.943802],[-61.119953,0.957135],[-61.1299561,0.9635216],[-61.1085638,0.9629658],[-61.1146782,0.9824098],[-61.0888457,0.9974082],[-61.089121,1.0096319],[-61.0791121,1.0157476],[-61.0635665,1.0118595],[-61.0693972,1.0199162],[-61.0580115,1.0271303],[-61.0655059,1.0357477],[-61.0455057,1.0476873],[-61.049398,1.0604684],[-61.036623,1.072409],[-61.0402327,1.0874069],[-61.0224539,1.0840823],[-61.0160649,1.1029655],[-61.0118966,1.0843599],[-61.0030132,1.0893524],[-60.991623,1.0826904],[-60.9852312,1.0924106],[-60.9746732,1.0846334],[-60.9609804,1.0884774],[-60.9435672,1.0721348],[-60.9243978,1.0735266],[-60.9060636,1.0949081],[-60.9113422,1.1007424],[-60.9049539,1.1207433],[-60.8852292,1.1301902],[-60.8521716,1.1026926],[-60.8407822,1.0760207],[-60.8196734,1.0626881],[-60.8163445,1.0307437],[-60.8230084,1.0035184],[-60.8085652,0.979635],[-60.7902292,0.9718594],[-60.768005,0.9360236],[-60.7299502,0.9343545],[-60.7266205,0.9210225],[-60.7418946,0.9026892],[-60.7138443,0.8671369],[-60.7141203,0.8793605],[-60.7060622,0.8701947],[-60.6910644,0.8835246],[-60.6885636,0.8726868],[-60.6818944,0.8746397],[-60.6857858,0.8763044],[-60.6843981,0.8840765],[-60.6821741,0.8763018],[-60.6774478,0.8860274],[-60.6691146,0.8788034],[-60.6507863,0.9029648],[-60.6357879,0.8960213],[-60.6027327,0.9043559],[-60.5971734,0.9201865],[-60.6021744,0.9324139],[-60.5932804,0.9235276],[-60.5688374,0.9360251],[-60.5735611,0.9435261],[-60.5613439,0.9390758],[-60.5543925,0.9551919],[-60.561059,0.9551881],[-60.5430016,0.9657428],[-60.536065,0.9926946],[-60.5227273,0.9857485],[-60.5138422,0.9901867],[-60.5055114,1.0335245],[-60.482454,1.0457492],[-60.4807808,1.0590787],[-60.4643911,1.0699134],[-60.467452,1.0813022],[-60.4527251,1.0804709],[-60.4510643,1.0979628],[-60.43023,1.1074097],[-60.4238439,1.099631],[-60.4149494,1.1040808],[-60.4155029,1.1235203],[-60.3763374,1.1393516],[-60.3574482,1.129911],[-60.3510635,1.1438054],[-60.3457817,1.1329664],[-60.3316197,1.1354711],[-60.3202291,1.1479714],[-60.3135599,1.132138],[-60.3005085,1.1371373],[-60.294947,1.129355],[-60.2999459,1.1221359],[-60.2916125,1.115465],[-60.2768921,1.1315785],[-60.2670911,1.1281396],[-60.2669942,1.1143417],[-60.2798375,1.1144654],[-60.2718991,1.077352],[-60.2860708,1.0787027],[-60.3065227,1.0410219],[-60.4026728,1.0025101],[-60.2577239,0.9674132],[-60.2736127,0.9550493],[-60.2016438,0.8797076],[-60.2959468,0.7758649],[-60.2639782,0.7423432],[-60.2508626,0.7417667],[-60.2633946,0.7166948],[-60.2531396,0.6926772],[-60.2550851,0.6687339],[-60.2234161,0.6289776],[-60.2386681,0.6047617],[-60.2319479,0.5884657],[-60.2136773,0.5952551],[-60.2285251,0.5703911],[-60.1516153,0.5626324],[-60.131534,0.5251996],[-60.1241398,0.5235155],[-60.1320103,0.5047966],[-60.1186748,0.4799343],[-60.1190046,0.4573638],[-60.0955832,0.4348207],[-60.0949764,0.4172778],[-60.0763191,0.4022374],[-60.094143,0.3823928],[-60.102924,0.3489053],[-60.039283,0.3160386],[-60.0269779,0.3180774],[-60.0038396,0.3070022],[-60.0403888,0.2692695],[-60.0590829,0.1629969],[-60.0924169,0.1380733],[-60.1104965,0.134946],[-60.1336091,0.1034778],[-60.1179727,0.0813914],[-60.1320943,0.0656573],[-60.1297488,0.0486039],[-60.1399614,0.0454277],[-60.1325829,0.0276902],[-60.1569659,0.0165493],[-60.169133,-0.003778],[-60.1895092,-0.0089087],[-60.1853069,-0.013111],[-60.2118888,-0.0393997],[-60.2064161,-0.0406213],[-60.213599,-0.0467293],[-60.2108138,-0.0638805],[-60.2393014,-0.1123044],[-60.2276107,-0.1217106],[-60.2325948,-0.1288325],[-60.2211607,-0.1419768],[-60.2374812,-0.1458859],[-60.255121,-0.1766211],[-60.2688029,-0.1765234],[-60.2649426,-0.1922574],[-60.2775983,-0.1931858],[-60.2812631,-0.2100926],[-60.2921597,-0.2159562],[-60.2969972,-0.2062324],[-60.3034473,-0.2103369],[-60.2945052,-0.2248493],[-60.2965086,-0.2495253],[-60.3103371,-0.2639888],[-60.2925506,-0.294626],[-60.3034961,-0.3013203],[-60.303545,-0.32497],[-60.3241655,-0.3327392],[-60.3194746,-0.3581967],[-60.3267553,-0.3809179],[-60.3371633,-0.3817486],[-60.352311,-0.4068151],[-60.3431735,-0.4176137],[-60.3451769,-0.4354485],[-60.3826554,-0.4592444],[-60.3877372,-0.496233],[-60.4055725,-0.5154357],[-60.39751,-0.5227649],[-60.3951157,-0.5496877],[-60.3839747,-0.5520819],[-60.3765474,-0.5698186],[-60.3887145,-0.5741184],[-60.3815315,-0.5884836],[-60.3678497,-0.5817896],[-60.3536303,-0.6173605],[-60.3152723,-0.6364651],[-60.3187416,-0.6513676],[-60.305353,-0.6664655],[-60.3117052,-0.6820031],[-60.3027143,-0.6903093],[-60.3106791,-0.7175732],[-60.3236769,-0.7171335],[-60.3466917,-0.739609],[-60.3567576,-0.7337458],[-60.3634031,-0.7433223],[-60.3735668,-0.7318403],[-60.3835838,-0.7391204],[-60.3851963,-0.7535829],[-60.3968259,-0.7481106],[-60.4178862,-0.7566121],[-60.4263396,-0.7711722],[-60.4748613,-0.7615958],[-60.4978273,-0.7806509],[-60.4903023,-0.7905205],[-60.4932341,-0.8114321],[-60.5185455,-0.8257966],[-60.5028602,-0.8406985],[-60.5301018,-0.8672286],[-60.5563905,-0.8625382],[-60.5581984,-0.8507633],[-60.5880053,-0.843288],[-60.5959213,-0.8662514],[-60.6206952,-0.8515451],[-60.6198645,-0.8630756],[-60.6328134,-0.8614633],[-60.6381884,-0.8738244],[-60.6510396,-0.8722609],[-60.6691192,-0.8879444],[-60.6702919,-0.8716258],[-60.6842669,-0.8654697],[-60.6969226,-0.8690852],[-60.7119238,-0.8585807],[-60.7347432,-0.8664957],[-60.7271449,-0.8594845],[-60.7356472,-0.8521314],[-60.7546796,-0.8638573],[-60.7649654,-0.8598021],[-60.7606654,-0.8503969],[-60.7691555,-0.8222177],[-60.7631941,-0.8126414],[-60.7695464,-0.8008175],[-60.7564998,-0.7911923],[-60.7881146,-0.7825442],[-60.7712078,-0.7560625],[-60.8061942,-0.7400854],[-60.8071715,-0.6942548],[-60.8551557,-0.6863394],[-60.8618012,-0.6454921],[-60.8714762,-0.6382607],[-60.895224,-0.6439285],[-60.9196559,-0.6203776],[-60.9174081,-0.6125599],[-60.9276695,-0.6055239],[-60.9234672,-0.5665327],[-60.9336309,-0.5478676],[-60.9477037,-0.5580308],[-60.9600173,-0.5524606],[-60.9948083,-0.5610602],[-61.0304789,-0.5424928],[-61.0568653,-0.543861],[-61.0701562,-0.513469],[-61.0975199,-0.4990059],[-61.117945,-0.5066283],[-61.1334836,-0.4969537],[-61.158111,-0.4983218],[-61.168861,-0.516303],[-61.2174316,-0.4977355],[-61.2292566,-0.5109282],[-61.2210475,-0.5289093],[-61.2340453,-0.5619397],[-61.277534,-0.5756209],[-61.3018681,-0.5748391],[-61.3289387,-0.5972175],[-61.3595274,-0.5969244],[-61.4071207,-0.6284885],[-61.4335071,-0.6330326],[-61.4322366,-0.6540427],[-61.4651708,-0.6601991],[-61.4846186,-0.716877],[-61.5105164,-0.7415023],[-61.5300619,-0.7485381],[-61.5384664,-0.7636845],[-61.5489233,-0.8042377],[-61.5484347,-0.8335529],[-61.5383687,-0.8482105],[-61.5567415,-0.86492],[-61.5523438,-0.8894467],[-61.5727688,-0.9039086],[-61.582737,-0.9369363],[-61.5756029,-0.9547203],[-61.5794143,-0.9833503],[-61.5509756,-0.9831549],[-61.5426687,-0.9927308],[-61.5438415,-1.0035769],[-61.5594779,-1.0111984],[-61.5440369,-1.0295683],[-61.5428642,-1.0622039],[-61.5461869,-1.0707047],[-61.5778506,-1.0799872],[-61.5661233,-1.0997245],[-61.579512,-1.110668],[-61.5661233,-1.129135],[-61.5811734,-1.1565909],[-61.5707165,-1.1827764],[-61.5871347,-1.1944035],[-61.6083416,-1.2524404],[-61.6070712,-1.2744238],[-61.6288495,-1.3014678],[-61.6116256,-1.3081343],[-61.5855081,-1.3386858],[-61.5821752,-1.3534073],[-61.6191215,-1.3947977],[-61.6030145,-1.4073028],[-61.5819057,-1.409522],[-61.5738424,-1.4286891],[-61.5382941,-1.4334042],[-61.5164822,-1.5024303],[-61.473291,-1.5278497],[-61.4746776,-1.5789673],[-61.4910623,-1.5748009]]]}},{"type":"Feature","properties":{"level":"municipio","municipality_code":"1400506","municipality_name":"São João da Baliza","uf":"RR","state_code":"14","area_km2":4284.505},"geometry":{"type":"Polygon","coordinates":[[[-59.4335537,0.2635403],[-60.0379686,0.2635455],[-60.03934,0.2719222],[-60.003841,0.3094486],[-60.0366952,0.3149591],[-60.102924,0.3489053],[-60.094143,0.3823928],[-60.0763191,0.4022374],[-60.0949764,0.4172778],[-60.0955832,0.4348207],[-60.1190046,0.4573638],[-60.1186748,0.4799343],[-60.1320103,0.5047966],[-60.1241398,0.5235155],[-60.131534,0.5251996],[-60.1530069,0.5635211],[-60.1489025,0.5764526],[-60.1228862,0.5816799],[-60.1216865,0.5895861],[-60.1122784,0.5875588],[-60.0932845,0.60408],[-60.0818889,0.600189],[-60.0691911,0.6119866],[-60.0807804,0.6735198],[-60.0643952,0.6824172],[-60.0555059,0.740196],[-60.0618926,0.7526885],[-60.0466171,0.794918],[-60.062217,0.8373945],[-60.0538379,0.8526914],[-60.0568925,0.8696395],[-60.0502296,0.8993576],[-60.0291164,0.9160209],[-60.0188357,0.9399103],[-60.0210563,0.9557454],[-59.9835592,0.9687997],[-59.9757792,0.9888001],[-59.9824494,1.1354682],[-59.9721743,1.1454644],[-59.969671,1.1651866],[-59.96023,1.1785198],[-59.9463337,1.1760228],[-59.9513385,1.1840796],[-59.9391187,1.1924092],[-59.9138397,1.1910254],[-59.8966136,1.202415],[-59.8902231,1.1968585],[-59.8782781,1.2126912],[-59.8616093,1.1868512],[-59.8413318,1.2004638],[-59.8241127,1.2563032],[-59.8055001,1.254915],[-59.807173,1.2629629],[-59.7855053,1.2651887],[-59.776474,1.2768159],[-59.7527799,1.1894673],[-59.7390322,1.0758846],[-59.7522206,1.0009651],[-59.755247,0.9193081],[-59.771151,0.8514869],[-59.7628182,0.8381348],[-59.779533,0.8201275],[-59.8146111,0.6183251],[-59.7435277,0.5421779],[-59.7059951,0.5477937],[-59.6868775,0.5404542],[-59.6503969,0.5705625],[-59.6149454,0.5702283],[-59.5942525,0.5635908],[-59.5885255,0.5445942],[-59.5661687,0.5254537],[-59.5456387,0.5215177],[-59.5227201,0.4900313],[-59.5048916,0.4369052],[-59.4643889,0.4281214],[-59.4525562,0.3996246],[-59.4710824,0.345524],[-59.4374467,0.290334],[-59.4335537,0.2635403]]]}},{"type":"Feature","properties":{"level":"municipio","municipality_code":"1400605","municipality_name":"São Luiz","uf":"RR","state_code":"14","area_km2":1526.898},"geometry":{"type":"Polygon","coordinates":[[[-60.2596539,0.9659113],[-60.2778378,0.9758979],[-60.4026728,1.0025101],[-60.3065227,1.0410219],[-60.2860708,1.0787027],[-60.2718991,1.077352],[-60.2798375,1.1144654],[-60.2669942,1.1143417],[-60.2670911,1.1281396],[-60.24384,1.1201868],[-60.2380035,1.1299112],[-60.2146858,1.1290792],[-60.1230065,1.0957499],[-60.1152248,1.1032445],[-60.0818884,1.1024182],[-60.0277288,1.1249127],[-60.0141167,1.1240774],[-60.0127275,1.1174158],[-59.9824494,1.1354682],[-59.9757792,0.9888001],[-59.9835592,0.9687997],[-60.018842,0.9585283],[-60.0291164,0.9160209],[-60.0502296,0.8993576],[-60.0538379,0.8526914],[-60.062217,0.8373945],[-60.0466171,0.794918],[-60.0618926,0.7526885],[-60.0555059,0.740196],[-60.0643952,0.6824172],[-60.0807804,0.6735198],[-60.0691911,0.6119866],[-60.0818889,0.600189],[-60.0932845,0.60408],[-60.1122784,0.5875588],[-60.1216865,0.5895861],[-60.1228862,0.5816799],[-60.1489025,0.5764526],[-60.1563387,0.5607491],[-60.1641162,0.5671328],[-60.1843962,0.5632459],[-60.1892089,0.5709901],[-60.2269765,0.5672668],[-60.2136773,0.5952551],[-60.2319479,0.5884657],[-60.2386681,0.6047617],[-60.2234161,0.6289776],[-60.2550851,0.6687339],[-60.2531396,0.6926772],[-60.2633946,0.7166948],[-60.2508626,0.7417667],[-60.2639782,0.7423432],[-60.2959468,0.7758649],[-60.2016438,0.8797076],[-60.2736127,0.9550493],[-60.2596539,0.9659113]]]}},{"type":"Feature","properties":{"level":"municipio","municipality_code":"1400704","municipality_name":"Uiramutã","uf":"RR","state_code":"14","area_km2":8102.219},"geometry":{"type":"Polygon","coordinates":[[[-60.6453965,5.053342],[-60.6448226,5.1136526],[-60.6576973,5.1124589],[-60.6582093,5.1498039],[-60.6821077,5.1800688],[-60.6791562,5.1858962],[-60.7382058,5.2014246],[-60.7239442,5.2202961],[-60.7070923,5.2184015],[-60.6810456,5.2325063],[-60.6656229,5.2258372],[-60.6505309,5.2301338],[-60.6276404,5.2122173],[-60.5900256,5.2163525],[-60.5851573,5.198064],[-60.5496953,5.1871587],[-60.5257569,5.2033899],[-60.4930502,5.1940235],[-60.4708908,5.1982063],[-60.466771,5.1921925],[-60.454131,5.2026183],[-60.4494613,5.1806206],[-60.4394783,5.1763096],[-60.4180338,5.1885722],[-60.4124624,5.2111977],[-60.4057594,5.2068501],[-60.3824747,5.2182805],[-60.3638012,5.2017441],[-60.3159164,5.2026924],[-60.3001249,5.2263659],[-60.2794248,5.2267421],[-60.2611168,5.2494547],[-60.2421621,5.2500936],[-60.2171552,5.2686174],[-60.1995939,5.2652519],[-60.1912172,5.2330713],[-60.1729191,5.2246426],[-60.1579394,5.2267869],[-60.1301253,5.2492341],[-60.1154964,5.2516308],[-60.0992157,5.242726],[-60.1154336,5.2435665],[-60.1227615,5.2260989],[-60.0990711,5.1956609],[-60.0986471,5.166169],[-60.0868857,5.1364529],[-60.063992,5.1378311],[-60.0460271,5.1064698],[-60.0374081,5.1103632],[-60.0174325,5.0891027],[-59.9765678,5.079078],[-59.9702051,5.0630594],[-59.9778337,5.0530419],[-59.9778028,5.0188348],[-59.985536,5.0186135],[-59.9897524,5.0014028],[-59.9894621,4.950342],[-60.0132644,4.8445133],[-60.0253759,4.8316047],[-60.028255,4.8177205],[-60.0222231,4.811986],[-60.0345249,4.8016354],[-60.0355957,4.7896667],[-60.0214022,4.7818621],[-60.0255186,4.7432077],[-60.0396319,4.7246133],[-60.0254385,4.7063391],[-60.0754904,4.6553591],[-60.0705404,4.6168763],[-60.0973046,4.6037703],[-60.1237261,4.6048267],[-60.1312452,4.5959942],[-60.1236785,4.5771013],[-60.1408107,4.5785289],[-60.1360422,4.5650326],[-60.150614,4.5760067],[-60.156991,4.5730657],[-60.1612074,4.5571423],[-60.1537859,4.5473675],[-60.1613406,4.5178384],[-60.1370868,4.5144465],[-60.1183985,4.5017925],[-60.1007667,4.5089023],[-60.1040932,4.526991],[-60.0886886,4.5335155],[-60.0860988,4.5171059],[-60.0751889,4.524744],[-60.0645052,4.520806],[-60.0704062,4.4931448],[-60.0174846,4.4895684],[-60.0029889,4.4953267],[-59.9730815,4.4804099],[-59.9707564,4.5092841],[-59.9356094,4.4992856],[-59.9257703,4.4903032],[-59.9309801,4.4808723],[-59.9117921,4.4785119],[-59.9162465,4.4666526],[-59.9097458,4.4604327],[-59.8986099,4.47845],[-59.8795076,4.4749665],[-59.875453,4.4869304],[-59.8628609,4.4715829],[-59.8720123,4.461889],[-59.8619401,4.4524258],[-59.8328036,4.4581246],[-59.8307453,4.4509149],[-59.8126019,4.4463463],[-59.8041667,4.467],[-59.7956007,4.4655248],[-59.7935186,4.4471196],[-59.7831204,4.4499631],[-59.7814786,4.4399694],[-59.7667497,4.4376613],[-59.7544765,4.4196301],[-59.7363177,4.4239284],[-59.7211189,4.4101229],[-59.7211447,4.3981703],[-59.6939212,4.3797317],[-59.6846663,4.3850827],[-59.6712635,4.3767809],[-59.6834585,4.3640807],[-59.6792914,4.341192],[-59.7047496,4.3183233],[-59.7039732,4.3072305],[-59.71861,4.302781],[-59.7327827,4.2845709],[-59.7313685,4.2693295],[-59.7197051,4.2745242],[-59.7101826,4.2679196],[-59.7397371,4.2346793],[-59.7382418,4.2100278],[-59.7274706,4.190628],[-59.7311705,4.1810484],[-59.7090364,4.1618967],[-59.7953935,4.1796222],[-59.7661771,4.2117253],[-59.8903644,4.225023],[-59.9347816,4.2426959],[-59.9825305,4.2807189],[-60.0001669,4.2805617],[-60.0428864,4.3039365],[-60.0690867,4.2846719],[-60.0800366,4.2601861],[-60.1302846,4.2595453],[-60.1435387,4.2336139],[-60.1400869,4.2218718],[-60.1603384,4.203783],[-60.168784,4.2057306],[-60.1758942,4.1935975],[-60.2081499,4.179946],[-60.2248716,4.1827539],[-60.2226195,4.196456],[-60.231782,4.1965901],[-60.2743994,4.166645],[-60.2998685,4.1741469],[-60.3287872,4.1602536],[-60.3906505,4.1972894],[-60.4517587,4.2019574],[-60.4867022,4.2142672],[-60.5166211,4.2006562],[-60.5397113,4.2104804],[-60.5091212,4.2335083],[-60.532453,4.2548959],[-60.5602341,4.2623994],[-60.5677314,4.275453],[-60.541343,4.3012855],[-60.559478,4.3140143],[-60.5645932,4.3243385],[-60.5577613,4.3331492],[-60.5726726,4.3438745],[-60.5976771,4.3884828],[-60.642178,4.3918086],[-60.639339,4.4057945],[-60.6538396,4.409213],[-60.6564304,4.4187217],[-60.6365395,4.4763414],[-60.6440079,4.4851044],[-60.6115616,4.5457891],[-60.6402293,4.6168402],[-60.625203,4.6282899],[-60.6313382,4.6405401],[-60.626453,4.6540626],[-60.6444825,4.6705502],[-60.6383158,4.7187979],[-60.6508462,4.725504],[-60.6383137,4.7533034],[-60.6386793,4.8052069],[-60.613921,4.8429384],[-60.6380052,4.8773264],[-60.6523149,4.8844035],[-60.6262828,4.8895477],[-60.6169735,4.9105638],[-60.5898923,4.932044],[-60.5918893,4.9486001],[-60.5822577,4.958822],[-60.5952619,4.9975808],[-60.6168502,5.0087935],[-60.6105014,5.0374253],[-60.6276753,5.0378788],[-60.6453965,5.053342]]]}}]}