{"type":"FeatureCollection","name":"SE_Municipios_2024","crs":{"type":"name","properties":{"name":"urn:ogc:def:crs:EPSG::4674"}},"features":[{"type":"Feature","properties":{"level":"municipio","municipality_code":"2800100","municipality_name":"Amparo do São Francisco","uf":"SE","state_code":"28","area_km2":35.683},"geometry":{"type":"Polygon","coordinates":[[[-36.9434241,-10.2275439],[-36.9346917,-10.1206594],[-36.9179656,-10.1247048],[-36.9114192,-10.1387824],[-36.8825718,-10.1474604],[-36.9434241,-10.2275439]]]}},{"type":"Feature","properties":{"level":"municipio","municipality_code":"2800209","municipality_name":"Aquidabã","uf":"SE","state_code":"28","area_km2":359.543},"geometry":{"type":"Polygon","coordinates":[[[-37.0165915,-10.1908241],[-36.9947943,-10.1776004],[-36.9715941,-10.2045478],[-36.9611888,-10.2356638],[-36.9290282,-10.2228287],[-36.9523737,-10.2665204],[-36.9337251,-10.2761459],[-36.9561462,-10.2899791],[-37.0093454,-10.3023146],[-37.018091,-10.3321046],[-37.0382061,-10.3265793],[-37.0521233,-10.3422582],[-37.0663657,-10.3302105],[-37.1022881,-10.3695539],[-37.1262185,-10.3745895],[-37.1350318,-10.3582082],[-37.1441432,-10.3669044],[-37.1592152,-10.365872],[-37.1530421,-10.3462036],[-37.165733,-10.3314791],[-37.1492711,-10.3225567],[-37.1564138,-10.3075378],[-37.1471908,-10.3038822],[-37.1507866,-10.2888872],[-37.1378525,-10.2742795],[-37.1407158,-10.2463281],[-37.150998,-10.2358117],[-37.1361152,-10.1965166],[-37.1542915,-10.1873986],[-37.1504675,-10.1631679],[-37.0165915,-10.1908241]]]}},{"type":"Feature","properties":{"level":"municipio","municipality_code":"2800308","municipality_name":"Aracaju","uf":"SE","state_code":"28","area_km2":182.163},"geometry":{"type":"Polygon","coordinates":[[[-37.0444867,-10.9041933],[-37.0353692,-10.9798473],[-37.1257321,-11.1030674],[-37.1554197,-11.1611204],[-37.1655371,-11.1433202],[-37.1621307,-11.0938163],[-37.1734825,-11.0786082],[-37.1584154,-11.0556552],[-37.1385934,-11.0615812],[-37.0913904,-10.9409634],[-37.1075174,-10.9047974],[-37.1045125,-10.8867902],[-37.0967206,-10.8853137],[-37.1034334,-10.8766412],[-37.0827801,-10.8628182],[-37.0677388,-10.876753],[-37.0524571,-10.8626817],[-37.033909,-10.8700838],[-37.0444867,-10.9041933]]]}},{"type":"Feature","properties":{"level":"municipio","municipality_code":"2800407","municipality_name":"Arauá","uf":"SE","state_code":"28","area_km2":198.967},"geometry":{"type":"MultiPolygon","coordinates":[[[[-37.6391073,-11.3547056],[-37.6359251,-11.3408251],[-37.6349497,-11.3469007],[-37.6391073,-11.3547056]]],[[[-37.6753466,-11.3431213],[-37.6663589,-11.3327552],[-37.6562475,-11.3404188],[-37.6658784,-11.3458372],[-37.6753466,-11.3431213]]],[[[-37.662761,-11.3309596],[-37.6594466,-11.3236612],[-37.6468902,-11.32387],[-37.6535522,-11.3330822],[-37.662761,-11.3309596]]],[[[-37.6815313,-11.3209407],[-37.6739776,-11.3015038],[-37.6756694,-11.3239202],[-37.6815313,-11.3209407]]],[[[-37.6625739,-11.2517125],[-37.6712939,-11.2362036],[-37.6609578,-11.2190328],[-37.5969725,-11.2135944],[-37.5965344,-11.2035365],[-37.5461599,-11.1658542],[-37.556205,-11.1799853],[-37.5343804,-11.1900836],[-37.5372747,-11.2200379],[-37.5244098,-11.2268587],[-37.5259203,-11.25421],[-37.5059756,-11.2732841],[-37.5292267,-11.3050855],[-37.5483383,-11.303859],[-37.5720227,-11.3229727],[-37.5902262,-11.3249118],[-37.6032655,-11.3430164],[-37.6634408,-11.289966],[-37.6625739,-11.2517125]]]]}},{"type":"Feature","properties":{"level":"municipio","municipality_code":"2800506","municipality_name":"Areia Branca","uf":"SE","state_code":"28","area_km2":148.135},"geometry":{"type":"Polygon","coordinates":[[[-37.3162197,-10.7406873],[-37.2814371,-10.7202264],[-37.2725273,-10.7528384],[-37.2445086,-10.7783836],[-37.341471,-10.8484723],[-37.3755496,-10.8526351],[-37.4035254,-10.8445515],[-37.406934,-10.8321713],[-37.3617157,-10.7385046],[-37.3363221,-10.7217955],[-37.3101337,-10.729499],[-37.3162197,-10.7406873]]]}},{"type":"Feature","properties":{"level":"municipio","municipality_code":"2800605","municipality_name":"Barra dos Coqueiros","uf":"SE","state_code":"28","area_km2":92.268},"geometry":{"type":"MultiPolygon","coordinates":[[[[-37.0164353,-10.8749581],[-37.0156969,-10.8640143],[-36.9825624,-10.8481862],[-36.9878135,-10.8370553],[-36.9840592,-10.8318861],[-36.9684384,-10.832886],[-36.9591754,-10.8072664],[-36.9384231,-10.7953244],[-36.9373224,-10.7872725],[-36.9280848,-10.7901741],[-36.899418,-10.7725715],[-36.8762419,-10.738185],[-36.8527467,-10.7442257],[-36.9530599,-10.8515135],[-37.0346202,-10.9572985],[-37.0434926,-10.8897514],[-37.0164353,-10.8749581]]],[[[-36.9168652,-10.841946],[-36.9185385,-10.8462418],[-36.9194939,-10.8466112],[-36.9168652,-10.841946]]]]}},{"type":"Feature","properties":{"level":"municipio","municipality_code":"2800670","municipality_name":"Boquim","uf":"SE","state_code":"28","area_km2":205.443},"geometry":{"type":"Polygon","coordinates":[[[-37.5965344,-11.2035365],[-37.6383792,-11.1987046],[-37.6704119,-11.1830264],[-37.6798542,-11.1897078],[-37.6914622,-11.1712376],[-37.7045474,-11.1918161],[-37.7001799,-11.1829029],[-37.7067905,-11.1743166],[-37.6467198,-11.1261992],[-37.6495457,-11.1088792],[-37.6330279,-11.0814545],[-37.6237338,-11.0881261],[-37.6119221,-11.079902],[-37.622419,-11.0674753],[-37.5651514,-11.0400518],[-37.5685133,-11.0254575],[-37.531008,-10.9962223],[-37.5287229,-11.0538879],[-37.5530872,-11.1401137],[-37.5409246,-11.142625],[-37.5439998,-11.1534681],[-37.5544173,-11.1533404],[-37.5461599,-11.1658542],[-37.5965344,-11.2035365]]]}},{"type":"Feature","properties":{"level":"municipio","municipality_code":"2800704","municipality_name":"Brejo Grande","uf":"SE","state_code":"28","area_km2":141.464},"geometry":{"type":"Polygon","coordinates":[[[-36.4994128,-10.512986],[-36.5855626,-10.4997831],[-36.5285121,-10.4663984],[-36.5113225,-10.4455713],[-36.4840973,-10.4371604],[-36.4894107,-10.4245273],[-36.4598592,-10.4094752],[-36.4276286,-10.4335147],[-36.3959408,-10.4968722],[-36.4087988,-10.5126924],[-36.4903219,-10.5376418],[-36.4976767,-10.5384651],[-36.4846403,-10.5286229],[-36.4994128,-10.512986]]]}},{"type":"Feature","properties":{"level":"municipio","municipality_code":"2801009","municipality_name":"Campo do Brito","uf":"SE","state_code":"28","area_km2":201.518},"geometry":{"type":"Polygon","coordinates":[[[-37.524312,-10.8198389],[-37.5160762,-10.7989622],[-37.5301188,-10.790823],[-37.5271636,-10.7851672],[-37.557882,-10.7815553],[-37.5649723,-10.7707414],[-37.5600188,-10.7573246],[-37.5879724,-10.7222198],[-37.5950444,-10.695716],[-37.5864892,-10.6808928],[-37.550205,-10.6976672],[-37.5330786,-10.6890291],[-37.5007974,-10.688531],[-37.4629594,-10.7126137],[-37.4503118,-10.7390105],[-37.4515811,-10.7701096],[-37.4401316,-10.780569],[-37.4491399,-10.7897237],[-37.431412,-10.831316],[-37.4021619,-10.8249727],[-37.4557697,-10.881748],[-37.4700589,-10.8516191],[-37.4827867,-10.8575076],[-37.4793157,-10.8406723],[-37.524312,-10.8198389]]]}},{"type":"Feature","properties":{"level":"municipio","municipality_code":"2801108","municipality_name":"Canhoba","uf":"SE","state_code":"28","area_km2":171.581},"geometry":{"type":"Polygon","coordinates":[[[-36.9625596,-10.2315659],[-36.9715941,-10.2045478],[-36.9947943,-10.1776004],[-37.0169026,-10.1910129],[-37.1503834,-10.1631198],[-37.0471992,-10.124569],[-37.0392736,-10.1373381],[-36.9908867,-10.0851292],[-36.9483778,-10.0695783],[-36.9456955,-10.0873628],[-36.9309567,-10.098076],[-36.9179656,-10.1247048],[-36.9346917,-10.1206594],[-36.9434241,-10.2275439],[-36.9625596,-10.2315659]]]}},{"type":"Feature","properties":{"level":"municipio","municipality_code":"2801207","municipality_name":"Canindé de São Francisco","uf":"SE","state_code":"28","area_km2":1080.009},"geometry":{"type":"Polygon","coordinates":[[[-37.670392,-9.6559792],[-37.7864623,-9.814036],[-37.813004,-9.7948229],[-37.8545882,-9.7844089],[-37.8695573,-9.8408996],[-37.8724233,-9.8818679],[-37.8655244,-9.8961927],[-37.8771254,-9.9085491],[-37.902057,-9.9189257],[-37.9079333,-9.9107439],[-37.9445292,-9.9432229],[-37.9750295,-9.9369297],[-37.98418,-9.9178672],[-37.9967546,-9.9186602],[-38.0035001,-9.9055138],[-37.9941815,-9.9013919],[-37.9940994,-9.8807057],[-38.0139796,-9.8572678],[-38.002262,-9.8570742],[-37.9954442,-9.8460787],[-38.0030694,-9.8388013],[-37.9999705,-9.8143261],[-38.0186283,-9.8019716],[-38.0179723,-9.7834802],[-38.0325366,-9.770275],[-38.0440445,-9.7187105],[-38.0449455,-9.6968631],[-38.0343001,-9.6867161],[-38.0322192,-9.6606865],[-38.0089614,-9.6490583],[-38.0371882,-9.6280475],[-38.0556235,-9.6322014],[-38.0525472,-9.605277],[-38.0610055,-9.5875296],[-38.037948,-9.5819728],[-38.0372511,-9.5692134],[-38.0270047,-9.573857],[-38.0193667,-9.5629543],[-38.0226164,-9.5406648],[-38.0032899,-9.5150299],[-37.9893302,-9.5273587],[-37.9224297,-9.5478353],[-37.8924655,-9.5397968],[-37.8375369,-9.5832826],[-37.8331106,-9.5948864],[-37.8182483,-9.5928939],[-37.7861268,-9.6389131],[-37.7383194,-9.6257359],[-37.7094748,-9.630299],[-37.670392,-9.6559792]]]}},{"type":"Feature","properties":{"level":"municipio","municipality_code":"2801306","municipality_name":"Capela","uf":"SE","state_code":"28","area_km2":442.21},"geometry":{"type":"Polygon","coordinates":[[[-37.0726067,-10.5610016],[-37.0650315,-10.5304766],[-37.102427,-10.5305887],[-37.1027153,-10.5061496],[-37.1144064,-10.4824791],[-37.1386694,-10.4701314],[-37.1371291,-10.4537536],[-37.118728,-10.4414772],[-37.1084216,-10.4190499],[-37.118493,-10.4111823],[-37.1073838,-10.3989432],[-37.1192519,-10.3992199],[-37.1183578,-10.387703],[-37.1327486,-10.3827322],[-37.1190893,-10.3682475],[-37.1022881,-10.3695539],[-37.0663657,-10.3302105],[-37.0521233,-10.3422582],[-37.0382061,-10.3265793],[-37.0166657,-10.332553],[-37.0016114,-10.3276203],[-36.9953335,-10.3584015],[-36.9776687,-10.3727031],[-36.9869095,-10.3840738],[-36.9808397,-10.3943396],[-36.9852599,-10.4029878],[-36.9612852,-10.442273],[-36.9350043,-10.4494959],[-36.9563501,-10.5237373],[-36.9777728,-10.5301938],[-36.9755294,-10.5416351],[-37.0112606,-10.6413017],[-37.071822,-10.6150688],[-37.0643109,-10.6038422],[-37.0670495,-10.5897808],[-37.0769789,-10.5842236],[-37.0685068,-10.573013],[-37.0726067,-10.5610016]]]}},{"type":"Feature","properties":{"level":"municipio","municipality_code":"2801405","municipality_name":"Carira","uf":"SE","state_code":"28","area_km2":638.875},"geometry":{"type":"Polygon","coordinates":[[[-37.83513059522119,-10.37883023663032],[-37.7882391,-10.3567238],[-37.7851554,-10.3455695],[-37.7433128,-10.3383907],[-37.7451248,-10.3135839],[-37.768662,-10.2891961],[-37.7503827,-10.2894991],[-37.7488597,-10.2643236],[-37.7656795,-10.2518674],[-37.7470908,-10.2380727],[-37.7656811,-10.1960449],[-37.7485568,-10.1985052],[-37.7208032,-10.187338],[-37.7031804,-10.1915715],[-37.6961814,-10.2074338],[-37.6741243,-10.2062498],[-37.6232562,-10.2446875],[-37.6167763,-10.2404213],[-37.611094,-10.2492682],[-37.6065696,-10.2395261],[-37.6000943,-10.2428984],[-37.5966075,-10.250481],[-37.6114311,-10.2774942],[-37.5778493,-10.3291163],[-37.5755312,-10.3705491],[-37.6246926,-10.4121594],[-37.6810774,-10.4808625],[-37.729273,-10.5158173],[-37.7732187,-10.5067496],[-37.8153449,-10.517329],[-37.820987,-10.4836401],[-37.8596092,-10.4271198],[-37.852755,-10.4251898],[-37.8530312,-10.4061878],[-37.8382657,-10.4026976],[-37.83513059522119,-10.37883023663032]]]}},{"type":"Feature","properties":{"level":"municipio","municipality_code":"2801504","municipality_name":"Carmópolis","uf":"SE","state_code":"28","area_km2":46.395},"geometry":{"type":"Polygon","coordinates":[[[-36.9166333,-10.6855687],[-37.0113155,-10.6757627],[-37.0112606,-10.6413017],[-36.9688893,-10.6309563],[-36.9625984,-10.6483404],[-36.9329543,-10.6541058],[-36.9286623,-10.6712581],[-36.9094352,-10.6767976],[-36.8997862,-10.6926433],[-36.9121621,-10.7050192],[-36.9201876,-10.7010344],[-36.9166333,-10.6855687]]]}},{"type":"Feature","properties":{"level":"municipio","municipality_code":"2801603","municipality_name":"Cedro de São João","uf":"SE","state_code":"28","area_km2":83.71},"geometry":{"type":"Polygon","coordinates":[[[-36.8444497,-10.2619036],[-36.886201,-10.3008241],[-36.9026627,-10.3242115],[-36.9358844,-10.3066811],[-36.9337251,-10.2761459],[-36.9523737,-10.2665204],[-36.9290282,-10.2228287],[-36.8677089,-10.2281986],[-36.848501,-10.2402758],[-36.8444497,-10.2619036]]]}},{"type":"Feature","properties":{"level":"municipio","municipality_code":"2801702","municipality_name":"Cristinápolis","uf":"SE","state_code":"28","area_km2":228.556},"geometry":{"type":"Polygon","coordinates":[[[-37.7116031,-11.5529477],[-37.7269616,-11.5534672],[-37.7304166,-11.5380154],[-37.749361,-11.5386277],[-37.7592392,-11.5252842],[-37.7704478,-11.531999],[-37.7743479,-11.5249766],[-37.8122886,-11.51702],[-37.819295,-11.5011467],[-37.8081778,-11.4967332],[-37.832374,-11.4839149],[-37.8079199,-11.4545796],[-37.8091623,-11.4356483],[-37.7871613,-11.4236772],[-37.7877034,-11.4120931],[-37.7717346,-11.416202],[-37.7509998,-11.3999308],[-37.7473008,-11.4114882],[-37.7225309,-11.3991421],[-37.675779,-11.4465511],[-37.6752205,-11.4749045],[-37.6600746,-11.4846951],[-37.6530273,-11.4787156],[-37.6487351,-11.4999735],[-37.63709,-11.5017238],[-37.6322787,-11.5181274],[-37.6436043,-11.5244154],[-37.6503383,-11.5164438],[-37.6534499,-11.5295068],[-37.6642002,-11.5319608],[-37.6613297,-11.5461672],[-37.6730137,-11.5685667],[-37.6999138,-11.5624152],[-37.6954523,-11.5495619],[-37.7024599,-11.5401947],[-37.7116031,-11.5529477]]]}},{"type":"Feature","properties":{"level":"municipio","municipality_code":"2801900","municipality_name":"Cumbe","uf":"SE","state_code":"28","area_km2":128.393},"geometry":{"type":"Polygon","coordinates":[[[-37.1755752,-10.4143346],[-37.2069753,-10.4037437],[-37.2397293,-10.3596467],[-37.2492111,-10.320741],[-37.2354163,-10.3060628],[-37.2414728,-10.2873717],[-37.2560872,-10.2802189],[-37.2581841,-10.2682336],[-37.2929051,-10.255812],[-37.2676573,-10.2393881],[-37.2612124,-10.2383751],[-37.2433249,-10.2613256],[-37.2252299,-10.2968769],[-37.2003121,-10.2961531],[-37.1722968,-10.3109484],[-37.1667938,-10.3275958],[-37.1738083,-10.3395385],[-37.1530421,-10.3462036],[-37.1596835,-10.3653078],[-37.1441432,-10.3669044],[-37.1350318,-10.3582082],[-37.125037,-10.374994],[-37.1326635,-10.3833389],[-37.1183578,-10.387703],[-37.1167186,-10.4008272],[-37.1155584,-10.3983258],[-37.107256,-10.3992199],[-37.1149304,-10.4088741],[-37.1329615,-10.4055958],[-37.1446807,-10.4194118],[-37.1576771,-10.410673],[-37.1755752,-10.4143346]]]}},{"type":"Feature","properties":{"level":"municipio","municipality_code":"2802007","municipality_name":"Divina Pastora","uf":"SE","state_code":"28","area_km2":90.508},"geometry":{"type":"Polygon","coordinates":[[[-37.2058722,-10.7042177],[-37.1790459,-10.6525481],[-37.1800677,-10.6412222],[-37.1945831,-10.6254462],[-37.2038176,-10.6272893],[-37.2072713,-10.6075933],[-37.1779014,-10.6254765],[-37.1504959,-10.6208492],[-37.1589045,-10.6277891],[-37.1433828,-10.6252299],[-37.1460288,-10.636449],[-37.1340816,-10.6511942],[-37.0927444,-10.6382906],[-37.0883917,-10.6470535],[-37.1215582,-10.7027312],[-37.1425671,-10.7004704],[-37.1540621,-10.7263193],[-37.1510609,-10.7385457],[-37.1613708,-10.751421],[-37.1598596,-10.7354975],[-37.1711118,-10.7338634],[-37.1663892,-10.7266995],[-37.1791464,-10.7174614],[-37.1918289,-10.7283001],[-37.2071291,-10.7246051],[-37.1982858,-10.7203049],[-37.2058722,-10.7042177]]]}},{"type":"Feature","properties":{"level":"municipio","municipality_code":"2802106","municipality_name":"Estância","uf":"SE","state_code":"28","area_km2":647.344},"geometry":{"type":"Polygon","coordinates":[[[-37.3781217,-11.3403368],[-37.4072711,-11.3012423],[-37.4256922,-11.3081477],[-37.4427481,-11.2946138],[-37.4617827,-11.3111652],[-37.5232591,-11.2992933],[-37.5059756,-11.2732841],[-37.5259203,-11.25421],[-37.5244098,-11.2268587],[-37.5372747,-11.2200379],[-37.5343804,-11.1900836],[-37.556205,-11.1799853],[-37.5461599,-11.1658542],[-37.458977,-11.14633],[-37.4343229,-11.1202106],[-37.4391385,-11.1139767],[-37.4300615,-11.1067969],[-37.4382073,-11.0870033],[-37.3888122,-11.0529643],[-37.3355648,-11.1162354],[-37.339353,-11.129792],[-37.3312872,-11.1420716],[-37.3496641,-11.1968725],[-37.3315319,-11.2107377],[-37.3291696,-11.2366697],[-37.2601649,-11.2895829],[-37.2996847,-11.3636844],[-37.3122179,-11.4229911],[-37.3379097,-11.4428246],[-37.3552553,-11.4436993],[-37.3676918,-11.4586261],[-37.3996098,-11.436576],[-37.4097131,-11.4191075],[-37.4042196,-11.387539],[-37.3894039,-11.3719985],[-37.3886661,-11.3549629],[-37.3781217,-11.3403368]]]}},{"type":"Feature","properties":{"level":"municipio","municipality_code":"2802205","municipality_name":"Feira Nova","uf":"SE","state_code":"28","area_km2":185.219},"geometry":{"type":"Polygon","coordinates":[[[-37.3436454,-10.3855205],[-37.3561776,-10.3665528],[-37.344522,-10.3578061],[-37.3495628,-10.346549],[-37.3590068,-10.3449352],[-37.356337,-10.3335984],[-37.3734717,-10.330012],[-37.3782933,-10.3159058],[-37.3917022,-10.3170813],[-37.3847886,-10.2983925],[-37.3957681,-10.2884385],[-37.3896518,-10.2739653],[-37.3983925,-10.2548417],[-37.3839505,-10.2191747],[-37.3553915,-10.2084326],[-37.2612835,-10.2383829],[-37.2929051,-10.255812],[-37.2581841,-10.2682336],[-37.2395249,-10.2971856],[-37.2954171,-10.3198469],[-37.3259231,-10.374664],[-37.34438,-10.37873],[-37.3436454,-10.3855205]]]}},{"type":"Feature","properties":{"level":"municipio","municipality_code":"2802304","municipality_name":"Frei Paulo","uf":"SE","state_code":"28","area_km2":399.178},"geometry":{"type":"Polygon","coordinates":[[[-37.558318,-10.4440547],[-37.4745009,-10.5664591],[-37.50946,-10.626232],[-37.5304611,-10.6457986],[-37.5585747,-10.6194508],[-37.6412101,-10.604553],[-37.6885609,-10.5319171],[-37.7226499,-10.5100709],[-37.6810774,-10.4808625],[-37.6246926,-10.4121594],[-37.5755312,-10.3705491],[-37.558318,-10.4440547]]]}},{"type":"Feature","properties":{"level":"municipio","municipality_code":"2802403","municipality_name":"Gararu","uf":"SE","state_code":"28","area_km2":661.622},"geometry":{"type":"Polygon","coordinates":[[[-37.0067053,-10.0376797],[-37.0297839,-10.0569375],[-37.062024,-10.0615473],[-37.1026797,-10.0510124],[-37.1384388,-10.0569025],[-37.1731218,-10.0493795],[-37.1803291,-10.0345387],[-37.1969494,-10.0256943],[-37.1871252,-10.0390058],[-37.1925604,-10.0519445],[-37.1844436,-10.0549867],[-37.1978633,-10.069152],[-37.1863556,-10.0664223],[-37.184131,-10.0734328],[-37.1994626,-10.0811166],[-37.2122811,-10.0774731],[-37.2051143,-10.0958591],[-37.2180049,-10.090015],[-37.2153314,-10.1033997],[-37.229236,-10.1004525],[-37.2309436,-10.1170828],[-37.220092,-10.1136207],[-37.226795,-10.1199928],[-37.2182935,-10.1311278],[-37.2235964,-10.133172],[-37.2205745,-10.1553709],[-37.2387866,-10.1588709],[-37.2465282,-10.147392],[-37.2794672,-10.1712546],[-37.2821664,-10.1580552],[-37.297264,-10.1547628],[-37.314942,-10.154288],[-37.3369363,-10.1699654],[-37.3454123,-10.1660389],[-37.33442,-10.1250105],[-37.3847788,-10.0952449],[-37.38011,-10.0839872],[-37.4197661,-10.0616936],[-37.3824079,-10.0380132],[-37.3847264,-10.0303766],[-37.3751998,-10.0250883],[-37.37973,-10.0207444],[-37.3723104,-10.0210493],[-37.3794874,-10.0099575],[-37.3510899,-10.0143383],[-37.3516181,-9.9942363],[-37.3410855,-9.9983996],[-37.3373883,-9.9862826],[-37.3275703,-10.0093361],[-37.3320443,-10.0158918],[-37.3062567,-9.9994871],[-37.2935493,-10.0158607],[-37.2853469,-10.0081244],[-37.2837624,-9.9890167],[-37.2648411,-9.9930246],[-37.2707132,-9.9621105],[-37.2340625,-9.9584728],[-37.2262513,-9.8977169],[-37.1651869,-9.8933632],[-37.1138859,-9.9256234],[-37.0624048,-9.9825197],[-37.0330877,-9.9875786],[-36.9963712,-9.9723746],[-36.9667231,-9.9881302],[-36.9534541,-10.0228196],[-37.0067053,-10.0376797]]]}},{"type":"Feature","properties":{"level":"municipio","municipality_code":"2802502","municipality_name":"General Maynard","uf":"SE","state_code":"28","area_km2":19.793},"geometry":{"type":"Polygon","coordinates":[[[-37.0113155,-10.6757627],[-36.9166333,-10.6855687],[-36.949884,-10.7127352],[-36.96126,-10.7040099],[-36.9945167,-10.7025205],[-37.0164201,-10.6848354],[-37.0113155,-10.6757627]]]}},{"type":"Feature","properties":{"level":"municipio","municipality_code":"2802601","municipality_name":"Graccho Cardoso","uf":"SE","state_code":"28","area_km2":243.803},"geometry":{"type":"Polygon","coordinates":[[[-37.1496476,-10.2399083],[-37.1407158,-10.2463281],[-37.1378525,-10.2742795],[-37.1507866,-10.2888872],[-37.1471908,-10.3038822],[-37.1564138,-10.3075378],[-37.1492711,-10.3225567],[-37.165733,-10.3314791],[-37.1680285,-10.3422421],[-37.175011,-10.334706],[-37.1667938,-10.3275958],[-37.1722968,-10.3109484],[-37.2003121,-10.2961531],[-37.2232395,-10.2983458],[-37.2612124,-10.2383751],[-37.3320214,-10.210962],[-37.3364048,-10.1992018],[-37.3197987,-10.1795305],[-37.314942,-10.154288],[-37.2853698,-10.1558455],[-37.2788146,-10.1711804],[-37.2453121,-10.1470805],[-37.2387866,-10.1588709],[-37.2216604,-10.1567046],[-37.2184378,-10.1358716],[-37.2034068,-10.1474876],[-37.2047656,-10.1577567],[-37.1949052,-10.1633603],[-37.1907687,-10.1577808],[-37.1810887,-10.1744352],[-37.1504675,-10.1631679],[-37.1542915,-10.1873986],[-37.1361152,-10.1965166],[-37.1484434,-10.2169716],[-37.1496476,-10.2399083]]]}},{"type":"Feature","properties":{"level":"municipio","municipality_code":"2802700","municipality_name":"Ilha das Flores","uf":"SE","state_code":"28","area_km2":52.693},"geometry":{"type":"Polygon","coordinates":[[[-36.4880321,-10.427805],[-36.4840973,-10.4371604],[-36.5113225,-10.4455713],[-36.5285121,-10.4663984],[-36.5831104,-10.4992323],[-36.6001494,-10.4968425],[-36.5919237,-10.4821032],[-36.6001144,-10.4782722],[-36.5953867,-10.4490385],[-36.5862937,-10.4515662],[-36.5821906,-10.4376726],[-36.5660077,-10.4322805],[-36.5620287,-10.4156544],[-36.5350737,-10.4302845],[-36.4880321,-10.427805]]]}},{"type":"Feature","properties":{"level":"municipio","municipality_code":"2802809","municipality_name":"Indiaroba","uf":"SE","state_code":"28","area_km2":316.316},"geometry":{"type":"Polygon","coordinates":[[[-37.3676918,-11.4586261],[-37.4554887,-11.5231383],[-37.5047505,-11.5249101],[-37.51919,-11.5490176],[-37.5570684,-11.5514531],[-37.5682573,-11.5384288],[-37.5785501,-11.5521789],[-37.5859964,-11.5413743],[-37.5814592,-11.530559],[-37.590269,-11.5284951],[-37.6045037,-11.5402862],[-37.6286042,-11.5293432],[-37.63709,-11.5017238],[-37.6459559,-11.5036467],[-37.6527085,-11.4825757],[-37.6023638,-11.3888636],[-37.5584492,-11.4140892],[-37.5226951,-11.4221423],[-37.5071628,-11.4140298],[-37.495291,-11.4417506],[-37.4773249,-11.4500807],[-37.4473188,-11.4422997],[-37.4415665,-11.4263473],[-37.4211413,-11.4302299],[-37.4087064,-11.4238657],[-37.3676918,-11.4586261]]]}},{"type":"Feature","properties":{"level":"municipio","municipality_code":"2802908","municipality_name":"Itabaiana","uf":"SE","state_code":"28","area_km2":337.348},"geometry":{"type":"Polygon","coordinates":[[[-37.4280526,-10.5789411],[-37.3918738,-10.5842585],[-37.3883675,-10.6288372],[-37.3806926,-10.6310384],[-37.3794849,-10.6232856],[-37.3693166,-10.6295872],[-37.3548336,-10.6569072],[-37.3289039,-10.6536764],[-37.3204733,-10.6921595],[-37.3309527,-10.7182635],[-37.3617157,-10.7385046],[-37.4021619,-10.8249727],[-37.431412,-10.831316],[-37.4491399,-10.7897237],[-37.4400154,-10.7817837],[-37.451835,-10.7692211],[-37.4551607,-10.7241084],[-37.5003014,-10.6921632],[-37.5304611,-10.6457986],[-37.50946,-10.626232],[-37.4745009,-10.5664591],[-37.4597452,-10.5943099],[-37.4280526,-10.5789411]]]}},{"type":"Feature","properties":{"level":"municipio","municipality_code":"2803005","municipality_name":"Itabaianinha","uf":"SE","state_code":"28","area_km2":501.794},"geometry":{"type":"Polygon","coordinates":[[[-37.7844087,-11.3736982],[-37.7916286,-11.3473244],[-37.8149496,-11.3315567],[-37.8176541,-11.3197876],[-37.8291451,-11.3201962],[-37.8495695,-11.2979486],[-37.8631424,-11.299791],[-37.8707856,-11.2842604],[-37.878623,-11.2886445],[-37.8996146,-11.275293],[-37.9169359,-11.2891878],[-37.9361931,-11.2697816],[-37.9047926,-11.2219551],[-37.88619,-11.21271],[-37.8674576,-11.2213261],[-37.87638,-11.1865902],[-37.8464968,-11.1607612],[-37.7934412,-11.1329744],[-37.7772639,-11.1317266],[-37.7573133,-11.1488547],[-37.7366496,-11.1498351],[-37.7269937,-11.1649132],[-37.7179914,-11.161957],[-37.7035075,-11.1773916],[-37.7055724,-11.191311],[-37.6896624,-11.2035815],[-37.6774068,-11.2347032],[-37.6635097,-11.2473302],[-37.6634408,-11.289966],[-37.6921173,-11.308129],[-37.6922092,-11.3658342],[-37.7361594,-11.4081904],[-37.7473008,-11.4114882],[-37.7509998,-11.3999308],[-37.7512879,-11.405701],[-37.7640677,-11.4032731],[-37.760626,-11.3945235],[-37.7688707,-11.3900543],[-37.7705426,-11.3768541],[-37.7844087,-11.3736982]]]}},{"type":"Feature","properties":{"level":"municipio","municipality_code":"2803104","municipality_name":"Itabi","uf":"SE","state_code":"28","area_km2":183.422},"geometry":{"type":"Polygon","coordinates":[[[-37.1731218,-10.0493795],[-37.062024,-10.0615473],[-37.0664591,-10.1364347],[-37.1799955,-10.1747959],[-37.1907687,-10.1577808],[-37.1949052,-10.1633603],[-37.2047656,-10.1577567],[-37.2034068,-10.1474876],[-37.2234281,-10.1339777],[-37.2202896,-10.1224219],[-37.226795,-10.1199928],[-37.220092,-10.1136207],[-37.2330118,-10.1131507],[-37.2290436,-10.1003323],[-37.2143406,-10.1022781],[-37.2187504,-10.0902675],[-37.2051143,-10.0958591],[-37.2125937,-10.0776775],[-37.1994626,-10.0811166],[-37.184131,-10.0734328],[-37.1863556,-10.0664223],[-37.1978633,-10.069152],[-37.1844436,-10.0549867],[-37.1925604,-10.0519445],[-37.1871252,-10.0390058],[-37.1969494,-10.0256943],[-37.1803291,-10.0345387],[-37.1731218,-10.0493795]]]}},{"type":"Feature","properties":{"level":"municipio","municipality_code":"2803203","municipality_name":"Itaporanga d'Ajuda","uf":"SE","state_code":"28","area_km2":739.702},"geometry":{"type":"Polygon","coordinates":[[[-37.3508842,-11.0910635],[-37.3767241,-11.0718626],[-37.4020602,-11.0385245],[-37.4264599,-10.9883524],[-37.4556426,-10.9775498],[-37.5036059,-10.9011008],[-37.4942326,-10.9047067],[-37.4640063,-10.8925316],[-37.4031663,-10.8257562],[-37.4035254,-10.8445515],[-37.3755496,-10.8526351],[-37.341471,-10.8484723],[-37.3291011,-10.8334353],[-37.3195399,-10.8329739],[-37.3276865,-10.9331335],[-37.3350999,-10.9439583],[-37.3324974,-10.963364],[-37.3232952,-10.9698457],[-37.3279273,-10.9762921],[-37.3028845,-10.9868043],[-37.3020012,-11.0086733],[-37.2942088,-11.0183223],[-37.2874281,-11.0142072],[-37.279717,-11.0291674],[-37.2271831,-11.0406083],[-37.2192182,-11.0765138],[-37.1663878,-11.1053588],[-37.1645136,-11.1503377],[-37.154509,-11.1616028],[-37.2601649,-11.2895829],[-37.3282119,-11.2379253],[-37.3315319,-11.2107377],[-37.3496641,-11.1968725],[-37.3310956,-11.1391986],[-37.3508842,-11.0910635]]]}},{"type":"Feature","properties":{"level":"municipio","municipality_code":"2803302","municipality_name":"Japaratuba","uf":"SE","state_code":"28","area_km2":365.677},"geometry":{"type":"Polygon","coordinates":[[[-36.9609489,-10.6497497],[-36.9688893,-10.6309563],[-37.0112606,-10.6413017],[-36.9755294,-10.5416351],[-36.9777728,-10.5301938],[-36.9563501,-10.5237373],[-36.9329383,-10.4262098],[-36.9059207,-10.4168729],[-36.9029969,-10.4025956],[-36.8838934,-10.3962304],[-36.8770145,-10.411793],[-36.8570249,-10.420331],[-36.8753111,-10.4378425],[-36.8683989,-10.484486],[-36.855512,-10.4990992],[-36.8459844,-10.4964359],[-36.8323185,-10.5308539],[-36.8080018,-10.5489134],[-36.8096051,-10.5737166],[-36.7812829,-10.5749411],[-36.9235489,-10.6768659],[-36.9329543,-10.6541058],[-36.9609489,-10.6497497]]]}},{"type":"Feature","properties":{"level":"municipio","municipality_code":"2803401","municipality_name":"Japoatã","uf":"SE","state_code":"28","area_km2":402.353},"geometry":{"type":"Polygon","coordinates":[[[-36.7024605,-10.4172374],[-36.720612,-10.5271071],[-36.7514176,-10.5414491],[-36.7540352,-10.552823],[-36.7448165,-10.5625301],[-36.7559235,-10.5913029],[-36.7715854,-10.5770099],[-36.8096051,-10.5737166],[-36.8080018,-10.5489134],[-36.8323185,-10.5308539],[-36.8459844,-10.4964359],[-36.855512,-10.4990992],[-36.8683989,-10.484486],[-36.8753111,-10.4378425],[-36.8578375,-10.4277022],[-36.8573747,-10.4192647],[-36.8770145,-10.411793],[-36.8838601,-10.3962447],[-36.903133,-10.3987621],[-36.891604,-10.3859811],[-36.85648,-10.3825651],[-36.843868,-10.3669681],[-36.8450073,-10.3418112],[-36.8267359,-10.3290594],[-36.807406,-10.3288751],[-36.8220782,-10.300361],[-36.8007694,-10.2947798],[-36.7952905,-10.2825935],[-36.7887182,-10.3011152],[-36.7616131,-10.3190906],[-36.7489508,-10.3144917],[-36.7359457,-10.3269978],[-36.7336168,-10.3634443],[-36.7053105,-10.4004672],[-36.7105375,-10.4027679],[-36.7024605,-10.4172374]]]}},{"type":"Feature","properties":{"level":"municipio","municipality_code":"2803500","municipality_name":"Lagarto","uf":"SE","state_code":"28","area_km2":968.921},"geometry":{"type":"Polygon","coordinates":[[[-37.622419,-11.0674753],[-37.6753099,-11.0213743],[-37.6922682,-11.0263171],[-37.709329,-11.0035869],[-37.743761,-10.9891812],[-37.7416961,-11.0106107],[-37.7541506,-11.0033429],[-37.7727023,-11.0182688],[-37.7763931,-11.0058793],[-37.7863763,-11.0064321],[-37.7930913,-11.018529],[-37.8114479,-11.0031803],[-37.8220646,-11.0053211],[-37.8267329,-10.9892024],[-37.8382755,-10.9867423],[-37.8349749,-10.9513786],[-37.8462588,-10.9337862],[-37.8751513,-10.9202586],[-37.8658023,-10.8972193],[-37.8757641,-10.8639154],[-37.8608151,-10.8693198],[-37.8283798,-10.8589943],[-37.8138269,-10.8698319],[-37.8045658,-10.8378814],[-37.7327519,-10.7973945],[-37.7075004,-10.7381666],[-37.678581,-10.7265889],[-37.6698117,-10.7078176],[-37.6615124,-10.717268],[-37.6459255,-10.6964149],[-37.6461463,-10.7101601],[-37.6207553,-10.7067911],[-37.6159855,-10.7136522],[-37.6310431,-10.7265038],[-37.633483,-10.7484526],[-37.6202384,-10.7487298],[-37.599887,-10.7787792],[-37.6143364,-10.7982326],[-37.5945617,-10.8266034],[-37.5742729,-10.8393889],[-37.5445633,-10.835199],[-37.5177954,-10.8453348],[-37.4912638,-10.8301172],[-37.4782698,-10.8429238],[-37.4827867,-10.8575076],[-37.4706426,-10.8513508],[-37.4626389,-10.8592672],[-37.4557697,-10.881748],[-37.4640063,-10.8925316],[-37.4942326,-10.9047067],[-37.5036059,-10.9011008],[-37.4556426,-10.9775498],[-37.5196612,-10.9603419],[-37.531008,-10.9962223],[-37.5685133,-11.0254575],[-37.5651514,-11.0400518],[-37.622419,-11.0674753]]]}},{"type":"Feature","properties":{"level":"municipio","municipality_code":"2803609","municipality_name":"Laranjeiras","uf":"SE","state_code":"28","area_km2":162.273},"geometry":{"type":"Polygon","coordinates":[[[-37.1473328,-10.7698998],[-37.1322551,-10.7682616],[-37.1259331,-10.7862866],[-37.1029549,-10.7747855],[-37.0903604,-10.7798956],[-37.0873308,-10.7984015],[-37.0648794,-10.8230342],[-37.1014778,-10.8181255],[-37.117922,-10.8320264],[-37.1566792,-10.8318778],[-37.1737431,-10.8420749],[-37.179163,-10.855183],[-37.2149475,-10.8481225],[-37.2353877,-10.834815],[-37.3176723,-10.8316402],[-37.2250751,-10.7595613],[-37.2160125,-10.7652624],[-37.1613708,-10.751421],[-37.1473328,-10.7698998]]]}},{"type":"Feature","properties":{"level":"municipio","municipality_code":"2803708","municipality_name":"Macambira","uf":"SE","state_code":"28","area_km2":137.496},"geometry":{"type":"Polygon","coordinates":[[[-37.5585747,-10.6194508],[-37.5180585,-10.6565709],[-37.5203289,-10.6630663],[-37.5007974,-10.688531],[-37.5330786,-10.6890291],[-37.550205,-10.6976672],[-37.5864892,-10.6808928],[-37.5953666,-10.6975931],[-37.6058542,-10.6950852],[-37.605213,-10.7093346],[-37.6117962,-10.7133244],[-37.6207553,-10.7067911],[-37.6445609,-10.7109569],[-37.6459255,-10.6964149],[-37.6628578,-10.7172813],[-37.6686249,-10.6749001],[-37.6454315,-10.6084051],[-37.5585747,-10.6194508]]]}},{"type":"Feature","properties":{"level":"municipio","municipality_code":"2803807","municipality_name":"Malhada dos Bois","uf":"SE","state_code":"28","area_km2":63.199},"geometry":{"type":"Polygon","coordinates":[[[-36.9007488,-10.3501212],[-36.9157572,-10.3934145],[-37.0093454,-10.3023146],[-36.9561462,-10.2899791],[-36.9337251,-10.2761459],[-36.9358844,-10.3066811],[-36.9026627,-10.3242115],[-36.9007488,-10.3501212]]]}},{"type":"Feature","properties":{"level":"municipio","municipality_code":"2803906","municipality_name":"Malhador","uf":"SE","state_code":"28","area_km2":101.888},"geometry":{"type":"Polygon","coordinates":[[[-37.3363221,-10.7217955],[-37.3204733,-10.6921595],[-37.3323471,-10.6396081],[-37.3261513,-10.6231868],[-37.2963995,-10.6010278],[-37.2790216,-10.6326321],[-37.2681747,-10.6341412],[-37.2588999,-10.6492917],[-37.2464671,-10.6477082],[-37.246422,-10.6611309],[-37.2289888,-10.6753196],[-37.2320275,-10.6957926],[-37.222834,-10.7039865],[-37.2487985,-10.709345],[-37.2589259,-10.701732],[-37.2649919,-10.7126826],[-37.2760971,-10.7111646],[-37.3162197,-10.7406873],[-37.3101337,-10.729499],[-37.3363221,-10.7217955]]]}},{"type":"Feature","properties":{"level":"municipio","municipality_code":"2804003","municipality_name":"Maruim","uf":"SE","state_code":"28","area_km2":95.554},"geometry":{"type":"Polygon","coordinates":[[[-37.1613708,-10.751421],[-37.1425671,-10.7004704],[-37.1215582,-10.7027312],[-37.090771,-10.6551506],[-37.0887825,-10.6820408],[-37.0586352,-10.6910963],[-37.0515417,-10.7012838],[-37.0618424,-10.7144897],[-37.0744729,-10.7790198],[-37.0881783,-10.7831768],[-37.1029549,-10.7747855],[-37.1272201,-10.7857627],[-37.1322551,-10.7682616],[-37.1500066,-10.7701676],[-37.1613708,-10.751421]]]}},{"type":"Feature","properties":{"level":"municipio","municipality_code":"2804102","municipality_name":"Moita Bonita","uf":"SE","state_code":"28","area_km2":95.397},"geometry":{"type":"Polygon","coordinates":[[[-37.2939394,-10.5761774],[-37.263165,-10.5773283],[-37.2480033,-10.594364],[-37.278479,-10.5865878],[-37.2932421,-10.5945323],[-37.3261513,-10.6231868],[-37.3289039,-10.6536764],[-37.3548336,-10.6569072],[-37.3693166,-10.6295872],[-37.3794849,-10.6232856],[-37.3806926,-10.6310384],[-37.3883675,-10.6288372],[-37.3870137,-10.5974071],[-37.3941919,-10.5802847],[-37.3542736,-10.5434295],[-37.3202025,-10.5402951],[-37.3097895,-10.5470122],[-37.3105161,-10.5659803],[-37.2939394,-10.5761774]]]}},{"type":"Feature","properties":{"level":"municipio","municipality_code":"2804201","municipality_name":"Monte Alegre de Sergipe","uf":"SE","state_code":"28","area_km2":387.352},"geometry":{"type":"Polygon","coordinates":[[[-37.4957649,-10.0971539],[-37.5538493,-10.1130615],[-37.5572514,-10.1223823],[-37.5623934,-10.1070962],[-37.5888956,-10.0897749],[-37.6042905,-10.1030882],[-37.6166251,-10.0954762],[-37.6224662,-10.1064748],[-37.6300005,-10.1023425],[-37.6704825,-10.1300041],[-37.6876499,-10.121792],[-37.6975937,-10.1283641],[-37.7772678,-10.0981154],[-37.7846907,-10.1058249],[-37.7795952,-10.1335766],[-37.8020145,-10.1124474],[-37.7826444,-10.0435984],[-37.7899389,-10.0322659],[-37.7384552,-10.0289682],[-37.7324491,-10.0207638],[-37.7239739,-10.0283826],[-37.7020584,-10.0137528],[-37.6845657,-10.0283791],[-37.6622662,-10.0127848],[-37.6146056,-10.0264554],[-37.6089509,-10.0196201],[-37.5962435,-10.0224163],[-37.5873577,-9.9996735],[-37.5755823,-9.9978715],[-37.4700656,-10.0225294],[-37.4123589,-10.0689584],[-37.4153882,-10.0773782],[-37.4292762,-10.0636611],[-37.4277228,-10.0765083],[-37.4423254,-10.0754053],[-37.4405389,-10.084897],[-37.4326162,-10.0859689],[-37.4400844,-10.0912928],[-37.4371642,-10.1029286],[-37.4594913,-10.103461],[-37.4647576,-10.0917479],[-37.4757064,-10.0960202],[-37.4811467,-10.0891225],[-37.489986,-10.1012862],[-37.4957649,-10.0971539]]]}},{"type":"Feature","properties":{"level":"municipio","municipality_code":"2804300","municipality_name":"Muribeca","uf":"SE","state_code":"28","area_km2":74.31},"geometry":{"type":"Polygon","coordinates":[[[-36.9363816,-10.4509052],[-36.9612852,-10.442273],[-36.9852599,-10.4029878],[-36.9808397,-10.3943396],[-36.9869095,-10.3840738],[-36.9776687,-10.3727031],[-36.9961182,-10.356864],[-36.9988568,-10.3302788],[-37.018091,-10.3321046],[-37.0093454,-10.3023146],[-36.9029969,-10.4025956],[-36.9055524,-10.4166327],[-36.9329383,-10.4262098],[-36.9363816,-10.4509052]]]}},{"type":"Feature","properties":{"level":"municipio","municipality_code":"2804409","municipality_name":"Neópolis","uf":"SE","state_code":"28","area_km2":271.323},"geometry":{"type":"Polygon","coordinates":[[[-36.5988129,-10.4150926],[-36.6484104,-10.3996909],[-36.7019122,-10.4057143],[-36.7336168,-10.3634443],[-36.7393937,-10.3213321],[-36.7491525,-10.3144564],[-36.7617588,-10.3190166],[-36.804714,-10.280497],[-36.7972119,-10.2800771],[-36.7868082,-10.2625912],[-36.7763186,-10.2661132],[-36.7595009,-10.2546023],[-36.7353528,-10.2827973],[-36.7054971,-10.2838758],[-36.7016177,-10.2704043],[-36.6836708,-10.270751],[-36.6536409,-10.3210714],[-36.5872923,-10.301272],[-36.5718256,-10.3161472],[-36.5567435,-10.3770811],[-36.5660077,-10.4322805],[-36.5821906,-10.4376726],[-36.5862937,-10.4515662],[-36.5908179,-10.4454194],[-36.5956897,-10.4497362],[-36.6001144,-10.4782722],[-36.5919237,-10.4821032],[-36.6001494,-10.4968425],[-36.6095589,-10.4263746],[-36.5988129,-10.4150926]]]}},{"type":"Feature","properties":{"level":"municipio","municipality_code":"2804458","municipality_name":"Nossa Senhora Aparecida","uf":"SE","state_code":"28","area_km2":340.856},"geometry":{"type":"Polygon","coordinates":[[[-37.4042679,-10.2906046],[-37.4130482,-10.3460054],[-37.4103647,-10.4167983],[-37.421059,-10.4017796],[-37.4745128,-10.4599091],[-37.5475392,-10.4618202],[-37.558318,-10.4440547],[-37.5770116,-10.3669454],[-37.5778493,-10.3291163],[-37.6114311,-10.2774942],[-37.5966075,-10.250481],[-37.5817914,-10.2403026],[-37.5542463,-10.2671776],[-37.5529239,-10.2585967],[-37.5388812,-10.2586331],[-37.5447822,-10.2688743],[-37.5113625,-10.2973707],[-37.4823212,-10.2817756],[-37.4837502,-10.2951863],[-37.4707238,-10.2905704],[-37.4623118,-10.2775822],[-37.4593168,-10.2878211],[-37.4354833,-10.2953267],[-37.4286005,-10.3079674],[-37.4275179,-10.3012057],[-37.4101482,-10.304294],[-37.4042679,-10.2906046]]]}},{"type":"Feature","properties":{"level":"municipio","municipality_code":"2804508","municipality_name":"Nossa Senhora da Glória","uf":"SE","state_code":"28","area_km2":754.959},"geometry":{"type":"Polygon","coordinates":[[[-37.4348636,-10.2966859],[-37.4562914,-10.2905037],[-37.4623118,-10.2775822],[-37.4707238,-10.2905704],[-37.4837502,-10.2951863],[-37.4823212,-10.2817756],[-37.5113625,-10.2973707],[-37.5447822,-10.2688743],[-37.5391196,-10.2584823],[-37.5537566,-10.2590689],[-37.5542463,-10.2671776],[-37.5817914,-10.2403026],[-37.5933654,-10.2518701],[-37.6064673,-10.2394881],[-37.6128323,-10.2491332],[-37.6741243,-10.2062498],[-37.6961814,-10.2074338],[-37.7031804,-10.1915715],[-37.7208032,-10.187338],[-37.7485568,-10.1985052],[-37.7648215,-10.1968544],[-37.7823998,-10.1849555],[-37.7744417,-10.1443551],[-37.7844428,-10.1041332],[-37.7772678,-10.0981154],[-37.6975937,-10.1283641],[-37.6876499,-10.121792],[-37.6699152,-10.1299998],[-37.6300005,-10.1023425],[-37.6224662,-10.1064748],[-37.6166251,-10.0954762],[-37.6042905,-10.1030882],[-37.5883674,-10.0897749],[-37.5623934,-10.1070962],[-37.5572514,-10.1223823],[-37.5530259,-10.1127974],[-37.5328618,-10.1142266],[-37.4957649,-10.0971539],[-37.4910734,-10.1018765],[-37.4816127,-10.0891691],[-37.4757064,-10.0960202],[-37.4647576,-10.0917479],[-37.4594913,-10.103461],[-37.4371642,-10.1029286],[-37.4400844,-10.0912928],[-37.4326162,-10.0859689],[-37.4409273,-10.0844621],[-37.441937,-10.0748771],[-37.4277228,-10.0765083],[-37.4292762,-10.0636611],[-37.4148755,-10.077518],[-37.4197661,-10.0616936],[-37.4037926,-10.0670065],[-37.38011,-10.0839872],[-37.3847788,-10.0952449],[-37.3341422,-10.1254416],[-37.3454123,-10.1660389],[-37.3369363,-10.1699654],[-37.314942,-10.154288],[-37.3197987,-10.1795305],[-37.3364048,-10.1992018],[-37.3321309,-10.2112709],[-37.3553915,-10.2084326],[-37.3839505,-10.2191747],[-37.398359,-10.2531503],[-37.3899621,-10.2701654],[-37.3933009,-10.2867341],[-37.4053777,-10.2848817],[-37.411372,-10.3050758],[-37.4275179,-10.3012057],[-37.4286005,-10.3079674],[-37.4348636,-10.2966859]]]}},{"type":"Feature","properties":{"level":"municipio","municipality_code":"2804607","municipality_name":"Nossa Senhora das Dores","uf":"SE","state_code":"28","area_km2":482.367},"geometry":{"type":"Polygon","coordinates":[[[-37.1781852,-10.5654979],[-37.1707958,-10.5706427],[-37.1761449,-10.5802518],[-37.2055677,-10.6025758],[-37.2056668,-10.6245996],[-37.263165,-10.5773283],[-37.3035465,-10.5743639],[-37.3130332,-10.5589972],[-37.3097895,-10.5470122],[-37.3172515,-10.5466966],[-37.3597863,-10.4835447],[-37.3495206,-10.4916482],[-37.2745684,-10.465872],[-37.2902817,-10.4665879],[-37.2948904,-10.432416],[-37.3029159,-10.4358638],[-37.3077956,-10.4249943],[-37.3203403,-10.4343055],[-37.3311125,-10.4317439],[-37.3327585,-10.4237671],[-37.3242849,-10.4202315],[-37.3319891,-10.4174947],[-37.3333429,-10.4016968],[-37.3482934,-10.3996125],[-37.3391575,-10.3848179],[-37.3454444,-10.37939],[-37.3259231,-10.374664],[-37.3021868,-10.3266378],[-37.2820481,-10.3122896],[-37.2704211,-10.3146747],[-37.2740238,-10.3064939],[-37.2676394,-10.3041948],[-37.2355033,-10.3017948],[-37.2491046,-10.3185696],[-37.2409678,-10.355305],[-37.2069753,-10.4037437],[-37.1903705,-10.4057767],[-37.1793113,-10.4174533],[-37.1609129,-10.4103962],[-37.1449894,-10.4194118],[-37.1329615,-10.4055958],[-37.1281185,-10.4112265],[-37.1214872,-10.4049678],[-37.1084003,-10.4185603],[-37.1181394,-10.4407603],[-37.1371291,-10.4537536],[-37.1396678,-10.5070334],[-37.1781852,-10.5654979]]]}},{"type":"Feature","properties":{"level":"municipio","municipality_code":"2804706","municipality_name":"Nossa Senhora de Lourdes","uf":"SE","state_code":"28","area_km2":83.767},"geometry":{"type":"Polygon","coordinates":[[[-36.9835506,-10.0824573],[-37.0392736,-10.1373381],[-37.0471992,-10.124569],[-37.0664591,-10.1364347],[-37.062024,-10.0615473],[-37.0297839,-10.0569375],[-37.0069411,-10.0377451],[-36.9534541,-10.0228196],[-36.9565986,-10.053734],[-36.9483778,-10.0695783],[-36.9835506,-10.0824573]]]}},{"type":"Feature","properties":{"level":"municipio","municipality_code":"2804805","municipality_name":"Nossa Senhora do Socorro","uf":"SE","state_code":"28","area_km2":155.019},"geometry":{"type":"Polygon","coordinates":[[[-37.1014778,-10.8181255],[-37.0382485,-10.8311234],[-37.0283527,-10.8473746],[-37.033909,-10.8700838],[-37.0524571,-10.8626817],[-37.0677388,-10.876753],[-37.0827801,-10.8628182],[-37.1034334,-10.8766412],[-37.096673,-10.8841654],[-37.1048001,-10.8875784],[-37.1020624,-10.9171321],[-37.1460463,-10.9286865],[-37.161635,-10.9231842],[-37.1738906,-10.8995896],[-37.1894531,-10.8859759],[-37.1973866,-10.8890674],[-37.2058543,-10.8752009],[-37.2195276,-10.8771104],[-37.2670021,-10.8470279],[-37.2896104,-10.8516733],[-37.3072959,-10.8328739],[-37.3183587,-10.8321481],[-37.2353877,-10.834815],[-37.2149475,-10.8481225],[-37.179163,-10.855183],[-37.1737431,-10.8420749],[-37.1566792,-10.8318778],[-37.1332371,-10.8350608],[-37.1116263,-10.8292629],[-37.1014778,-10.8181255]]]}},{"type":"Feature","properties":{"level":"municipio","municipality_code":"2804904","municipality_name":"Pacatuba","uf":"SE","state_code":"28","area_km2":381.428},"geometry":{"type":"Polygon","coordinates":[[[-36.6729468,-10.6307931],[-36.7576291,-10.5910466],[-36.7448165,-10.5625301],[-36.7540352,-10.552823],[-36.7514176,-10.5414491],[-36.720612,-10.5271071],[-36.7244361,-10.5171931],[-36.7169383,-10.5139048],[-36.7156185,-10.4464655],[-36.7024605,-10.4172374],[-36.7104919,-10.4025965],[-36.6484104,-10.3996909],[-36.5988129,-10.4150926],[-36.6095589,-10.4263746],[-36.6001494,-10.4968425],[-36.4994128,-10.512986],[-36.4846403,-10.5286229],[-36.4976767,-10.5384651],[-36.4861898,-10.5363835],[-36.5924339,-10.5764754],[-36.6729468,-10.6307931]]]}},{"type":"Feature","properties":{"level":"municipio","municipality_code":"2805000","municipality_name":"Pedra Mole","uf":"SE","state_code":"28","area_km2":82.184},"geometry":{"type":"Polygon","coordinates":[[[-37.6402816,-10.6047205],[-37.6686249,-10.6749001],[-37.6628578,-10.7172813],[-37.6698117,-10.7078176],[-37.677443,-10.7154116],[-37.6843419,-10.7070928],[-37.6739125,-10.7026263],[-37.6867482,-10.6912564],[-37.6846996,-10.6829642],[-37.7150392,-10.6689163],[-37.6936536,-10.6394474],[-37.7031375,-10.6411456],[-37.7196979,-10.6262714],[-37.695372,-10.5820106],[-37.6885609,-10.5319171],[-37.6402816,-10.6047205]]]}},{"type":"Feature","properties":{"level":"municipio","municipality_code":"2805109","municipality_name":"Pedrinhas","uf":"SE","state_code":"28","area_km2":33.344},"geometry":{"type":"Polygon","coordinates":[[[-37.640592,-11.1975419],[-37.6011951,-11.2006034],[-37.5965599,-11.2131819],[-37.6606953,-11.2188828],[-37.6697638,-11.2393232],[-37.6896624,-11.2035815],[-37.7045474,-11.1918161],[-37.6914622,-11.1712376],[-37.6798542,-11.1897078],[-37.6704119,-11.1830264],[-37.640592,-11.1975419]]]}},{"type":"Feature","properties":{"level":"municipio","municipality_code":"2805208","municipality_name":"Pinhão","uf":"SE","state_code":"28","area_km2":156.4},"geometry":{"type":"Polygon","coordinates":[[[-37.749785,-10.6207404],[-37.7662393,-10.6194396],[-37.7670197,-10.6065949],[-37.7756046,-10.6016684],[-37.8003673,-10.5913926],[-37.8070687,-10.600505],[-37.8178384,-10.5857658],[-37.8314627,-10.5842903],[-37.8258766,-10.5809545],[-37.8412976,-10.550533],[-37.8318032,-10.5514941],[-37.8292274,-10.5406543],[-37.8193505,-10.5397194],[-37.8226939,-10.5313266],[-37.8092407,-10.5129813],[-37.7720304,-10.5067691],[-37.7302275,-10.5162848],[-37.7226499,-10.5100709],[-37.6885609,-10.5319171],[-37.695372,-10.5820106],[-37.7047564,-10.591808],[-37.7049459,-10.6068531],[-37.7185865,-10.6177134],[-37.7159819,-10.6337946],[-37.7079664,-10.6355687],[-37.718226,-10.6448202],[-37.722286,-10.6337346],[-37.7398963,-10.6325273],[-37.749785,-10.6207404]]]}},{"type":"Feature","properties":{"level":"municipio","municipality_code":"2805307","municipality_name":"Pirambu","uf":"SE","state_code":"28","area_km2":208.681},"geometry":{"type":"Polygon","coordinates":[[[-36.8497212,-10.7426567],[-36.8728124,-10.7412349],[-36.8687832,-10.7127394],[-36.8791189,-10.6949543],[-36.9004277,-10.7034344],[-36.902551,-10.6840916],[-36.9235489,-10.6768659],[-36.7812829,-10.5749411],[-36.7647818,-10.5796281],[-36.7559216,-10.5942452],[-36.6736517,-10.6287726],[-36.7693059,-10.6787345],[-36.8497212,-10.7426567]]]}},{"type":"Feature","properties":{"level":"municipio","municipality_code":"2805604","municipality_name":"Porto da Folha","uf":"SE","state_code":"28","area_km2":878.044},"geometry":{"type":"Polygon","coordinates":[[[-37.2262513,-9.8977169],[-37.2340625,-9.9584728],[-37.2707132,-9.9621105],[-37.2648411,-9.9930246],[-37.2837624,-9.9890167],[-37.2853469,-10.0081244],[-37.2935493,-10.0158607],[-37.3062567,-9.9994871],[-37.3320443,-10.0158918],[-37.3275703,-10.0093361],[-37.3373883,-9.9862826],[-37.3410855,-9.9983996],[-37.3516181,-9.9942363],[-37.3510899,-10.0143383],[-37.3794874,-10.0099575],[-37.3723104,-10.0210493],[-37.37973,-10.0207444],[-37.3751998,-10.0250883],[-37.3847264,-10.0303766],[-37.3824079,-10.0380132],[-37.4201057,-10.0622368],[-37.4700656,-10.0225294],[-37.5631991,-9.9990073],[-37.5865499,-9.9991764],[-37.5904025,-10.0167928],[-37.6146056,-10.0264554],[-37.6662313,-10.0157357],[-37.6650156,-9.9994815],[-37.6411997,-9.9789775],[-37.6076194,-9.9685111],[-37.4659557,-9.7480263],[-37.4125626,-9.7615592],[-37.3936189,-9.7792353],[-37.3491033,-9.7898084],[-37.3227763,-9.8197357],[-37.3005087,-9.8315612],[-37.2852199,-9.8306289],[-37.2640228,-9.8473688],[-37.245537,-9.8918428],[-37.2262513,-9.8977169]]]}},{"type":"Feature","properties":{"level":"municipio","municipality_code":"2805406","municipality_name":"Poço Redondo","uf":"SE","state_code":"28","area_km2":1074.584},"geometry":{"type":"Polygon","coordinates":[[[-37.6317202,-9.974174],[-37.6650156,-9.9994815],[-37.6738156,-10.0263357],[-37.69893,-10.0220546],[-37.7020584,-10.0137528],[-37.7239739,-10.0283826],[-37.7324491,-10.0207638],[-37.7384552,-10.0289682],[-37.7591042,-10.0256939],[-37.8257939,-10.0366117],[-37.8248135,-10.0234563],[-37.8472437,-9.994281],[-37.8760988,-9.9769558],[-37.8960726,-9.9542834],[-37.8950483,-9.9428308],[-37.9134407,-9.9331128],[-37.8995206,-9.9133972],[-37.8871787,-9.913772],[-37.8655244,-9.8961927],[-37.8724233,-9.8818679],[-37.8695573,-9.8408996],[-37.8545882,-9.7844089],[-37.813004,-9.7948229],[-37.7864623,-9.814036],[-37.6690931,-9.6583403],[-37.6540515,-9.6863334],[-37.577684,-9.7368078],[-37.4659557,-9.7480263],[-37.6076194,-9.9685111],[-37.6317202,-9.974174]]]}},{"type":"Feature","properties":{"level":"municipio","municipality_code":"2805505","municipality_name":"Poço Verde","uf":"SE","state_code":"28","area_km2":441.326},"geometry":{"type":"Polygon","coordinates":[[[-38.1776623,-10.7057782],[-38.1328486,-10.7208767],[-38.1091212,-10.7126376],[-38.067792,-10.7156658],[-38.040229,-10.701109],[-38.0300822,-10.7136102],[-38.0320311,-10.7270843],[-37.9724525,-10.7571364],[-37.9702121,-10.8248222],[-38.0278529,-10.814913],[-38.0742537,-10.8182014],[-38.1147815,-10.8340056],[-38.1266044,-10.8511516],[-38.1194997,-10.8677696],[-38.1240089,-10.882518],[-38.1386997,-10.9001962],[-38.1604472,-10.9025031],[-38.1704025,-10.9267574],[-38.1676366,-10.9407459],[-38.199445,-10.9397612],[-38.2038615,-10.9225626],[-38.2109635,-10.9312114],[-38.2281683,-10.9141839],[-38.238884,-10.8668769],[-38.2313983,-10.8429341],[-38.245009,-10.8226415],[-38.2344044,-10.8121278],[-38.2356387,-10.7946292],[-38.2185886,-10.7832972],[-38.2093598,-10.7604353],[-38.2165189,-10.7268057],[-38.2092695,-10.7119794],[-38.1776623,-10.7057782]]]}},{"type":"Feature","properties":{"level":"municipio","municipality_code":"2805703","municipality_name":"Propriá","uf":"SE","state_code":"28","area_km2":96.32},"geometry":{"type":"Polygon","coordinates":[[[-36.8517672,-10.2382219],[-36.8677089,-10.2281986],[-36.85618,-10.1761938],[-36.8263467,-10.2111873],[-36.8014388,-10.2131064],[-36.7885611,-10.2280941],[-36.7518363,-10.2265253],[-36.7212114,-10.2645986],[-36.7016177,-10.2704043],[-36.7054971,-10.2838758],[-36.7353528,-10.2827973],[-36.7595009,-10.2546023],[-36.7763186,-10.2661132],[-36.7868082,-10.2625912],[-36.7972119,-10.2800771],[-36.804714,-10.280497],[-36.7954642,-10.2828168],[-36.8007694,-10.2947798],[-36.8183673,-10.2982334],[-36.8373776,-10.2898793],[-36.8517672,-10.2382219]]]}},{"type":"Feature","properties":{"level":"municipio","municipality_code":"2805901","municipality_name":"Riachuelo","uf":"SE","state_code":"28","area_km2":78.308},"geometry":{"type":"Polygon","coordinates":[[[-37.1922174,-10.7283098],[-37.1798918,-10.7172548],[-37.1685233,-10.7242326],[-37.1711118,-10.7338634],[-37.1597463,-10.7357492],[-37.1613708,-10.751421],[-37.2160125,-10.7652624],[-37.2215895,-10.7583485],[-37.2445086,-10.7783836],[-37.2725273,-10.7528384],[-37.2826016,-10.7178382],[-37.2649919,-10.7126826],[-37.2589259,-10.701732],[-37.2487985,-10.709345],[-37.2299322,-10.7014095],[-37.2257223,-10.707491],[-37.2304494,-10.6743089],[-37.1990237,-10.6772243],[-37.1957147,-10.6916626],[-37.2058722,-10.7042177],[-37.1982508,-10.7201768],[-37.2071291,-10.7246051],[-37.1922174,-10.7283098]]]}},{"type":"Feature","properties":{"level":"municipio","municipality_code":"2805802","municipality_name":"Riachão do Dantas","uf":"SE","state_code":"28","area_km2":530.607},"geometry":{"type":"Polygon","coordinates":[[[-37.7573133,-11.1488547],[-37.8435385,-11.1089518],[-37.8960828,-11.0409874],[-37.9461137,-10.9961484],[-37.9486188,-10.9852019],[-37.93337,-10.9691361],[-37.9554445,-10.9350077],[-37.9728905,-10.8803692],[-37.9391105,-10.8898482],[-37.9371254,-10.8810227],[-37.8764216,-10.863536],[-37.8658023,-10.8972193],[-37.8751513,-10.9202586],[-37.8462588,-10.9337862],[-37.8349749,-10.9513786],[-37.8382755,-10.9867423],[-37.8267329,-10.9892024],[-37.8220646,-11.0053211],[-37.8114479,-11.0031803],[-37.7930913,-11.018529],[-37.7863763,-11.0064321],[-37.7763931,-11.0058793],[-37.7727023,-11.0182688],[-37.7541506,-11.0033429],[-37.7416961,-11.0106107],[-37.743761,-10.9891812],[-37.7244613,-10.9940462],[-37.6922682,-11.0263171],[-37.6730987,-11.0227401],[-37.6536202,-11.045259],[-37.6426778,-11.0466898],[-37.6343856,-11.0642172],[-37.6159502,-11.0685938],[-37.6119221,-11.0774473],[-37.6227267,-11.0879792],[-37.6330279,-11.0814545],[-37.6495457,-11.1088792],[-37.6467198,-11.1261992],[-37.7067905,-11.1743166],[-37.7179914,-11.161957],[-37.7269937,-11.1649132],[-37.7366496,-11.1498351],[-37.7573133,-11.1488547]]]}},{"type":"Feature","properties":{"level":"municipio","municipality_code":"2806008","municipality_name":"Ribeirópolis","uf":"SE","state_code":"28","area_km2":259.056},"geometry":{"type":"Polygon","coordinates":[[[-37.421059,-10.4017796],[-37.3688442,-10.4508484],[-37.3597863,-10.4835447],[-37.3196293,-10.5394362],[-37.3542736,-10.5434295],[-37.3945425,-10.5823203],[-37.4226444,-10.5762908],[-37.4597452,-10.5943099],[-37.5110176,-10.5060162],[-37.5475392,-10.4618202],[-37.4745128,-10.4599091],[-37.421059,-10.4017796]]]}},{"type":"Feature","properties":{"level":"municipio","municipality_code":"2806107","municipality_name":"Rosário do Catete","uf":"SE","state_code":"28","area_km2":102.683},"geometry":{"type":"Polygon","coordinates":[[[-37.0774791,-10.6331118],[-37.071822,-10.6150688],[-37.0361927,-10.6255813],[-37.0108579,-10.6421965],[-37.0128236,-10.6899644],[-36.9921337,-10.7034722],[-36.96126,-10.7040099],[-36.949884,-10.7127352],[-36.9829933,-10.7361664],[-37.0159224,-10.7216083],[-37.0685114,-10.7479857],[-37.0618424,-10.7144897],[-37.0511644,-10.7032081],[-37.0586352,-10.6910963],[-37.0842548,-10.6856253],[-37.0918388,-10.675551],[-37.091883,-10.6408288],[-37.0774791,-10.6331118]]]}},{"type":"Feature","properties":{"level":"municipio","municipality_code":"2806206","municipality_name":"Salgado","uf":"SE","state_code":"28","area_km2":247.579},"geometry":{"type":"Polygon","coordinates":[[[-37.5196612,-10.9603419],[-37.4264599,-10.9883524],[-37.4247147,-11.0032072],[-37.41235,-11.0105601],[-37.3888122,-11.0529643],[-37.4382073,-11.0870033],[-37.4300615,-11.1067969],[-37.4391385,-11.1139767],[-37.4343229,-11.1202106],[-37.458977,-11.14633],[-37.5461599,-11.1658542],[-37.5543535,-11.1529786],[-37.5439998,-11.1534681],[-37.540914,-11.1421887],[-37.5530872,-11.1401137],[-37.5287229,-11.0538879],[-37.531008,-10.9962223],[-37.5196612,-10.9603419]]]}},{"type":"Feature","properties":{"level":"municipio","municipality_code":"2806305","municipality_name":"Santa Luzia do Itanhy","uf":"SE","state_code":"28","area_km2":325.258},"geometry":{"type":"Polygon","coordinates":[[[-37.4948952,-11.4422255],[-37.5065692,-11.4143266],[-37.5226951,-11.4221423],[-37.5647467,-11.411556],[-37.6023638,-11.3888636],[-37.6753485,-11.3232272],[-37.6739776,-11.3015038],[-37.6830953,-11.3162533],[-37.6921173,-11.308129],[-37.6634408,-11.289966],[-37.6032655,-11.3430164],[-37.591077,-11.3253867],[-37.5720227,-11.3229727],[-37.5483383,-11.303859],[-37.5192622,-11.2988184],[-37.4617827,-11.3111652],[-37.4471011,-11.2941983],[-37.4256922,-11.3081477],[-37.4060839,-11.3018754],[-37.3777788,-11.336919],[-37.3894039,-11.3719985],[-37.4063076,-11.3931101],[-37.4087064,-11.4238657],[-37.4211413,-11.4302299],[-37.4415665,-11.4263473],[-37.4473188,-11.4422997],[-37.4730708,-11.4507732],[-37.4948952,-11.4422255]],[[-37.663121,-11.3317523],[-37.6465988,-11.3248759],[-37.6514442,-11.3206079],[-37.663121,-11.3317523]],[[-37.6349497,-11.3469007],[-37.6359251,-11.3408251],[-37.6390612,-11.3554509],[-37.6349497,-11.3469007]]]}},{"type":"Feature","properties":{"level":"municipio","municipality_code":"2806503","municipality_name":"Santa Rosa de Lima","uf":"SE","state_code":"28","area_km2":67.672},"geometry":{"type":"Polygon","coordinates":[[[-37.2290217,-10.6746485],[-37.246422,-10.6611309],[-37.2464671,-10.6477082],[-37.2588999,-10.6492917],[-37.2681747,-10.6341412],[-37.2790216,-10.6326321],[-37.2818062,-10.6173873],[-37.2954602,-10.6108607],[-37.2932421,-10.5945323],[-37.278479,-10.5865878],[-37.2449784,-10.5936385],[-37.1802556,-10.6408381],[-37.1928695,-10.6780331],[-37.2290217,-10.6746485]]]}},{"type":"Feature","properties":{"level":"municipio","municipality_code":"2806404","municipality_name":"Santana do São Francisco","uf":"SE","state_code":"28","area_km2":44.017},"geometry":{"type":"Polygon","coordinates":[[[-36.6592757,-10.2684482],[-36.6385707,-10.251963],[-36.6245204,-10.254178],[-36.5872923,-10.301272],[-36.6536409,-10.3210714],[-36.6836708,-10.270751],[-36.6592757,-10.2684482]]]}},{"type":"Feature","properties":{"level":"municipio","municipality_code":"2806602","municipality_name":"Santo Amaro das Brotas","uf":"SE","state_code":"28","area_km2":236.965},"geometry":{"type":"Polygon","coordinates":[[[-37.0284196,-10.847819],[-37.0382485,-10.8311234],[-37.0648794,-10.8230342],[-37.0886778,-10.7958576],[-37.0881783,-10.7831768],[-37.0678133,-10.7681909],[-37.0686057,-10.7477593],[-37.0159224,-10.7216083],[-36.9837856,-10.736355],[-36.9678064,-10.7304124],[-36.9166333,-10.6855687],[-36.9201876,-10.7010344],[-36.9121621,-10.7050192],[-36.902069,-10.6919641],[-36.8954283,-10.7054531],[-36.8850522,-10.7012838],[-36.8880707,-10.6946808],[-36.8791189,-10.6949543],[-36.8753919,-10.708071],[-36.8701582,-10.706406],[-36.8670527,-10.7324675],[-36.899418,-10.7725715],[-36.9280848,-10.7901741],[-36.9373224,-10.7872725],[-36.9384231,-10.7953244],[-36.9591754,-10.8072664],[-36.9684384,-10.832886],[-36.9866815,-10.8346782],[-36.9832695,-10.8489565],[-37.0156969,-10.8640143],[-37.0170719,-10.8760279],[-37.0315785,-10.8863854],[-37.0398173,-10.8840954],[-37.0284196,-10.847819]]]}},{"type":"Feature","properties":{"level":"municipio","municipality_code":"2807105","municipality_name":"Simão Dias","uf":"SE","state_code":"28","area_km2":560.199},"geometry":{"type":"Polygon","coordinates":[[[-37.8086304,-10.6876321],[-37.8140471,-10.6698198],[-37.8029907,-10.6521623],[-37.8167229,-10.6313785],[-37.8003673,-10.5913926],[-37.7674262,-10.6060909],[-37.7662393,-10.6194396],[-37.722286,-10.6337346],[-37.718226,-10.6448202],[-37.7066001,-10.6330613],[-37.7031375,-10.6411456],[-37.6942961,-10.6385066],[-37.7150392,-10.6689163],[-37.6828786,-10.6854356],[-37.6867482,-10.6912564],[-37.6739125,-10.7026263],[-37.6846504,-10.7082198],[-37.678581,-10.7265889],[-37.7075004,-10.7381666],[-37.7327519,-10.7973945],[-37.8045658,-10.8378814],[-37.8138269,-10.8698319],[-37.8283798,-10.8589943],[-37.8608151,-10.8693198],[-37.8774331,-10.8634981],[-37.9371254,-10.8810227],[-37.9391105,-10.8898482],[-37.9728905,-10.8803692],[-37.9724525,-10.7571364],[-37.9528941,-10.7501022],[-37.9454812,-10.7565173],[-37.9096224,-10.7155103],[-37.8730685,-10.7007684],[-37.8475103,-10.6992649],[-37.8328001,-10.6804747],[-37.8086304,-10.6876321]]]}},{"type":"Feature","properties":{"level":"municipio","municipality_code":"2807204","municipality_name":"Siriri","uf":"SE","state_code":"28","area_km2":168.343},"geometry":{"type":"Polygon","coordinates":[[[-37.0757272,-10.6312992],[-37.1328916,-10.651568],[-37.1460288,-10.636449],[-37.1433828,-10.6252299],[-37.1589045,-10.6277891],[-37.1504959,-10.6208492],[-37.1779014,-10.6254765],[-37.2072713,-10.6075933],[-37.1707958,-10.5706427],[-37.1808145,-10.5628024],[-37.1396678,-10.5070334],[-37.1386694,-10.4701314],[-37.1144064,-10.4824791],[-37.1027153,-10.5061496],[-37.102427,-10.5305887],[-37.0650315,-10.5304766],[-37.0732313,-10.5566935],[-37.0685068,-10.573013],[-37.0769789,-10.5842236],[-37.0670495,-10.5897808],[-37.0643109,-10.6038422],[-37.0757272,-10.6312992]]]}},{"type":"Feature","properties":{"level":"municipio","municipality_code":"2806701","municipality_name":"São Cristóvão","uf":"SE","state_code":"28","area_km2":438.037},"geometry":{"type":"Polygon","coordinates":[[[-37.0913904,-10.9409634],[-37.1391436,-11.0628592],[-37.1570738,-11.0550775],[-37.1728727,-11.0765796],[-37.1621307,-11.0938163],[-37.1663878,-11.1053588],[-37.2176448,-11.0779745],[-37.2271831,-11.0406083],[-37.279717,-11.0291674],[-37.2874281,-11.0142072],[-37.2942088,-11.0183223],[-37.3020012,-11.0086733],[-37.3028845,-10.9868043],[-37.3279273,-10.9762921],[-37.3232952,-10.9698457],[-37.3324974,-10.963364],[-37.3350999,-10.9439583],[-37.3276865,-10.9331335],[-37.3180827,-10.8322024],[-37.3072959,-10.8328739],[-37.2896104,-10.8516733],[-37.2670021,-10.8470279],[-37.2195276,-10.8771104],[-37.2058543,-10.8752009],[-37.1973866,-10.8890674],[-37.1894531,-10.8859759],[-37.1738906,-10.8995896],[-37.1610458,-10.9235042],[-37.1460463,-10.9286865],[-37.1023464,-10.9169125],[-37.0913904,-10.9409634]]]}},{"type":"Feature","properties":{"level":"municipio","municipality_code":"2806800","municipality_name":"São Domingos","uf":"SE","state_code":"28","area_km2":101.999},"geometry":{"type":"Polygon","coordinates":[[[-37.5445633,-10.835199],[-37.5820744,-10.8361259],[-37.6102239,-10.8122765],[-37.6142821,-10.7962813],[-37.599887,-10.7787792],[-37.6202384,-10.7487298],[-37.633483,-10.7484526],[-37.6310431,-10.7265038],[-37.605213,-10.7093346],[-37.6044134,-10.6940051],[-37.5887225,-10.7030951],[-37.5879724,-10.7222198],[-37.5600188,-10.7573246],[-37.5662086,-10.7678289],[-37.557882,-10.7815553],[-37.5279866,-10.7843872],[-37.5301188,-10.790823],[-37.5160762,-10.7989622],[-37.5245675,-10.8195577],[-37.4962656,-10.8341],[-37.5091625,-10.8348596],[-37.5173034,-10.8453324],[-37.5445633,-10.835199]]]}},{"type":"Feature","properties":{"level":"municipio","municipality_code":"2806909","municipality_name":"São Francisco","uf":"SE","state_code":"28","area_km2":83.985},"geometry":{"type":"Polygon","coordinates":[[[-36.886201,-10.3008241],[-36.8444497,-10.2619036],[-36.8373776,-10.2898793],[-36.8187151,-10.2976353],[-36.822563,-10.3041631],[-36.807406,-10.3288751],[-36.8392658,-10.3359863],[-36.8459149,-10.3463026],[-36.843868,-10.3669681],[-36.85648,-10.3825651],[-36.891604,-10.3859811],[-36.9029969,-10.4025956],[-36.9157572,-10.3934145],[-36.9007488,-10.3501212],[-36.9026627,-10.3242115],[-36.886201,-10.3008241]]]}},{"type":"Feature","properties":{"level":"municipio","municipality_code":"2807006","municipality_name":"São Miguel do Aleixo","uf":"SE","state_code":"28","area_km2":139.946},"geometry":{"type":"Polygon","coordinates":[[[-37.4103509,-10.4148246],[-37.4130482,-10.3460054],[-37.4053777,-10.2848817],[-37.3865419,-10.2929533],[-37.3913835,-10.31744],[-37.3782933,-10.3159058],[-37.3734717,-10.330012],[-37.3623142,-10.3282986],[-37.3586681,-10.345513],[-37.3495628,-10.346549],[-37.344542,-10.3614921],[-37.3565761,-10.3686249],[-37.3491046,-10.371474],[-37.3490448,-10.3843649],[-37.3391867,-10.3845159],[-37.3482252,-10.4000216],[-37.3345993,-10.3999339],[-37.3319891,-10.4174947],[-37.3242849,-10.4202315],[-37.3326611,-10.4301856],[-37.3203403,-10.4343055],[-37.307591,-10.425004],[-37.3029159,-10.4358638],[-37.2948904,-10.432416],[-37.2902817,-10.4665879],[-37.2745684,-10.465872],[-37.350668,-10.4912385],[-37.3658197,-10.4707699],[-37.3688442,-10.4508484],[-37.4103509,-10.4148246]]]}},{"type":"Feature","properties":{"level":"municipio","municipality_code":"2807303","municipality_name":"Telha","uf":"SE","state_code":"28","area_km2":47.86},"geometry":{"type":"Polygon","coordinates":[[[-36.8677089,-10.2281986],[-36.9434241,-10.2275439],[-36.8825718,-10.1474604],[-36.8714167,-10.1465145],[-36.844931,-10.1887573],[-36.8575582,-10.1765096],[-36.8677089,-10.2281986]]]}},{"type":"Feature","properties":{"level":"municipio","municipality_code":"2807402","municipality_name":"Tobias Barreto","uf":"SE","state_code":"28","area_km2":1024.645},"geometry":{"type":"Polygon","coordinates":[[[-38.0709225,-11.1413845],[-38.0656188,-11.1229761],[-38.0884012,-11.1162559],[-38.0932815,-11.1039677],[-38.0751149,-11.0770939],[-38.1024196,-11.0439829],[-38.1019992,-11.0158945],[-38.1205468,-11.0071072],[-38.1299112,-11.0189146],[-38.1441782,-11.0016573],[-38.1736441,-10.9859533],[-38.1863728,-10.9614634],[-38.1806156,-10.9427672],[-38.1669871,-10.9398276],[-38.1704025,-10.9267574],[-38.1604472,-10.9025031],[-38.1386997,-10.9001962],[-38.1250997,-10.8845693],[-38.1194997,-10.8677696],[-38.1266044,-10.8511516],[-38.1147815,-10.8340056],[-38.0739237,-10.8181574],[-38.0203632,-10.8152209],[-37.9770199,-10.8221717],[-37.9702121,-10.8248222],[-37.9728905,-10.8803692],[-37.9554445,-10.9350077],[-37.93337,-10.9691361],[-37.9486188,-10.9852019],[-37.9461137,-10.9961484],[-37.8960828,-11.0409874],[-37.8435385,-11.1089518],[-37.7934412,-11.1329744],[-37.8464968,-11.1607612],[-37.87638,-11.1865902],[-37.8674576,-11.2213261],[-37.88619,-11.21271],[-37.9047926,-11.2219551],[-37.937174,-11.269368],[-37.938173,-11.285313],[-37.951238,-11.294978],[-37.9503708,-11.3065471],[-37.9679135,-11.3096777],[-37.966753,-11.323118],[-37.9822354,-11.3479451],[-37.9999108,-11.3402542],[-37.9873881,-11.3314555],[-37.9986061,-11.3221708],[-37.9903544,-11.3209394],[-37.991652,-11.3128427],[-38.0147631,-11.2857234],[-38.0022534,-11.2854099],[-37.9867423,-11.2720959],[-37.9958538,-11.259476],[-37.9836406,-11.248288],[-37.9937153,-11.2396408],[-37.9857791,-11.2372787],[-37.990642,-11.2279944],[-37.9774626,-11.2215879],[-37.9814195,-11.1984663],[-37.9737486,-11.1936888],[-38.0029487,-11.193824],[-38.0234231,-11.1777425],[-38.0474112,-11.1814236],[-38.0709225,-11.1413845]]]}},{"type":"Feature","properties":{"level":"municipio","municipality_code":"2807501","municipality_name":"Tomar do Geru","uf":"SE","state_code":"28","area_km2":304.837},"geometry":{"type":"Polygon","coordinates":[[[-37.7916286,-11.3473244],[-37.7844087,-11.3736982],[-37.7705426,-11.3768541],[-37.7614063,-11.4056306],[-37.7717346,-11.416202],[-37.7877747,-11.4121343],[-37.7871613,-11.4236772],[-37.8091623,-11.4356483],[-37.8147688,-11.4670261],[-37.8382175,-11.4827195],[-37.8478473,-11.469726],[-37.8643318,-11.4665836],[-37.8633362,-11.453224],[-37.848068,-11.4439282],[-37.8803353,-11.4332106],[-37.8660826,-11.4270984],[-37.8823804,-11.4247047],[-37.8991544,-11.4382534],[-37.907166,-11.4267156],[-37.9053145,-11.408274],[-37.9275578,-11.4013024],[-37.9365551,-11.4219087],[-37.9447435,-11.4240276],[-37.945364,-11.412789],[-37.9559587,-11.4068623],[-37.9528039,-11.3944876],[-37.9650377,-11.40212],[-37.9651428,-11.3918778],[-37.9814798,-11.3864036],[-37.96784,-11.3794736],[-37.9822378,-11.3477811],[-37.966753,-11.323118],[-37.9679135,-11.3096777],[-37.9503708,-11.3065471],[-37.9369396,-11.2692973],[-37.9169359,-11.2891878],[-37.8996146,-11.275293],[-37.878623,-11.2886445],[-37.8707856,-11.2842604],[-37.8631424,-11.299791],[-37.8495695,-11.2979486],[-37.8291451,-11.3201962],[-37.8176541,-11.3197876],[-37.8149496,-11.3315567],[-37.7916286,-11.3473244]]]}},{"type":"Feature","properties":{"level":"municipio","municipality_code":"2807600","municipality_name":"Umbaúba","uf":"SE","state_code":"28","area_km2":117.514},"geometry":{"type":"Polygon","coordinates":[[[-37.6751311,-11.3441546],[-37.6562475,-11.3404188],[-37.6023638,-11.3888636],[-37.6591547,-11.4847115],[-37.6773561,-11.4713562],[-37.6712616,-11.456046],[-37.6923705,-11.4241608],[-37.7204938,-11.4076499],[-37.7225309,-11.3991421],[-37.7301281,-11.4016243],[-37.6922092,-11.3658342],[-37.6921173,-11.308129],[-37.664869,-11.3326605],[-37.6758438,-11.3363409],[-37.6751311,-11.3441546]]]}}]}